organizationCode,organizationName,locationName,locationNameKana,locationAddress,latitude,longitude,availableDays,mondayAvailableStartTime,mondayAvailableEndTime,tuesdayAvailableStartTime,tuesdayAvailableEndTime,wednesdayAvailableStartTime,wednesdayAvailableEndTime,thursdayAvailableStartTime,thursdayAvailableEndTime,fridayAvailableStartTime,fridayAvailableEndTime,saturdayAvailableStartTime,saturdayAvailableEndTime,sundayAvailableStartTime,sundayAvailableEndTime,holidayAvailableStartTime,holidayAvailableEndTime,holidayAvailable,holidayNextDayAvailable,acceptableHolidays,invalidHolidays,unavailableNthMonday,unavailableNthTuesday,unavailableNthWednesday,unavailableNthThursday,unavailableNthFriday,unavailableNthSaturday,unavailableNthSunday,unavailableDates,notes
11007,さいたま市,市役所本庁舎,ｼﾔｸｼｮﾎﾝﾁｮｳｼｬ,浦和区常盤6丁目4-4,35.861609,139.6454925,月～金（土、日、祝日、年末年始使用不可）,8:30,17:15,8:30,17:15,8:30,17:15,8:30,17:15,8:30,17:15,,,,,,,FALSE,TRUE,,,,,,,,,,12-29|12-30|12-31|01-01|01-02|01-03,
11007,さいたま市,ときわ会館2階,ﾄｷﾜｶｲｶﾝ2ｶｲ,浦和区常盤6丁目4-21,35.8617528,139.6441987,月～金（土、日、祝日、年末年始使用不可）,8:30,17:15,8:30,17:15,8:30,17:15,8:30,17:15,8:30,17:15,,,,,,,FALSE,TRUE,,,,,,,,,,12-29|12-30|12-31|01-01|01-02|01-03,
11007,さいたま市,市民活動サポートセンター,ｼﾐﾝｶﾂﾄﾞｳｻﾎﾟｰﾄｾﾝﾀｰ,浦和区東高砂町11-1,35.8586737,139.6591511,年末年始以外,8:30,21:30,8:30,21:30,8:30,21:30,8:30,21:30,8:30,21:30,8:30,21:30,8:30,21:30,,,TRUE,TRUE,,,,,,,,,,12-29|12-30|12-31|01-01|01-02|01-03,
11007,さいたま市,西区役所,ﾆｼｸﾔｸｼｮ,西区指扇3743,35.9251934,139.5796525,月～金（土、日、祝日、年末年始使用不可）,8:30,17:15,8:30,17:15,8:30,17:15,8:30,17:15,8:30,17:15,,,,,,,FALSE,TRUE,,,,,,,,,,12-29|12-30|12-31|01-01|01-02|01-03,
11007,さいたま市,馬宮支所,ﾏﾐﾔｼｼｮ,西区西遊馬236-2,35.9037201,139.5730976,月～金（土、日、祝日、年末年始使用不可）,8:30,17:15,8:30,17:15,8:30,17:15,8:30,17:15,8:30,17:15,,,,,,,FALSE,TRUE,,,,,,,,,,12-29|12-30|12-31|01-01|01-02|01-03,
11007,さいたま市,植水支所,ｳｴﾐｽﾞｼｼｮ,西区中野林173-2,35.8939248,139.5917342,月～金（土、日、祝日、年末年始使用不可）,8:30,17:15,8:30,17:15,8:30,17:15,8:30,17:15,8:30,17:15,,,,,,,FALSE,TRUE,,,,,,,,,,12-29|12-30|12-31|01-01|01-02|01-03,
11007,さいたま市,三橋支所,ﾐﾊｼｼｼｮ,西区三橋6丁目642-4,35.9175959,139.5920055,月～金（土、日、祝日、年末年始使用不可）,8:30,17:15,8:30,17:15,8:30,17:15,8:30,17:15,8:30,17:15,,,,,,,FALSE,TRUE,,,,,,,,,,12-29|12-30|12-31|01-01|01-02|01-03,
11007,さいたま市,北区役所,ｷﾀｸﾔｸｼｮ,北区宮原町1丁目852-1,35.9314988,139.6203592,月～金（土、日、祝日、年末年始使用不可）,8:30,17:15,8:30,17:15,8:30,17:15,8:30,17:15,8:30,17:15,,,,,,,FALSE,TRUE,,,,,,,,,,12-29|12-30|12-31|01-01|01-02|01-03,
11007,さいたま市,プラザノース,ﾌﾟﾗｻﾞﾉｰｽ,北区宮原町1丁目852-1,35.9314988,139.6203592,全日（年末年始使用不可）,9:00,21:30,9:00,21:30,9:00,21:30,9:00,21:30,9:00,21:30,9:00,21:30,9:00,21:30,,,TRUE,TRUE,,,,,,,,,,12-29|12-30|12-31|01-01|01-02|01-03,
11007,さいたま市,日進支所,ﾆｯｼﾝｼｼｮ,北区日進町2丁目965,35.9243972,139.6060185,月～金（土、日、祝日、年末年始使用不可）,8:30,17:15,8:30,17:15,8:30,17:15,8:30,17:15,8:30,17:15,,,,,,,FALSE,TRUE,,,,,,,,,,12-29|12-30|12-31|01-01|01-02|01-03,
11007,さいたま市,宮原支所,ﾐﾔﾊﾗｼｼｮ,北区宮原町3丁目824-2,35.9405982,139.6097396,月～金（土、日、祝日、年末年始使用不可）,8:30,17:15,8:30,17:15,8:30,17:15,8:30,17:15,8:30,17:15,,,,,,,FALSE,TRUE,,,,,,,,,,12-29|12-30|12-31|01-01|01-02|01-03,
11007,さいたま市,大宮区役所,ｵｵﾐﾔｸﾔｸｼｮ,大宮区大門町3-1,35.9064462,139.628654,月～金（土、日、祝日、年末年始使用不可）,8:30,17:15,8:30,17:15,8:30,17:15,8:30,17:15,8:30,17:15,,,,,,,FALSE,TRUE,,,,,,,,,,12-29|12-30|12-31|01-01|01-02|01-03,
11007,さいたま市,大宮駅支所,ｵｵﾐﾔｴｷｼｼｮ,大宮区錦町630,35.9062104,139.6236845,月～金（土、日、祝日、年末年始使用不可）,8:30,19:00,8:30,19:00,8:30,19:00,8:30,19:00,8:30,19:00,,,,,,,FALSE,TRUE,,,,,,,,,,12-29|12-30|12-31|01-01|01-02|01-03,
11007,さいたま市,見沼区役所,ﾐﾇﾏｸﾔｸｼｮ,見沼区堀崎町12-36,35.9352311,139.654387,月～金（土、日、祝日、年末年始使用不可）,8:30,17:15,8:30,17:15,8:30,17:15,8:30,17:15,8:30,17:15,,,,,,,FALSE,TRUE,,,,,,,,,,12-29|12-30|12-31|01-01|01-02|01-03,
11007,さいたま市,片柳支所,ｶﾀﾔﾅｷﾞｼｼｮ,見沼区東新井117-2,35.9097238,139.6708478,月～金（土、日、祝日、年末年始使用不可）,8:30,17:15,8:30,17:15,8:30,17:15,8:30,17:15,8:30,17:15,,,,,,,FALSE,TRUE,,,,,,,,,,12-29|12-30|12-31|01-01|01-02|01-03,
11007,さいたま市,七里支所,ﾅﾅｻﾄｼｼｮ,見沼区東門前379-1,35.9328387,139.6724841,月～金（土、日、祝日、年末年始使用不可）,8:30,17:15,8:30,17:15,8:30,17:15,8:30,17:15,8:30,17:15,,,,,,,FALSE,TRUE,,,,,,,,,,12-29|12-30|12-31|01-01|01-02|01-03,
11007,さいたま市,春岡支所,ﾊﾙｵｶｼｼｮ,見沼区深作1丁目5-1,35.950778,139.6643905,月～金（土、日、祝日、年末年始使用不可）,8:30,17:15,8:30,17:15,8:30,17:15,8:30,17:15,8:30,17:15,,,,,,,FALSE,TRUE,,,,,,,,,,12-29|12-30|12-31|01-01|01-02|01-03,
11007,さいたま市,東大宮支所,ﾋｶﾞｼｵｵﾐﾔｼｼｮ,見沼区東大宮4丁目31-1,35.9493778,139.6373307,月～金（土、日、祝日、年末年始使用不可）,8:30,17:15,8:30,17:15,8:30,17:15,8:30,17:15,8:30,17:15,,,,,,,FALSE,TRUE,,,,,,,,,,12-29|12-30|12-31|01-01|01-02|01-03,
11007,さいたま市,中央区役所,ﾁｭｳｵｳｸﾔｸｼｮ,中央区下落合5丁目7-10,35.8839407,139.6261544,月～金（土、日、祝日、年末年始使用不可）,8:30,17:15,8:30,17:15,8:30,17:15,8:30,17:15,8:30,17:15,,,,,,,FALSE,TRUE,,,,,,,,,,12-29|12-30|12-31|01-01|01-02|01-03,
11007,さいたま市,与野駅市民の窓口,ﾖﾉｴｷｼﾐﾝﾉﾏﾄﾞｸﾞﾁ,浦和区上木崎2丁目2-2,35.8858774,139.639735,月～金（土、日、祝日、年末年始使用不可）,8:30,19:00,8:30,19:00,8:30,19:00,8:30,19:00,8:30,19:00,,,,,,,FALSE,TRUE,,,,,,,,,,12-29|12-30|12-31|01-01|01-02|01-03,
11007,さいたま市,中央区保健センター,ﾁｭｳｵｳｸﾎｹﾝｾﾝﾀー,中央区本町東4丁目4-3,35.8855126,139.6227708,月～金（土、日、祝日、年末年始使用不可）,8:30,17:15,8:30,17:15,8:30,17:15,8:30,17:15,8:30,17:15,,,,,,,FALSE,TRUE,,,,,,,,,,12-29|12-30|12-31|01-01|01-02|01-03,
11007,さいたま市,桜区役所（プラザウエスト内）,ｻｸﾗｸﾔｸｼｮ（ﾌﾟﾗｻﾞｳｴｽﾄﾅｲ）,桜区道場4丁目3-1,35.8556337,139.6088379,全日（年末年始使用不可）,8:30,21:30,8:30,21:30,8:30,21:30,8:30,21:30,8:30,21:30,8:30,21:30,8:30,21:30,,,TRUE,TRUE,,,,,,,,,,12-29|12-30|12-31|01-01|01-02|01-03,
11007,さいたま市,土合支所,ﾂﾁｱｲｼｼｮ,桜区西堀4丁目2-35,35.8518048,139.6278322,月～金（土、日、祝日、年末年始使用不可）,8:30,17:15,8:30,17:15,8:30,17:15,8:30,17:15,8:30,17:15,,,,,,,FALSE,TRUE,,,,,,,,,,12-29|12-30|12-31|01-01|01-02|01-03,
11007,さいたま市,大久保支所,ｵｵｸﾎﾞｼｼｮ,桜区五関839-2,35.8702243,139.5978328,月～金（土、日、祝日、年末年始使用不可）,8:30,17:15,8:30,17:15,8:30,17:15,8:30,17:15,8:30,17:15,,,,,,,FALSE,TRUE,,,,,,,,,,12-29|12-30|12-31|01-01|01-02|01-03,
11007,さいたま市,西浦和駅市民の窓口,ﾆｼｳﾗﾜｴｷｼﾐﾝﾉﾏﾄﾞｸﾞﾁ,桜区田島5丁目9-15,35.8438013,139.6274094,月～金（土、日、祝日、年末年始使用不可）,8:30,19:00,8:30,19:00,8:30,19:00,8:30,19:00,8:30,19:00,,,,,,,FALSE,TRUE,,,,,,,,,,12-29|12-30|12-31|01-01|01-02|01-03,
11007,さいたま市,浦和区役所,ｳﾗﾜｸﾔｸｼｮ,浦和区常盤6丁目4-4,35.861609,139.6454925,月～金（土、日、祝日、年末年始使用不可）,8:30,17:15,8:30,17:15,8:30,17:15,8:30,17:15,8:30,17:15,,,,,,,FALSE,TRUE,,,,,,,,,,12-29|12-30|12-31|01-01|01-02|01-03,
11007,さいたま市,浦和区保健センター,ｳﾗﾜｸﾎｹﾝｾﾝﾀー,浦和区常盤6丁目4-18,35.861402,139.6441699,全日,8:30,21:30,8:30,21:30,8:30,21:30,8:30,21:30,8:30,21:30,8:30,21:30,8:30,21:30,,,TRUE,TRUE,,,,,,,,,,,
11007,さいたま市,北浦和駅市民の窓口,ｷﾀｳﾗﾜｴｷｼﾐﾝﾉﾏﾄﾞｸﾞﾁ,浦和区北浦和3丁目3-1,35.8725225,139.6459569,月～土（日、祝日、年末年始使用不可）,8:30,19:00,8:30,19:00,8:30,19:00,8:30,19:00,8:30,19:00,8:30,19:00,,,,,FALSE,TRUE,,,,,,,,,,12-29|12-30|12-31|01-01|01-02|01-03,
11007,さいたま市,南区役所,ﾐﾅﾐｸﾔｸｼｮ,南区別所7丁目20-1,35.8452604,139.6453465,月～金（土、日、祝日、年末年始使用不可）,8:00,17:30,8:00,17:30,8:00,17:30,8:00,17:30,8:00,17:30,,,,,,,FALSE,TRUE,,,,,,,,,,12-29|12-30|12-31|01-01|01-02|01-03,
11007,さいたま市,南浦和駅市民の窓口,ﾐﾅﾐｳﾗﾜｴｷｼﾐﾝﾉﾏﾄﾞｸﾞﾁ,南区南浦和2丁目37-1,35.8469097,139.669395,月～金（土、日、祝日、年末年始使用不可）,8:30,19:00,8:30,19:00,8:30,19:00,8:30,19:00,8:30,19:00,,,,,,,FALSE,TRUE,,,,,,,,,,12-29|12-30|12-31|01-01|01-02|01-03,
11007,さいたま市,谷田支所,ﾔﾀﾞｼｼｮ,南区太田窪1277-1,35.8598126,139.6759217,月～金（土、日、祝日、年末年始使用不可）,8:30,17:15,8:30,17:15,8:30,17:15,8:30,17:15,8:30,17:15,,,,,,,FALSE,TRUE,,,,,,,,,,12-29|12-30|12-31|01-01|01-02|01-03,
11007,さいたま市,緑区役所,ﾐﾄﾞﾘｸﾔｸｼｮ,緑区中尾975-1,35.8711031,139.6841506,月～金（土、日、祝日、年末年始使用不可）,8:30,17:15,8:30,17:15,8:30,17:15,8:30,17:15,8:30,17:15,,,,,,,FALSE,TRUE,,,,,,,,,,12-29|12-30|12-31|01-01|01-02|01-03,
11007,さいたま市,三室支所,ﾐﾑﾛｼｼｮ,緑区三室1946-5,35.8831227,139.6815821,月～金（土、日、祝日、年末年始使用不可）,8:30,17:15,8:30,17:15,8:30,17:15,8:30,17:15,8:30,17:15,,,,,,,FALSE,TRUE,,,,,,,,,,12-29|12-30|12-31|01-01|01-02|01-03,
11007,さいたま市,美園支所,ﾐｿﾉｼｼｮ,緑区大門1973-1,35.8895447,139.7178744,月～金（土、日、祝日、年末年始使用不可）,8:30,17:15,8:30,17:15,8:30,17:15,8:30,17:15,8:30,17:15,,,,,,,FALSE,TRUE,,,,,,,,,,12-29|12-30|12-31|01-01|01-02|01-03,
11007,さいたま市,東浦和駅市民の窓口,ﾋｶﾞｼｳﾗﾜｴｷｼﾐﾝﾉﾏﾄﾞｸﾞﾁ,緑区東浦和4丁目1-16,35.8662533,139.7034861,月～金（土、日、祝日、年末年始使用不可）,8:30,19:00,8:30,19:00,8:30,19:00,8:30,19:00,8:30,19:00,,,,,,,FALSE,TRUE,,,,,,,,,,12-29|12-30|12-31|01-01|01-02|01-03,
11007,さいたま市,山崎市民の窓口,ﾔﾏｻﾞｷｼﾐﾝﾉﾏﾄﾞｸﾞﾁ,緑区三室223-8,35.8897792,139.6675921,月～金（土、日、祝日、年末年始使用不可）,8:30,17:15,8:30,17:15,8:30,17:15,8:30,17:15,8:30,17:15,,,,,,,FALSE,TRUE,,,,,,,,,,12-29|12-30|12-31|01-01|01-02|01-03,
11007,さいたま市,岩槻区役所,ｲﾜﾂｷｸﾔｸｼｮ,岩槻区本町3丁目2-5,35.949945,139.6942564,月～金（土、日、祝日、年末年始使用不可）,8:30,17:15,8:30,17:15,8:30,17:15,8:30,17:15,8:30,17:15,,,,,,,FALSE,TRUE,,,,,,,,,,12-29|12-30|12-31|01-01|01-02|01-03,
11007,さいたま市,府内市民の窓口,ﾌﾅｲｼﾐﾝﾉﾏﾄﾞｸﾞﾁ,岩槻区府内1丁目8-1,35.9438475,139.7108986,月～土（日、祝日、年末年始使用不可）,8:30,19:00,8:30,19:00,8:30,19:00,8:30,19:00,8:30,19:00,8:30,19:00,,,,,FALSE,TRUE,,,,,,,,,,12-29|12-30|12-31|01-01|01-02|01-03,
11007,さいたま市,馬宮コミュニティセンター,ﾏﾐﾔｺﾐｭﾆﾃｨｾﾝﾀー,西区西遊馬533-1,35.9051702,139.5726662,全日（年末年始使用不可）,9:00,21:30,9:00,21:30,9:00,21:30,9:00,21:30,9:00,21:30,9:00,21:30,9:00,21:30,,,TRUE,TRUE,,,,,,,,,,12-29|12-30|12-31|01-01|01-02|01-03,
11007,さいたま市,宮原コミュニティセンター,ﾐﾔﾊﾗｺﾐｭﾆﾃｨｾﾝﾀー,北区吉野町2丁目195-1,35.958594,139.6008687,全日（年末年始使用不可）,9:00,21:30,9:00,21:30,9:00,21:30,9:00,21:30,9:00,21:30,9:00,21:30,9:00,21:30,,,TRUE,TRUE,,,,,,,,,,12-29|12-30|12-31|01-01|01-02|01-03,
11007,さいたま市,高鼻コミュニティセンター,ﾀｶﾊﾅｺﾐｭﾆﾃｨｾﾝﾀー,大宮区高鼻町2丁目292-1,35.9158985,139.6316136,全日（年末年始使用不可）,9:00,21:30,9:00,21:30,9:00,21:30,9:00,21:30,9:00,21:30,9:00,21:30,9:00,21:30,,,TRUE,TRUE,,,,,,,,,,12-29|12-30|12-31|01-01|01-02|01-03,
11007,さいたま市,七里コミュニティセンター,ﾅﾅｻﾄｺﾐｭﾆﾃｨｾﾝﾀー,見沼区大谷1210,35.9210154,139.6744493,全日（年末年始使用不可）,9:00,21:30,9:00,21:30,9:00,21:30,9:00,21:30,9:00,21:30,9:00,21:30,9:00,21:30,,,TRUE,TRUE,,,,,,,,,,12-29|12-30|12-31|01-01|01-02|01-03,
11007,さいたま市,片柳コミュニティセンター,ｶﾀﾔﾅｷﾞｺﾐｭﾆﾃｨｾﾝﾀー,見沼区染谷3丁目147-1,35.9096477,139.6841321,全日（年末年始使用不可）,9:00,21:30,9:00,21:30,9:00,21:30,9:00,21:30,9:00,21:30,9:00,21:30,9:00,21:30,,,TRUE,TRUE,,,,,,,,,,12-29|12-30|12-31|01-01|01-02|01-03,
11007,さいたま市,上峰コミュニティホール,ｳｴﾐﾈｺﾐｭﾆﾃｨﾎーﾙ,中央区上峰2丁目3-5,35.8740111,139.6165533,全日（年末年始使用不可）,9:00,21:30,9:00,21:30,9:00,21:30,9:00,21:30,9:00,21:30,9:00,21:30,9:00,21:30,,,TRUE,TRUE,,,,,,,,,,12-29|12-30|12-31|01-01|01-02|01-03,
11007,さいたま市,下落合コミュニティセンター,ｼﾓｵﾁｱｲｺﾐｭﾆﾃｨｾﾝﾀー,中央区下落合1712,35.8847338,139.6367553,全日（年末年始使用不可）,9:00,21:30,9:00,21:30,9:00,21:30,9:00,21:30,9:00,21:30,9:00,21:30,9:00,21:30,,,TRUE,TRUE,,,,,,,,,,12-29|12-30|12-31|01-01|01-02|01-03,
11007,さいたま市,与野本町コミュニティセンター,ﾖﾉﾎﾝﾏﾁｺﾐｭﾆﾃｨｾﾝﾀー,中央区本町東3丁目5-43,35.8837143,139.6236347,全日（年末年始使用不可）,9:00,21:30,9:00,21:30,9:00,21:30,9:00,21:30,9:00,21:30,9:00,21:30,9:00,21:30,,,TRUE,TRUE,,,,,,,,,,12-29|12-30|12-31|01-01|01-02|01-03,
11007,さいたま市,岩槻駅東口コミュニティセンター,ｲﾜﾂｷｴｷﾋｶﾞｼｸﾞﾁｺﾐｭﾆﾃｨｾﾝﾀー,岩槻区本町3丁目1-1,35.9503838,139.6935255,全日（年末年始使用不可）,9:00,21:30,9:00,21:30,9:00,21:30,9:00,21:30,9:00,21:30,9:00,21:30,9:00,21:30,,,TRUE,TRUE,,,,,,,,,,12-29|12-30|12-31|01-01|01-02|01-03,
11007,さいたま市,コミュニティセンターいわつき,ｺﾐｭﾆﾃｨｾﾝﾀーｲﾜﾂｷ,岩槻区本町1丁目10-7,35.9470696,139.6917025,全日（年末年始使用不可）,9:00,21:30,9:00,21:30,9:00,21:30,9:00,21:30,9:00,21:30,9:00,21:30,9:00,21:30,,,TRUE,TRUE,,,,,,,,,,12-29|12-30|12-31|01-01|01-02|01-03,
11007,さいたま市,西与野コミュニティホール,ﾆｼﾖﾉｺﾐｭﾆﾃｨﾎーﾙ,中央区桜丘2丁目6-28,35.8821492,139.6149278,全日（年末年始使用不可）,9:00,21:30,9:00,21:30,9:00,21:30,9:00,21:30,9:00,21:30,9:00,21:30,9:00,21:30,,,TRUE,TRUE,,,,,,,,,,12-29|12-30|12-31|01-01|01-02|01-03,
11007,さいたま市,西部文化センター,ｾｲﾌﾞﾌﾞﾝｶｾﾝﾀー,西区三橋6丁目642-4,35.9175959,139.5920055,全日（年末年始使用不可）,9:00,21:30,9:00,21:30,9:00,21:30,9:00,21:30,9:00,21:30,9:00,21:30,9:00,21:30,,,TRUE,TRUE,,,,,,,,,,12-29|12-30|12-31|01-01|01-02|01-03,
11007,さいたま市,東大宮コミュニティセンター,ﾋｶﾞｼｵｵﾐﾔｺﾐｭﾆﾃｨｾﾝﾀー,見沼区東大宮4丁目31-1,35.9493778,139.6373307,全日（年末年始使用不可）,9:00,21:30,9:00,21:30,9:00,21:30,9:00,21:30,9:00,21:30,9:00,21:30,9:00,21:30,,,TRUE,TRUE,,,,,,,,,,12-29|12-30|12-31|01-01|01-02|01-03,
11007,さいたま市,浦和コミュニティセンター,ｳﾗﾜｺﾐｭﾆﾃｨｾﾝﾀー,浦和区東高砂町11-1,35.8586737,139.6591511,全日（年末年始使用不可）,9:00,21:30,9:00,21:30,9:00,21:30,9:00,21:30,9:00,21:30,9:00,21:30,9:00,21:30,,,TRUE,TRUE,,,,,,,,,,12-29|12-30|12-31|01-01|01-02|01-03,
11007,さいたま市,南浦和コミュニティセンター,ﾐﾅﾐｳﾗﾜｺﾐｭﾆﾃｨｾﾝﾀー,南区大谷場2丁目6-25,35.8545382,139.6722249,全日（年末年始使用不可）,9:00,21:30,9:00,21:30,9:00,21:30,9:00,21:30,9:00,21:30,9:00,21:30,9:00,21:30,,,TRUE,TRUE,,,,,,,,,,12-29|12-30|12-31|01-01|01-02|01-03,
11007,さいたま市,武蔵浦和コミュニティセンター,ﾑｻｼｳﾗﾜｺﾐｭﾆﾃｨｾﾝﾀー,南区別所7丁目20-1,35.8452604,139.6453465,年末年始以外,8:30,22:00,8:30,22:00,8:30,22:00,8:30,22:00,8:30,22:00,8:30,22:00,8:30,22:00,,,TRUE,TRUE,,,,,,,,,,12-29|12-30|12-31|01-01|01-02|01-03,
11007,さいたま市,日進公園コミュニティセンター,ﾆｯｼﾝｺｳｴﾝｺﾐｭﾆﾃｨｾﾝﾀー,北区日進町1丁目312-2,35.9217488,139.605009,全日（年末年始使用不可）,9:00,21:30,9:00,21:30,9:00,21:30,9:00,21:30,9:00,21:30,9:00,21:30,9:00,21:30,,,TRUE,TRUE,,,,,,,,,,12-29|12-30|12-31|01-01|01-02|01-03,
11007,さいたま市,大宮工房館,ｵｵﾐﾔｺｳﾎﾞｳｶﾝ,大宮区堀の内町1丁目577-3,35.9121474,139.6414853,全日（年末年始使用不可）,9:00,21:30,9:00,21:30,9:00,21:30,9:00,21:30,9:00,21:30,9:00,21:30,9:00,21:30,,,TRUE,TRUE,,,,,,,,,,12-29|12-30|12-31|01-01|01-02|01-03,
11007,さいたま市,ふれあいプラザいわつき,ﾌﾚｱｲﾌﾟﾗｻﾞｲﾜﾂｷ,岩槻区東岩槻6丁目6,35.9622198,139.7157281,全日（年末年始使用不可）,9:00,21:30,9:00,21:30,9:00,21:30,9:00,21:30,9:00,21:30,9:00,21:30,9:00,21:30,,,TRUE,TRUE,,,,,,,,,,12-29|12-30|12-31|01-01|01-02|01-03,
11007,さいたま市,三つ和会館,ﾐﾂﾜｶｲｶﾝ,大宮区三橋3丁目52,35.8978452,139.6088821,ほぼ全日（毎月第1、3、5月曜日、第2、4日曜日、祝日、年末年始使用不可）,8:30,21:00,8:30,21:00,8:30,21:00,8:30,21:00,8:30,21:00,8:30,21:00,8:30,21:00,,,FALSE,TRUE,,,1|3|5,,,,,,2|4,12-29|12-30|12-31|01-01|01-02|01-03,
11007,さいたま市,大宮ソニック市民ホール,ｵｵﾐﾔｿﾆｯｸｼﾐﾝﾎーﾙ,大宮区桜木町1丁目7-5,35.9051961,139.6196111,全日（年末年始使用不可）,9:00,21:30,9:00,21:30,9:00,21:30,9:00,21:30,9:00,21:30,9:00,21:30,9:00,21:30,,,TRUE,TRUE,,,,,,,,,,12-29|12-30|12-31|01-01|01-02|01-03,
11007,さいたま市,消費生活総合センター,ｼｮｳﾋｾｲｶﾂｿｳｺﾞｳｾﾝﾀー,大宮区錦町682-2,35.908036,139.6215459,月～土（日、祝日、年末年始使用不可）,8:30,17:15,8:30,17:15,8:30,17:15,8:30,17:15,8:30,17:15,8:30,17:15,,,,,FALSE,TRUE,,,,,,,,,,12-29|12-30|12-31|01-01|01-02|01-03,
11007,さいたま市,組合区画整理事業推進事務所,ｸﾐｱｲｸｶｸｾｲﾘｼﾞｷﾞｮｳｽｲｼﾝｼﾞﾑｼｮ,中央区下落合2丁目18-6,35.8836672,139.6321445,月～金（土、日、祝日、年末年始使用不可）,8:30,17:15,8:30,17:15,8:30,17:15,8:30,17:15,8:30,17:15,,,,,,,FALSE,TRUE,,,,,,,,,,12-29|12-30|12-31|01-01|01-02|01-03,
11007,さいたま市,プラザウエスト,ﾌﾟﾗｻﾞｳｴｽﾄ,桜区道場4丁目3-1,35.8556337,139.6088379,ほぼ全日（毎月第2、4月曜日、年末年始使用不可）,9:00,21:30,9:00,21:30,9:00,21:30,9:00,21:30,9:00,21:30,9:00,21:30,9:00,21:30,,,TRUE,TRUE,,,2|4,,,,,,,12-29|12-30|12-31|01-01|01-02|01-03,
11007,さいたま市,漫画会館,ﾏﾝｶﾞｶｲｶﾝ,北区盆栽町150,35.9256293,139.6318302,火～日（月、祝日の翌日、年末年始使用不可）,,,9:00,16:30,9:00,16:30,9:00,16:30,9:00,16:30,9:00,16:30,9:00,16:30,,,TRUE,FALSE,,,,,,,,,,12-29|12-30|12-31|01-01|01-02|01-03,
11007,さいたま市,盆栽四季の家,ﾎﾞﾝｻｲｼｷﾉｲｴ,北区盆栽町267-1,35.9267663,139.6332595,全日（年末年始使用不可）,9:00,17:00,9:00,17:00,9:00,17:00,9:00,17:00,9:00,17:00,9:00,17:00,9:00,17:00,,,TRUE,TRUE,,,,,,,,,,12-29|12-30|12-31|01-01|01-02|01-03,
11007,さいたま市,恭慶館,ｷｮｳｹｲｶﾝ,浦和区常盤9丁目30-5,35.8693708,139.6434912,火～日（月、年末年始使用不可）,,,9:00,17:00,9:00,17:00,9:00,17:00,9:00,21:00,9:00,21:00,9:00,17:00,,,TRUE,TRUE,,,,,,,,,,12-29|12-30|12-31|01-01|01-02|01-03,
11007,さいたま市,大宮盆栽美術館,ｵｵﾐﾔﾎﾞﾝｻｲﾋﾞｼﾞｭﾂｶﾝ,北区土呂町2丁目24-3,35.9287021,139.6328825,金～水（木、年末年始使用不可）,9:00,16:30,9:00,16:30,9:00,16:30,,,9:00,16:30,9:00,16:30,9:00,16:30,,,TRUE,TRUE,,,,,,,,,,12-29|12-30|12-31|01-01|01-02|01-03,11～2月は16:00まで利用可
11007,さいたま市,男女共同参画推進センター,ﾀﾞﾝｼﾞｮｷｮｳﾄﾞｳｻﾝｶｸｽｲｼﾝｾﾝﾀー,大宮区桜木町1丁目10-18,35.9053734,139.6187777,全日（年末年始，毎月第４日曜日使用不可）,9:00,21:00,9:00,21:00,9:00,21:00,9:00,21:00,9:00,21:00,9:00,17:00,9:00,17:00,9:00,17:00,TRUE,TRUE,,,,,,,,,4,12-29|12-30|12-31|01-01|01-02|01-03,
11007,さいたま市,見沼ヘルシーランド,ﾐﾇﾏﾍﾙｼーﾗﾝﾄﾞ,緑区大崎322-1,35.8827538,139.7125965,火～日（月、年末年始使用不可）,,,10:00,20:30,10:00,20:30,10:00,20:30,10:00,20:30,10:00,20:30,10:00,20:30,,,TRUE,TRUE,,,,,,,,,,12-29|12-30|12-31|01-01|01-02|01-03,
11007,さいたま市,市民会館おおみや,ｼﾐﾝｶｲｶﾝｵｵﾐﾔ,大宮区下町3丁目47-8,35.902818,139.630886,ほぼ全日（毎月第2、4水曜日、年末年始使用不可）,9:00,21:30,9:00,21:30,9:00,21:30,9:00,21:30,9:00,21:30,9:00,21:30,9:00,21:30,,,TRUE,TRUE,,,,,2|4,,,,,12-29|12-30|12-31|01-01|01-02|01-03,
11007,さいたま市,市民会館うらわ,ｼﾐﾝｶｲｶﾝｳﾗﾜ,浦和区仲町2丁目10-22,35.8603528,139.6515054,火～日（月、年末年始使用不可）,,,9:00,21:30,9:00,21:30,9:00,21:30,9:00,21:30,9:00,21:30,9:00,21:30,,,TRUE,TRUE,,,,,,,,,,12-29|12-30|12-31|01-01|01-02|01-03,
11007,さいたま市,市民会館いわつき,ｼﾐﾝｶｲｶﾝｲﾜﾂｷ,岩槻区太田3丁目1-1,35.9507293,139.7089724,ほぼ全日（毎月第4月曜日、年末年始使用不可）,9:00,21:30,9:00,21:30,9:00,21:30,9:00,21:30,9:00,21:30,9:00,21:30,9:00,21:30,,,TRUE,TRUE,,,4,,,,,,,12-29|12-30|12-31|01-01|01-02|01-03,
11007,さいたま市,文化センター,ﾌﾞﾝｶｾﾝﾀー,南区根岸1丁目7-1,35.843456,139.6635671,火～日（月、年末年始使用不可）,,,9:00,21:30,9:00,21:30,9:00,21:30,9:00,21:30,9:00,21:30,9:00,21:30,,,TRUE,TRUE,,,,,,,,,,12-29|12-30|12-31|01-01|01-02|01-03,
11007,さいたま市,プラザイースト,ﾌﾟﾗｻﾞｲーｽﾄ,緑区中尾1440-8,35.8717325,139.685775,ほぼ全日（毎月第2・4月曜日、年末年始使用不可）,9:00,21:30,9:00,21:30,9:00,21:30,9:00,21:30,9:00,21:30,9:00,21:30,9:00,21:30,,,TRUE,TRUE,,,2|4,,,,,,,12-29|12-30|12-31|01-01|01-02|01-03,
11007,さいたま市,氷川の杜文化館,ﾋｶﾜﾉﾓﾘﾌﾞﾝｶｶﾝ,大宮区高鼻町2丁目262-1,35.9136824,139.6316398,ほぼ全日（毎月第3月曜日、年末年始使用不可）,9:00,21:00,9:00,21:00,9:00,21:00,9:00,21:00,9:00,21:00,9:00,21:00,9:00,21:00,,,TRUE,TRUE,,,3,,,,,,,12-29|12-30|12-31|01-01|01-02|01-03,
11007,さいたま市,保健所,ﾎｹﾝｼﾞｮ,中央区鈴谷7丁目5-12,35.8735032,139.6242319,月～金（土、日、祝日、年末年始使用不可）,8:30,17:00,8:30,17:00,8:30,17:00,8:30,17:00,8:30,17:00,,,,,,,FALSE,TRUE,,,,,,,,,,12-29|12-30|12-31|01-01|01-02|01-03,
11007,さいたま市,ひかり会館,ﾋｶﾘｶｲｶﾝ,中央区本町東5丁目13-29,35.8898781,139.6198563,全日（年始使用不可）,8:30,17:00,8:30,17:00,8:30,17:00,8:30,17:00,8:30,17:00,8:30,17:00,8:30,17:00,,,TRUE,TRUE,,,,,,,,,,01-01|01-02|01-03,
11007,さいたま市,高等看護学院,ｺｳﾄｳｶﾝｺﾞｶﾞｸｲﾝ,緑区三室2460,35.8910613,139.6782423,月～金（土、日、祝日、年末年始使用不可）,8:30,17:15,8:30,17:15,8:30,17:15,8:30,17:15,8:30,17:15,,,,,,,FALSE,TRUE,,,,,,,,,,12-29|12-30|12-31|01-01|01-02|01-03,
11007,さいたま市,高等看護学院学生宿舎,ｺｳﾄｳｶﾝｺﾞｶﾞｸｲﾝｶﾞｸｾｲｼｭｸｼｬ,緑区三室2423-12,35.8912916,139.675577,全日,0:00,24:00,0:00,24:00,0:00,24:00,0:00,24:00,0:00,24:00,0:00,24:00,0:00,24:00,,,TRUE,TRUE,,,,,,,,,,,
11007,さいたま市,浦和斎場,ｳﾗﾜｻｲｼﾞｮｳ,桜区下大久保1523-1,35.8578422,139.6021261,全日（年始使用不可）,8:30,21:00,8:30,21:00,8:30,21:00,8:30,21:00,8:30,21:00,8:30,21:00,8:30,21:00,,,TRUE,TRUE,,,,,,,,,,01-01|01-02|01-03,友引の前日は17:15まで利用可
11007,さいたま市,思い出の里市営霊園,ｵﾓｲﾃﾞﾉｻﾄｼｴｲﾚｲｴﾝ,見沼区大谷600,35.9164007,139.6747869,全日（年始使用不可）,8:30,21:00,8:30,21:00,8:30,21:00,8:30,21:00,8:30,21:00,8:30,21:00,8:30,21:00,,,TRUE,TRUE,,,,,,,,,,01-01|01-02|01-03,
11007,さいたま市,青山苑管理事務所,ｱｵﾔﾏｴﾝｶﾝﾘｼﾞﾑｼｮ,緑区中野田1030,35.8996918,139.7120057,全日,8:30,17:00,8:30,17:00,8:30,17:00,8:30,17:00,8:30,17:00,8:30,17:00,8:30,17:00,,,TRUE,TRUE,,,,,,,,,,,
11007,さいたま市,大宮聖苑,ｵｵﾐﾔｾｲｴﾝ,見沼区染谷2丁目350-1,35.9077911,139.6893667,全日（年始使用不可）,8:30,17:15,8:30,17:15,8:30,17:15,8:30,17:15,8:30,17:15,8:30,17:15,8:30,17:15,,,TRUE,TRUE,,,,,,,,,,01-01|01-02|01-03,
11007,さいたま市,動物愛護ふれあいセンター,ﾄﾞｳﾌﾞﾂｱｲｺﾞﾌﾚｱｲｾﾝﾀー,桜区神田950-1,35.8582701,139.6054151,火～日（月、祝日、年末年始使用不可）,,,8:30,17:15,8:30,17:15,8:30,17:15,8:30,17:15,8:30,17:15,8:30,17:15,,,FALSE,TRUE,,,,,,,,,,12-29|12-30|12-31|01-01|01-02|01-03,
11007,さいたま市,浦和ふれあい館,ｳﾗﾜﾌﾚｱｲｶﾝ,浦和区常盤9丁目30-22,35.8711513,139.6428012,全日（年末年始使用不可）,9:00,21:30,9:00,21:30,9:00,21:30,9:00,21:30,9:00,21:30,9:00,21:30,9:00,21:30,,,TRUE,TRUE,,,,,,,,,,12-29|12-30|12-31|01-01|01-02|01-03,
11007,さいたま市,大宮ふれあい福祉センター,ｵｵﾐﾔﾌﾚｱｲﾌｸｼｾﾝﾀー,大宮区土手町1丁目213-1,35.9156582,139.6213618,全日（年末年始使用不可）,9:00,21:00,9:00,21:00,9:00,21:00,9:00,21:00,9:00,21:00,9:00,21:00,9:00,21:00,,,TRUE,TRUE,,,,,,,,,,12-29|12-30|12-31|01-01|01-02|01-03,
11007,さいたま市,グリーンヒルうらわ,ｸﾞﾘーﾝﾋﾙｳﾗﾜ,緑区馬場1丁目7-1,35.8907847,139.6807601,全日,0:00,24:00,0:00,24:00,0:00,24:00,0:00,24:00,0:00,24:00,0:00,24:00,0:00,24:00,,,TRUE,TRUE,,,,,,,,,,,
11007,さいたま市,高齢者生きがい活動センター,ｺｳﾚｲｼｬｲｷｶﾞｲｶﾂﾄﾞｳｾﾝﾀー,北区植竹町1丁目593-1,35.9277174,139.6241389,ほぼ全日（祝日（こどもの日、敬老の日除く）、年末年始使用不可）,8:30,18:00,8:30,18:00,8:30,18:00,8:30,18:00,8:30,18:00,8:30,18:00,8:30,18:00,,,FALSE,TRUE,こどもの日|敬老の日,,,,,,,,,12-29|12-30|12-31|01-01|01-02|01-03,
11007,さいたま市,馬宮荘,ﾏﾐﾔｿｳ,西区西遊馬533-1,35.9051702,139.5726662,火～日（月（敬老の日除く）、祝日、年末年始使用不可）,,,9:00,17:00,9:00,17:00,9:00,17:00,9:00,17:00,9:00,17:00,9:00,17:00,9:00,17:00,FALSE,TRUE,敬老の日,,,,,,,,,12-29|12-30|12-31|01-01|01-02|01-03,
11007,さいたま市,和楽荘,ﾜﾗｸｿｳ,緑区三室2458,35.8900256,139.6775493,火～日（月（敬老の日除く）、祝日、年末年始使用不可）,,,9:00,17:00,9:00,17:00,9:00,17:00,9:00,17:00,9:00,17:00,9:00,17:00,9:00,17:00,FALSE,TRUE,敬老の日,,,,,,,,,12-29|12-30|12-31|01-01|01-02|01-03,
11007,さいたま市,いこい荘,ｲｺｲｿｳ,中央区下落合5丁目11-12,35.8852219,139.6266176,火～日（月（敬老の日除く）、祝日、年末年始使用不可）,,,9:00,17:00,9:00,17:00,9:00,17:00,9:00,17:00,9:00,17:00,9:00,17:00,9:00,17:00,FALSE,TRUE,敬老の日,,,,,,,,,12-29|12-30|12-31|01-01|01-02|01-03,
11007,さいたま市,寿楽荘,ｼﾞｭﾗｸｿｳ,桜区下大久保727-1,35.8629871,139.603524,火～日（月（敬老の日除く）、祝日、年末年始使用不可）,,,9:00,17:00,9:00,17:00,9:00,17:00,9:00,17:00,9:00,17:00,9:00,17:00,9:00,17:00,FALSE,TRUE,敬老の日,,,,,,,,,12-29|12-30|12-31|01-01|01-02|01-03,
11007,さいたま市,槻寿苑,ﾂｷｼﾞｭｴﾝ,岩槻区笹久保1393,35.9184944,139.7131562,火～日（月（敬老の日除く）、祝日、年末年始使用不可）,,,9:00,17:00,9:00,17:00,9:00,17:00,9:00,17:00,9:00,17:00,9:00,17:00,9:00,17:00,FALSE,TRUE,敬老の日,,,,,,,,,12-29|12-30|12-31|01-01|01-02|01-03,
11007,さいたま市,東楽園,ﾄｳｼﾗｸｴﾝ,見沼区膝子1151-1,35.9256804,139.6877135,火～日（月（敬老の日除く）、祝日、年末年始使用不可）,,,9:00,17:00,9:00,17:00,9:00,17:00,9:00,17:00,9:00,17:00,9:00,17:00,9:00,17:00,FALSE,TRUE,敬老の日,,,,,,,,,12-29|12-30|12-31|01-01|01-02|01-03,
11007,さいたま市,あずま荘,ｱｽﾞﾏｿｳ,大宮区東町2丁目105,35.9089341,139.6318998,火～日（月（敬老の日除く）、祝日、年末年始使用不可）,,,9:00,17:00,9:00,17:00,9:00,17:00,9:00,17:00,9:00,17:00,9:00,17:00,9:00,17:00,FALSE,TRUE,敬老の日,,,,,,,,,12-29|12-30|12-31|01-01|01-02|01-03,
11007,さいたま市,しもか荘,ｼﾓｶｿｳ,北区日進町1丁目800-105,35.9255924,139.6047672,火～日（月（敬老の日除く）、祝日、年末年始使用不可）,,,9:00,17:00,9:00,17:00,9:00,17:00,9:00,17:00,9:00,17:00,9:00,17:00,9:00,17:00,FALSE,TRUE,敬老の日,,,,,,,,,12-29|12-30|12-31|01-01|01-02|01-03,
11007,さいたま市,仲本荘,ﾅｶﾓﾄｿｳ,浦和区東仲町28-15,35.8607384,139.6601305,火～日（月（敬老の日除く）、祝日、年末年始使用不可）,,,9:00,17:00,9:00,17:00,9:00,17:00,9:00,17:00,9:00,17:00,9:00,17:00,9:00,17:00,FALSE,TRUE,敬老の日,,,,,,,,,12-29|12-30|12-31|01-01|01-02|01-03,
11007,さいたま市,健康福祉センター西楽園,ｹﾝｺｳﾌｸｼｾﾝﾀーｾｲﾗｸｴﾝ,西区宝来60-1,35.9326941,139.5538448,火～日（月、年末年始使用不可）,,,9:00,21:00,9:00,21:00,9:00,21:00,9:00,21:00,9:00,21:00,9:00,21:00,,,TRUE,TRUE,,,,,,,,,,12-29|12-30|12-31|01-01|01-02|01-03,
11007,さいたま市,老人福祉センター武蔵浦和荘,ﾛｳｼﾞﾝﾌｸｼｾﾝﾀーﾑｻｼｳﾗﾜｿｳ,南区別所7丁目20-1,35.8452604,139.6453465,祝日、年末年始使用不可,8:00,17:30,8:00,17:30,8:00,17:30,8:00,17:30,8:00,17:30,8:00,17:30,8:00,17:30,,,FALSE,TRUE,,,,,,,,,,12-29|12-30|12-31|01-01|01-02|01-03,
11007,さいたま市,三橋老人憩いの家,ﾐﾊｼﾛｳｼﾞﾝｲｺｲﾉｲｴ,大宮区三橋2丁目59,35.9028746,139.6039596,ほぼ全日（祝日（こどもの日、敬老の日除く）、年末年始使用不可）,9:00,18:00,9:00,18:00,9:00,18:00,9:00,18:00,9:00,18:00,9:00,18:00,9:00,18:00,,,FALSE,TRUE,こどもの日|敬老の日,,,,,,,,,12-29|12-30|12-31|01-01|01-02|01-03,
11007,さいたま市,三橋老人憩いの家分館,ﾐﾊｼﾛｳｼﾞﾝｲｺｲﾉｲｴﾌﾞﾝｶﾝ,大宮区三橋2丁目259-1,35.9004733,139.6021887,ほぼ全日（祝日（こどもの日、敬老の日除く）、年末年始使用不可）,9:00,18:00,9:00,18:00,9:00,18:00,9:00,18:00,9:00,18:00,9:00,18:00,9:00,18:00,,,FALSE,TRUE,こどもの日|敬老の日,,,,,,,,,12-29|12-30|12-31|01-01|01-02|01-03,
11007,さいたま市,天沼老人憩いの家,ｱﾏﾇﾏﾛｳｼﾞﾝｲｺｲﾉｲｴ,大宮区天沼町1丁目194,35.9062195,139.636951,ほぼ全日（祝日（こどもの日、敬老の日除く）、年末年始使用不可）,9:00,18:00,9:00,18:00,9:00,18:00,9:00,18:00,9:00,18:00,9:00,18:00,9:00,18:00,,,FALSE,TRUE,こどもの日|敬老の日,,,,,,,,,12-29|12-30|12-31|01-01|01-02|01-03,
11007,さいたま市,宮原老人憩いの家,ﾐﾔﾊﾗﾛｳｼﾞﾝｲｺｲﾉｲｴ,北区宮原町4丁目66-13,35.9471921,139.6109898,ほぼ全日（祝日（こどもの日、敬老の日除く）、年末年始使用不可）,9:00,18:00,9:00,18:00,9:00,18:00,9:00,18:00,9:00,18:00,9:00,18:00,9:00,18:00,,,FALSE,TRUE,こどもの日|敬老の日,,,,,,,,,12-29|12-30|12-31|01-01|01-02|01-03,
11007,さいたま市,植水老人憩いの家,ｳｴﾐｽﾞﾛｳｼﾞﾝｲｺｲﾉｲｴ,西区中野林174-1,35.8937665,139.5921133,ほぼ全日（祝日（こどもの日、敬老の日除く）、年末年始使用不可）,9:00,18:00,9:00,18:00,9:00,18:00,9:00,18:00,9:00,18:00,9:00,18:00,9:00,18:00,,,FALSE,TRUE,こどもの日|敬老の日,,,,,,,,,12-29|12-30|12-31|01-01|01-02|01-03,
11007,さいたま市,本郷老人憩いの家,ﾎﾝｺﾞｳﾛｳｼﾞﾝｲｺｲﾉｲｴ,北区本郷町1065-3,35.9456886,139.6262123,ほぼ全日（祝日（こどもの日、敬老の日除く）、年末年始使用不可）,9:00,18:00,9:00,18:00,9:00,18:00,9:00,18:00,9:00,18:00,9:00,18:00,9:00,18:00,,,FALSE,TRUE,こどもの日|敬老の日,,,,,,,,,12-29|12-30|12-31|01-01|01-02|01-03,
11007,さいたま市,片柳老人憩いの家,ｶﾀﾔﾅｷﾞﾛｳｼﾞﾝｲｺｲﾉｲｴ,見沼区東新井710-78,35.9048312,139.6646963,ほぼ全日（祝日（こどもの日、敬老の日除く）、年末年始使用不可）,9:00,18:00,9:00,18:00,9:00,18:00,9:00,18:00,9:00,18:00,9:00,18:00,9:00,18:00,,,FALSE,TRUE,こどもの日|敬老の日,,,,,,,,,12-29|12-30|12-31|01-01|01-02|01-03,
11007,さいたま市,春野老人憩いの家,ﾊﾙﾉﾛｳｼﾞﾝｲｺｲﾉｲｴ,見沼区春野1丁目7-1,35.9556838,139.6679948,ほぼ全日（祝日（こどもの日、敬老の日除く）、年末年始使用不可）,9:00,18:00,9:00,18:00,9:00,18:00,9:00,18:00,9:00,18:00,9:00,18:00,9:00,18:00,,,FALSE,TRUE,こどもの日|敬老の日,,,,,,,,,12-29|12-30|12-31|01-01|01-02|01-03,
11007,さいたま市,与野本町老人憩いの家,ﾖﾉﾎﾝﾏﾁﾛｳｼﾞﾝｲｺｲﾉｲｴ,中央区本町東5丁目17-25,35.8904916,139.6204091,ほぼ全日（祝日（こどもの日、敬老の日除く）、年末年始使用不可）,9:00,18:00,9:00,18:00,9:00,18:00,9:00,18:00,9:00,18:00,9:00,18:00,9:00,18:00,,,FALSE,TRUE,こどもの日|敬老の日,,,,,,,,,12-29|12-30|12-31|01-01|01-02|01-03,
11007,さいたま市,年輪荘,ﾈﾝﾘﾝｿｳ,緑区中尾1404,35.8736995,139.686024,全日,0:00,24:00,0:00,24:00,0:00,24:00,0:00,24:00,0:00,24:00,0:00,24:00,0:00,24:00,,,TRUE,TRUE,,,,,,,,,,,
11007,さいたま市,大砂土デイサービスセンター,ｵｵｻﾄﾃﾞｲｻーﾋﾞｽｾﾝﾀー,北区今羽町637-1,35.9504897,139.6265113,月～金（土、日、祝日、年末年始使用不可）,9:00,16:30,9:00,16:30,9:00,16:30,9:00,16:30,9:00,16:30,,,,,,,FALSE,TRUE,,,,,,,,,,12-29|12-30|12-31|01-01|01-02|01-03,
11007,さいたま市,与野本町デイサービスセンター,ﾖﾉﾎﾝﾏﾁﾃﾞｲｻーﾋﾞｽｾﾝﾀー,中央区本町東4丁目7-20,35.8854716,139.6222044,月～土（日、敬老の日、年始使用不可）,8:30,17:30,8:30,17:30,8:30,17:30,8:30,17:30,8:30,17:30,8:30,17:30,,,,,TRUE,TRUE,,敬老の日,,,,,,,,01-01|01-02|01-03,
11007,さいたま市,上峰デイサービスセンター,ｳｴﾐﾈﾃﾞｲｻーﾋﾞｽｾﾝﾀー,中央区上峰3丁目10-6,35.8746875,139.6210019,月～金（土、日、祝日、年末年始使用不可）,8:30,17:30,8:30,17:30,8:30,17:30,8:30,17:30,8:30,17:30,,,,,,,FALSE,TRUE,,,,,,,,,,12-29|12-30|12-31|01-01|01-02|01-03,
11007,さいたま市,槻寿苑デイサービスセンター,ﾂｷｼﾞｭｴﾝﾃﾞｲｻーﾋﾞｽｾﾝﾀー,岩槻区笹久保1393,35.9184944,139.7131562,火～土（日、月、祝日、年末年始使用不可）,,,9:30,16:00,9:30,16:00,9:30,16:00,9:30,16:00,9:30,16:00,,,,,FALSE,TRUE,,,,,,,,,,12-29|12-30|12-31|01-01|01-02|01-03,
11007,さいたま市,大崎むつみの里,ｵｵｻｷﾑﾂﾐﾉｻﾄ,緑区大崎37-1,35.8829269,139.7153318,月～金（土、日、祝日、年末年始使用不可）,8:30,18:00,8:30,18:00,8:30,18:00,8:30,18:00,8:30,18:00,,,,,,,FALSE,TRUE,,,,,,,,,,12-29|12-30|12-31|01-01|01-02|01-03,
11007,さいたま市,みのり園,ﾐﾉﾘｴﾝ,西区三橋6丁目1587,35.9207309,139.5896106,月～金（土、日、祝日、年末年始使用不可）,9:00,17:00,9:00,17:00,9:00,17:00,9:00,17:00,9:00,17:00,,,,,,,FALSE,TRUE,,,,,,,,,,12-29|12-30|12-31|01-01|01-02|01-03,
11007,さいたま市,春光園,ｼｭﾝｺｳｴﾝ,見沼区宮ヶ谷塔1丁目280,35.950573,139.6800261,月～金（土、日、祝日、年末年始使用不可）,9:00,16:00,9:00,16:00,9:00,16:00,9:00,16:00,9:00,16:00,,,,,,,FALSE,TRUE,,,,,,,,,,12-29|12-30|12-31|01-01|01-02|01-03,
11007,さいたま市,春光園うえみず,ｼｭﾝｺｳｴﾝｳｴﾐｽﾞ,西区佐知川299-16,35.9037784,139.5874336,月～金（土、日、祝日、年末年始使用不可）,9:00,16:00,9:00,16:00,9:00,16:00,9:00,16:00,9:00,16:00,,,,,,,FALSE,TRUE,,,,,,,,,,12-29|12-30|12-31|01-01|01-02|01-03,
11007,さいたま市,日進職業センター,ﾆｯｼﾝｼｮｸｷﾞｮｳｾﾝﾀー,北区日進町3丁目151,35.9367144,139.6076771,月～金（土、日、祝日、年末年始使用不可）,9:00,16:00,9:00,16:00,9:00,16:00,9:00,16:00,9:00,16:00,,,,,,,FALSE,TRUE,,,,,,,,,,12-29|12-30|12-31|01-01|01-02|01-03,
11007,さいたま市,かやの木,ｶﾔﾉｷ,中央区本町西1丁目6-3,35.8791795,139.6190541,月～金（土、日、祝日、年末年始使用不可）,9:00,16:00,9:00,16:00,9:00,16:00,9:00,16:00,9:00,16:00,,,,,,,FALSE,TRUE,,,,,,,,,,12-29|12-30|12-31|01-01|01-02|01-03,
11007,さいたま市,みずき園,ﾐｽﾞｷｴﾝ,中央区大戸2丁目7-21,35.8651731,139.6334914,月～金（土、日、祝日、年末年始使用不可）,9:00,16:00,9:00,16:00,9:00,16:00,9:00,16:00,9:00,16:00,,,,,,,FALSE,TRUE,,,,,,,,,,12-29|12-30|12-31|01-01|01-02|01-03,
11007,さいたま市,槻の木,ﾂｷﾉｷ,岩槻区黒谷1135-2,35.927806,139.7197926,月～金（土、日、祝日、年末年始使用不可）,9:00,16:00,9:00,16:00,9:00,16:00,9:00,16:00,9:00,16:00,,,,,,,FALSE,TRUE,,,,,,,,,,12-29|12-30|12-31|01-01|01-02|01-03,
11007,さいたま市,第1やまぶき,ﾀﾞｲ1ﾔﾏﾌﾞｷ,岩槻区古ヶ場2丁目1-11,35.9787067,139.6930955,月～金（土、日、祝日、年末年始使用不可）,9:00,16:00,9:00,16:00,9:00,16:00,9:00,16:00,9:00,16:00,,,,,,,FALSE,TRUE,,,,,,,,,,12-29|12-30|12-31|01-01|01-02|01-03,
11007,さいたま市,第2やまぶき,ﾀﾞｲ2ﾔﾏﾌﾞｷ,岩槻区黒谷1282,35.9278276,139.7189147,月～金（土、日、祝日、年末年始使用不可）,9:00,16:00,9:00,16:00,9:00,16:00,9:00,16:00,9:00,16:00,,,,,,,FALSE,TRUE,,,,,,,,,,12-29|12-30|12-31|01-01|01-02|01-03,
11007,さいたま市,さくら草学園,ｻｸﾗｿｳｶﾞｸｴﾝ,浦和区領家1丁目5-16,35.8746572,139.6582433,月～金（土、日、祝日、年末年始使用不可）,9:00,16:00,9:00,16:00,9:00,16:00,9:00,16:00,9:00,16:00,,,,,,,FALSE,TRUE,,,,,,,,,,12-29|12-30|12-31|01-01|01-02|01-03,
11007,さいたま市,杉の子園,ｽｷﾞﾉｺｴﾝ,中央区大戸2丁目7-17,35.8656584,139.6332345,月～金（土、日、祝日、年末年始使用不可）,9:00,16:00,9:00,16:00,9:00,16:00,9:00,16:00,9:00,16:00,,,,,,,FALSE,TRUE,,,,,,,,,,12-29|12-30|12-31|01-01|01-02|01-03,
11007,さいたま市,はるの園,ﾊﾙﾉｴﾝ,見沼区春野2丁目3-5,35.9578421,139.6617463,月～金（土、日、祝日、年末年始使用不可）,8:30,17:15,8:30,17:15,8:30,17:15,8:30,17:15,8:30,17:15,,,,,,,FALSE,TRUE,,,,,,,,,,12-29|12-30|12-31|01-01|01-02|01-03,
11007,さいたま市,大砂土障害者デイサービスセンター,ｵｵｻﾄｼｮｳｶﾞｲｼｬﾃﾞｲｻーﾋﾞｽｾﾝﾀー,北区本郷町17-7,35.9376549,139.6262295,月～金（土、日、祝日、年末年始使用不可）,9:00,16:00,9:00,16:00,9:00,16:00,9:00,16:00,9:00,16:00,,,,,,,FALSE,TRUE,,,,,,,,,,12-29|12-30|12-31|01-01|01-02|01-03,
11007,さいたま市,障害者総合支援センター,ｼｮｳｶﾞｲｼｬｿｳｺﾞｳｼｴﾝｾﾝﾀー,中央区鈴谷7丁目5-7,35.8744041,139.6243077,全日（祝日、年末年始使用不可）,8:30,17:00,8:30,17:00,8:30,17:00,8:30,17:00,8:30,17:00,9:00,18:00,9:00,18:00,,,FALSE,TRUE,,,,,,,,,,12-29|12-30|12-31|01-01|01-02|01-03,
11007,さいたま市,障害者更生相談センター,ｼｮｳｶﾞｲｼｬｺｳｾｲｿｳﾀﾞﾝｾﾝﾀー,大宮区大門町3丁目1,35.9064462,139.628654,月～金（土、日、祝日、年末年始使用不可）,8:30,17:15,8:30,17:15,8:30,17:15,8:30,17:15,8:30,17:15,,,,,,,FALSE,TRUE,,,,,,,,,,12-29|12-30|12-31|01-01|01-02|01-03,
11007,さいたま市,ひまわり学園,ﾋﾏﾜﾘｶﾞｸｴﾝ,西区三橋6丁目1587,35.9207309,139.5896106,月～金（土、日、祝日、年末年始使用不可）,8:30,17:00,8:30,17:00,8:30,17:00,8:30,17:00,8:30,17:00,,,,,,,FALSE,TRUE,,,,,,,,,,12-29|12-30|12-31|01-01|01-02|01-03,
11007,さいたま市,療育センターさくら草,ﾘｮｳｲｸｾﾝﾀーｻｸﾗｿｳ,桜区田島2丁目16-2,35.8431154,139.6315408,月～金（土、日、祝日、年末年始使用不可）,8:30,17:15,8:30,17:15,8:30,17:15,8:30,17:15,8:30,17:15,,,,,,,FALSE,TRUE,,,,,,,,,,12-29|12-30|12-31|01-01|01-02|01-03,
11007,さいたま市,さいたま市若者自立支援ルーム,ｻｲﾀﾏｼﾜｶﾓﾉｼﾞﾘﾂｼｴﾝﾙーﾑ,大宮区桜木町2丁目227,35.907046,139.6194476,月～土（日、祝日、年末年始使用不可）,10:00,17:00,10:00,17:00,10:00,17:00,10:00,17:00,10:00,19:00,10:00,17:00,,,,,FALSE,TRUE,,,,,,,,,,12-29|12-30|12-31|01-01|01-02|01-03,
11007,さいたま市,宮前放課後児童クラブ,ﾐﾔﾏｴﾎｳｶｺﾞｼﾞﾄﾞｳｸﾗﾌﾞ,西区宮前町443,35.9241206,139.5946766,月～土（日、祝日、年末年始使用不可）,13:00,19:00,13:00,19:00,13:00,19:00,13:00,19:00,13:00,19:00,13:00,19:00,,,,,FALSE,TRUE,,,,,,,,,,12-29|12-30|12-31|01-01|01-02|01-03,学校休業日は8:30から利用可
11007,さいたま市,佐知川放課後児童クラブ,ｻｼﾞｶﾜﾎｳｶｺﾞｼﾞﾄﾞｳｸﾗﾌﾞ,西区佐知川299-16,35.9037784,139.5874336,月～土（日、祝日、年末年始使用不可）,13:00,19:00,13:00,19:00,13:00,19:00,13:00,19:00,13:00,19:00,13:00,19:00,,,,,FALSE,TRUE,,,,,,,,,,12-29|12-30|12-31|01-01|01-02|01-03,学校休業日は8:30から利用可
11007,さいたま市,栄放課後児童クラブ,ｻｶｴﾎｳｶｺﾞｼﾞﾄﾞｳｸﾗﾌﾞ,西区指扇610-3,35.9076897,139.5819062,月～土（日、祝日、年末年始使用不可）,13:00,19:00,13:00,19:00,13:00,19:00,13:00,19:00,13:00,19:00,13:00,19:00,,,,,FALSE,TRUE,,,,,,,,,,12-29|12-30|12-31|01-01|01-02|01-03,学校休業日は8:30から利用可
11007,さいたま市,植水第二放課後児童クラブ,ｳｴﾐｽﾞﾀﾞｲﾆﾎｳｶｺﾞｼﾞﾄﾞｳｸﾗﾌﾞ,西区中野林225-3,35.8936743,139.5936954,月～土（日、祝日、年末年始使用不可）,13:00,19:00,13:00,19:00,13:00,19:00,13:00,19:00,13:00,19:00,13:00,19:00,,,,,FALSE,TRUE,,,,,,,,,,12-29|12-30|12-31|01-01|01-02|01-03,学校休業日は8:30から利用可
11007,さいたま市,指扇北放課後児童クラブ,ｻｼｵｳｷﾞｷﾀﾎｳｶｺﾞｼﾞﾄﾞｳｸﾗﾌﾞ,西区中釘1538,35.9322629,139.5720649,月～土（年末年始、祝日を除く）,13:00,19:00,13:00,19:00,13:00,19:00,13:00,19:00,13:00,19:00,13:00,19:00,,,,,FALSE,TRUE,,,,,,,,,,12-29|12-30|12-31|01-01|01-02|01-03,学校休業日は8:30から利用可
11007,さいたま市,大砂土放課後児童クラブ,ｵｵｻﾄﾎｳｶｺﾞｼﾞﾄﾞｳｸﾗﾌﾞ,北区本郷町17-7,35.9376549,139.6262295,月～土（日、祝日、年末年始使用不可）,13:00,19:00,13:00,19:00,13:00,19:00,13:00,19:00,13:00,19:00,13:00,19:00,,,,,FALSE,TRUE,,,,,,,,,,12-29|12-30|12-31|01-01|01-02|01-03,学校休業日は8:30から利用可
11007,さいたま市,東大成・植竹小もりのこクラブ,ﾋｶﾞｼｵｵﾅﾘ・ｳｴﾀｹｼｮｳﾓﾘﾉｺｸﾗﾌﾞ,北区植竹町1丁目593-2,35.9278449,139.6246086,月～土（日、祝日、年末年始使用不可）,13:00,19:00,13:00,19:00,13:00,19:00,13:00,19:00,13:00,19:00,13:00,19:00,,,,,FALSE,TRUE,,,,,,,,,,12-29|12-30|12-31|01-01|01-02|01-03,学校休業日は8:30から利用可
11007,さいたま市,桜木第一放課後児童クラブ,ｻｸﾗｷﾞﾀﾞｲｲﾁﾎｳｶｺﾞｼﾞﾄﾞｳｸﾗﾌﾞ,大宮区桜木町4丁目328-1,35.9027282,139.6169376,月～土（日、祝日、年末年始使用不可）,13:00,19:00,13:00,19:00,13:00,19:00,13:00,19:00,13:00,19:00,13:00,19:00,,,,,FALSE,TRUE,,,,,,,,,,12-29|12-30|12-31|01-01|01-02|01-03,学校休業日は8:30から利用可
11007,さいたま市,七里放課後児童クラブ,ﾅﾅｻﾄﾎｳｶｺﾞｼﾞﾄﾞｳｸﾗﾌﾞ,見沼区東宮下392,35.9307045,139.6761683,月～土（日、祝日、年末年始使用不可）,13:00,19:00,13:00,19:00,13:00,19:00,13:00,19:00,13:00,19:00,13:00,19:00,,,,,FALSE,TRUE,,,,,,,,,,12-29|12-30|12-31|01-01|01-02|01-03,学校休業日は8:30から利用可
11007,さいたま市,東大宮放課後児童クラブ,ﾋｶﾞｼｵｵﾐﾔﾎｳｶｺﾞｼﾞﾄﾞｳｸﾗﾌﾞ,見沼区東大宮7-5-18,35.9467591,139.645493,月～土（日、祝日、年末年始使用不可）,13:00,19:00,13:00,19:00,13:00,19:00,13:00,19:00,13:00,19:00,13:00,19:00,,,,,FALSE,TRUE,,,,,,,,,,12-29|12-30|12-31|01-01|01-02|01-03,学校休業日は8:30から利用可
11007,さいたま市,大砂土東放課後児童クラブ,ｵｵｻﾄﾄｳﾎｳｶｺﾞｼﾞﾄﾞｳｸﾗﾌﾞ,見沼区大和田町2丁目1054-7,35.937918,139.6461182,月～土（日、祝日、年末年始使用不可）,13:00,19:00,13:00,19:00,13:00,19:00,13:00,19:00,13:00,19:00,13:00,19:00,,,,,FALSE,TRUE,,,,,,,,,,12-29|12-30|12-31|01-01|01-02|01-03,学校休業日は8:30から利用可
11007,さいたま市,蓮沼第二放課後児童クラブ,ﾊｽﾇﾏﾀｲｼﾞﾎｳｶｺﾞｼﾞﾄﾞｳｸﾗﾌﾞ,見沼区蓮沼1025-3,35.9344102,139.656264,月～土（日、祝日、年末年始使用不可）,13:00,19:00,13:00,19:00,13:00,19:00,13:00,19:00,13:00,19:00,13:00,19:00,,,,,FALSE,TRUE,,,,,,,,,,12-29|12-30|12-31|01-01|01-02|01-03,学校休業日は8:30から利用可
11007,さいたま市,与野八幡放課後児童クラブ,ﾖﾉﾊﾁﾏﾝﾎｳｶｺﾞｼﾞﾄﾞｳｸﾗﾌﾞ,中央区本町東5丁目23-14,35.8905035,139.6218811,月～土（日、祝日、年末年始使用不可）,13:00,19:00,13:00,19:00,13:00,19:00,13:00,19:00,13:00,19:00,13:00,19:00,,,,,FALSE,TRUE,,,,,,,,,,12-29|12-30|12-31|01-01|01-02|01-03,学校休業日は8:30から利用可
11007,さいたま市,鈴谷放課後児童クラブ,ｽｽﾞﾔﾎｳｶｺﾞｼﾞﾄﾞｳｸﾗﾌﾞ,中央区鈴谷5丁目1-1,35.8710612,139.6311672,月～土（日、祝日、年末年始使用不可）,13:00,19:00,13:00,19:00,13:00,19:00,13:00,19:00,13:00,19:00,13:00,19:00,,,,,FALSE,TRUE,,,,,,,,,,12-29|12-30|12-31|01-01|01-02|01-03,学校休業日は8:30から利用可
11007,さいたま市,大戸放課後児童クラブ,ｵｵﾄﾎｳｶｺﾞｼﾞﾄﾞｳｸﾗﾌﾞ,中央区新中里1丁目6-28,35.8725503,139.6354433,月～土（日、祝日、年末年始使用不可）,13:00,19:00,13:00,19:00,13:00,19:00,13:00,19:00,13:00,19:00,13:00,19:00,,,,,FALSE,TRUE,,,,,,,,,,12-29|12-30|12-31|01-01|01-02|01-03,学校休業日は8:30から利用可
11007,さいたま市,与野本町放課後児童クラブ,ﾖﾉﾎﾝﾏﾁﾎｳｶｺﾞｼﾞﾄﾞｳｸﾗﾌﾞ,中央区本町東3丁目5-23,35.8836821,139.6228486,月～土（日、祝日、年末年始使用不可）,13:00,19:00,13:00,19:00,13:00,19:00,13:00,19:00,13:00,19:00,13:00,19:00,,,,,FALSE,TRUE,,,,,,,,,,12-29|12-30|12-31|01-01|01-02|01-03,学校休業日は8:30から利用可
11007,さいたま市,与野西北放課後児童クラブ,ﾖﾉｾｲﾎｸﾎｳｶｺﾞｼﾞﾄﾞｳｸﾗﾌﾞ,中央区円阿弥4丁目3-7,35.88721,139.6075079,月～土（日、祝日、年末年始使用不可）,13:00,19:00,13:00,19:00,13:00,19:00,13:00,19:00,13:00,19:00,13:00,19:00,,,,,FALSE,TRUE,,,,,,,,,,12-29|12-30|12-31|01-01|01-02|01-03,学校休業日は8:30から利用可
11007,さいたま市,下落合放課後児童クラブ,ｼﾓｵﾁｱｲﾎｳｶｺﾞｼﾞﾄﾞｳｸﾗﾌﾞ,中央区上落合1丁目7-33,35.8899203,139.6314716,月～土（日、祝日、年末年始使用不可）,13:00,19:00,13:00,19:00,13:00,19:00,13:00,19:00,13:00,19:00,13:00,19:00,,,,,FALSE,TRUE,,,,,,,,,,12-29|12-30|12-31|01-01|01-02|01-03,学校休業日は8:30から利用可
11007,さいたま市,上落合放課後児童クラブ,ｶﾐｵﾁｱｲﾎｳｶｺﾞｼﾞﾄﾞｳｸﾗﾌﾞ,中央区上落合4丁目14-24,35.8940704,139.6258448,月～土（日、祝日、年末年始使用不可）,13:00,19:00,13:00,19:00,13:00,19:00,13:00,19:00,13:00,19:00,13:00,19:00,,,,,FALSE,TRUE,,,,,,,,,,12-29|12-30|12-31|01-01|01-02|01-03,学校休業日は8:30から利用可
11007,さいたま市,大久保東放課後児童クラブ,ｵｵｸﾎﾞﾋｶﾞｼﾎｳｶｺﾞｼﾞﾄﾞｳｸﾗﾌﾞ,桜区大久保領家331,35.8712917,139.6034359,月～土（日、祝日、年末年始使用不可）,13:00,19:00,13:00,19:00,13:00,19:00,13:00,19:00,13:00,19:00,13:00,19:00,,,,,FALSE,TRUE,,,,,,,,,,12-29|12-30|12-31|01-01|01-02|01-03,学校休業日は8:30から利用可
11007,さいたま市,土合放課後児童クラブ,ﾂﾁｱｲﾎｳｶｺﾞｼﾞﾄﾞｳｸﾗﾌﾞ,桜区南元宿1丁目20-5,35.8576109,139.6261509,月～土（日、祝日、年末年始使用不可）,13:00,19:00,13:00,19:00,13:00,19:00,13:00,19:00,13:00,19:00,13:00,19:00,,,,,FALSE,TRUE,,,,,,,,,,12-29|12-30|12-31|01-01|01-02|01-03,学校休業日は8:30から利用可
11007,さいたま市,栄和放課後児童クラブ,ｻｶﾜﾎｳｶｺﾞｼﾞﾄﾞｳｸﾗﾌﾞ,桜区栄和1丁目7-1,35.8617584,139.6175204,月～土（日、祝日、年末年始使用不可）,13:00,19:00,13:00,19:00,13:00,19:00,13:00,19:00,13:00,19:00,13:00,19:00,,,,,FALSE,TRUE,,,,,,,,,,12-29|12-30|12-31|01-01|01-02|01-03,学校休業日は8:30から利用可
11007,さいたま市,田島放課後児童クラブ,ﾀｼﾞﾏﾎｳｶｺﾞｼﾞﾄﾞｳｸﾗﾌﾞ,桜区田島10丁目7-14,35.8389981,139.6233547,月～土（日、祝日、年末年始使用不可）,13:00,19:00,13:00,19:00,13:00,19:00,13:00,19:00,13:00,19:00,13:00,19:00,,,,,FALSE,TRUE,,,,,,,,,,12-29|12-30|12-31|01-01|01-02|01-03,学校休業日は8:30から利用可
11007,さいたま市,新開放課後児童クラブ,ｼﾝｶｲﾎｳｶｺﾞｼﾞﾄﾞｳｸﾗﾌﾞ,桜区新開2丁目18-1,35.8507174,139.6174729,月～土（日、祝日、年末年始使用不可）,13:00,19:00,13:00,19:00,13:00,19:00,13:00,19:00,13:00,19:00,13:00,19:00,,,,,FALSE,TRUE,,,,,,,,,,12-29|12-30|12-31|01-01|01-02|01-03,学校休業日は8:30から利用可
11007,さいたま市,神田放課後児童クラブ,ｶﾝﾀﾞﾎｳｶｺﾞｼﾞﾄﾞｳｸﾗﾌﾞ,桜区神田541-1,35.8751523,139.607354,月～土（日、祝日、年末年始使用不可）,13:00,19:00,13:00,19:00,13:00,19:00,13:00,19:00,13:00,19:00,13:00,19:00,,,,,FALSE,TRUE,,,,,,,,,,12-29|12-30|12-31|01-01|01-02|01-03,学校休業日は8:30から利用可
11007,さいたま市,大久保放課後児童クラブ,ｵｵｸﾎﾞﾎｳｶｺﾞｼﾞﾄﾞｳｸﾗﾌﾞ,桜区五関21,35.8721763,139.5983596,月～土（日、祝日、年末年始使用不可）,13:00,19:00,13:00,19:00,13:00,19:00,13:00,19:00,13:00,19:00,13:00,19:00,,,,,FALSE,TRUE,,,,,,,,,,12-29|12-30|12-31|01-01|01-02|01-03,学校休業日は8:30から利用可
11007,さいたま市,中島放課後児童クラブ,ﾅｶｼﾞﾏﾎｳｶｺﾞｼﾞﾄﾞｳｸﾗﾌﾞ,桜区中島1丁目28-1,35.8648519,139.6233676,月～土（日、祝日、年末年始使用不可）,13:00,19:00,13:00,19:00,13:00,19:00,13:00,19:00,13:00,19:00,13:00,19:00,,,,,FALSE,TRUE,,,,,,,,,,12-29|12-30|12-31|01-01|01-02|01-03,学校休業日は8:30から利用可
11007,さいたま市,常盤放課後児童クラブ,ﾄｷﾜﾎｳｶｺﾞｼﾞﾄﾞｳｸﾗﾌﾞ,浦和区常盤9丁目30-9,35.8687852,139.6431591,月～土（日、祝日、年末年始使用不可）,13:00,19:00,13:00,19:00,13:00,19:00,13:00,19:00,13:00,19:00,13:00,19:00,,,,,FALSE,TRUE,,,,,,,,,,12-29|12-30|12-31|01-01|01-02|01-03,学校休業日は8:30から利用可
11007,さいたま市,上木崎放課後児童クラブ,ｶﾐｷｻﾞｷﾎｳｶｺﾞｼﾞﾄﾞｳｸﾗﾌﾞ,浦和区上木崎3丁目11-33,35.8886409,139.6446804,月～土（日、祝日、年末年始使用不可）,13:00,19:00,13:00,19:00,13:00,19:00,13:00,19:00,13:00,19:00,13:00,19:00,,,,,FALSE,TRUE,,,,,,,,,,12-29|12-30|12-31|01-01|01-02|01-03,学校休業日は8:30から利用可
11007,さいたま市,仲町放課後児童クラブ,ﾅｶﾏﾁﾎｳｶｺﾞｼﾞﾄﾞｳｸﾗﾌﾞ,浦和区仲町4丁目7-6,35.8600515,139.6450455,月～土（日、祝日、年末年始使用不可）,13:00,19:00,13:00,19:00,13:00,19:00,13:00,19:00,13:00,19:00,13:00,19:00,,,,,FALSE,TRUE,,,,,,,,,,12-29|12-30|12-31|01-01|01-02|01-03,学校休業日は8:30から利用可
11007,さいたま市,北浦和放課後児童クラブ,ｷﾀｳﾗﾜﾎｳｶｺﾞｼﾞﾄﾞｳｸﾗﾌﾞ,浦和区北浦和2丁目18-3,35.8773737,139.6483223,月～土（日、祝日、年末年始使用不可）,13:00,19:00,13:00,19:00,13:00,19:00,13:00,19:00,13:00,19:00,13:00,19:00,,,,,FALSE,TRUE,,,,,,,,,,12-29|12-30|12-31|01-01|01-02|01-03,学校休業日は8:30から利用可
11007,さいたま市,木崎放課後児童クラブ,ｷｻｷﾎｳｶｺﾞｼﾞﾄﾞｳｸﾗﾌﾞ,浦和区領家4丁目20-1,35.8824363,139.6536774,月～土（日、祝日、年末年始使用不可）,13:00,19:00,13:00,19:00,13:00,19:00,13:00,19:00,13:00,19:00,13:00,19:00,,,,,FALSE,TRUE,,,,,,,,,,12-29|12-30|12-31|01-01|01-02|01-03,学校休業日は8:30から利用可
11007,さいたま市,本太放課後児童クラブ,ﾓﾄﾌﾞﾄﾎｳｶｺﾞｼﾞﾄﾞｳｸﾗﾌﾞ,浦和区本太4丁目3-39,35.8656386,139.6568972,月～土（日、祝日、年末年始使用不可）,13:00,19:00,13:00,19:00,13:00,19:00,13:00,19:00,13:00,19:00,13:00,19:00,,,,,FALSE,TRUE,,,,,,,,,,12-29|12-30|12-31|01-01|01-02|01-03,学校休業日は8:30から利用可
11007,さいたま市,針ケ谷放課後児童クラブ,ﾊﾘｶﾞﾔﾎｳｶｺﾞｼﾞﾄﾞｳｸﾗﾌﾞ,浦和区領家7丁目2-19,35.8811049,139.6500344,月～土（日、祝日、年末年始使用不可）,13:00,19:00,13:00,19:00,13:00,19:00,13:00,19:00,13:00,19:00,13:00,19:00,,,,,FALSE,TRUE,,,,,,,,,,12-29|12-30|12-31|01-01|01-02|01-03,学校休業日は8:30から利用可
11007,さいたま市,大東放課後児童クラブ,ﾀﾞｲﾄｳﾎｳｶｺﾞｼﾞﾄﾞｳｸﾗﾌﾞ,浦和区大東3丁目14-1,35.8835214,139.6645276,月～土（日、祝日、年末年始使用不可）,13:00,19:00,13:00,19:00,13:00,19:00,13:00,19:00,13:00,19:00,13:00,19:00,,,,,FALSE,TRUE,,,,,,,,,,12-29|12-30|12-31|01-01|01-02|01-03,学校休業日は8:30から利用可
11007,さいたま市,高砂放課後児童クラブ,ﾀｶｻｺﾞﾎｳｶｺﾞｼﾞﾄﾞｳｸﾗﾌﾞ,浦和区岸町4丁目1-29,35.8565402,139.6567957,月～土（日、祝日、年末年始使用不可）,13:00,19:00,13:00,19:00,13:00,19:00,13:00,19:00,13:00,19:00,13:00,19:00,,,,,FALSE,TRUE,,,,,,,,,,12-29|12-30|12-31|01-01|01-02|01-03,学校休業日は8:30から利用可
11007,さいたま市,岸町放課後児童クラブ,ｷｼﾏﾁﾎｳｶｺﾞｼﾞﾄﾞｳｸﾗﾌﾞ,浦和区岸町5丁目20-4,35.8510276,139.6502606,月～土（日、祝日、年末年始使用不可）,13:00,19:00,13:00,19:00,13:00,19:00,13:00,19:00,13:00,19:00,13:00,19:00,,,,,FALSE,TRUE,,,,,,,,,,12-29|12-30|12-31|01-01|01-02|01-03,学校休業日は8:30から利用可
11007,さいたま市,谷田放課後児童クラブ,ﾔﾀﾞﾎｳｶｺﾞｼﾞﾄﾞｳｸﾗﾌﾞ,南区太田窪5丁目10-6,35.8563425,139.6779167,月～土（日、祝日、年末年始使用不可）,13:00,19:00,13:00,19:00,13:00,19:00,13:00,19:00,13:00,19:00,13:00,19:00,,,,,FALSE,TRUE,,,,,,,,,,12-29|12-30|12-31|01-01|01-02|01-03,学校休業日は8:30から利用可
11007,さいたま市,大谷場放課後児童クラブ,ｵｵﾔﾊﾞﾎｳｶｺﾞｼﾞﾄﾞｳｸﾗﾌﾞ,南区南浦和1丁目18-3,35.8527792,139.6679633,月～土（日、祝日、年末年始使用不可）,13:00,19:00,13:00,19:00,13:00,19:00,13:00,19:00,13:00,19:00,13:00,19:00,,,,,FALSE,TRUE,,,,,,,,,,12-29|12-30|12-31|01-01|01-02|01-03,学校休業日は8:30から利用可
11007,さいたま市,南浦和放課後児童クラブ,ﾐﾅﾐｳﾗﾜﾎｳｶｺﾞｼﾞﾄﾞｳｸﾗﾌﾞ,南区南本町1丁目18-13,35.8442508,139.6655522,月～土（日、祝日、年末年始使用不可）,13:00,19:00,13:00,19:00,13:00,19:00,13:00,19:00,13:00,19:00,13:00,19:00,,,,,FALSE,TRUE,,,,,,,,,,12-29|12-30|12-31|01-01|01-02|01-03,学校休業日は8:30から利用可
11007,さいたま市,沼影放課後児童クラブ,ﾇﾏｶｹﾞﾎｳｶｺﾞｼﾞﾄﾞｳｸﾗﾌﾞ,南区曲本4丁目7-6,35.8378645,139.6403744,月～土（日、祝日、年末年始使用不可）,13:00,19:00,13:00,19:00,13:00,19:00,13:00,19:00,13:00,19:00,13:00,19:00,,,,,FALSE,TRUE,,,,,,,,,,12-29|12-30|12-31|01-01|01-02|01-03,学校休業日は8:30から利用可
11007,さいたま市,辻放課後児童クラブ,ﾂｼﾞﾎｳｶｺﾞｼﾞﾄﾞｳｸﾗﾌﾞ,南区辻2丁目20-1,35.8367827,139.6613435,月～土（日、祝日、年末年始使用不可）,13:00,19:00,13:00,19:00,13:00,19:00,13:00,19:00,13:00,19:00,13:00,19:00,,,,,FALSE,TRUE,,,,,,,,,,12-29|12-30|12-31|01-01|01-02|01-03,学校休業日は8:30から利用可
11007,さいたま市,善前放課後児童クラブ,ｾﾞﾝﾏｴﾎｳｶｺﾞｼﾞﾄﾞｳｸﾗﾌﾞ,南区太田窪2500-1,35.8531781,139.6860068,月～土（日、祝日、年末年始使用不可）,13:00,19:00,13:00,19:00,13:00,19:00,13:00,19:00,13:00,19:00,13:00,19:00,,,,,FALSE,TRUE,,,,,,,,,,12-29|12-30|12-31|01-01|01-02|01-03,学校休業日は8:30から利用可
11007,さいたま市,大谷口放課後児童クラブ,ｵｵﾔｸﾞﾁﾎｳｶｺﾞｼﾞﾄﾞｳｸﾗﾌﾞ,南区大谷口993-16,35.8602102,139.6811714,月～土（日、祝日、年末年始使用不可）,13:00,19:00,13:00,19:00,13:00,19:00,13:00,19:00,13:00,19:00,13:00,19:00,,,,,FALSE,TRUE,,,,,,,,,,12-29|12-30|12-31|01-01|01-02|01-03,学校休業日は8:30から利用可
11007,さいたま市,大谷場東放課後児童クラブ,ｵｵﾔﾊﾞﾋｶﾞｼﾎｳｶｺﾞｼﾞﾄﾞｳｸﾗﾌﾞ,南区大谷場2丁目13-54,35.8534215,139.6742528,月～土（日、祝日、年末年始使用不可）,13:00,19:00,13:00,19:00,13:00,19:00,13:00,19:00,13:00,19:00,13:00,19:00,,,,,FALSE,TRUE,,,,,,,,,,12-29|12-30|12-31|01-01|01-02|01-03,学校休業日は8:30から利用可
11007,さいたま市,三室放課後児童クラブ,ﾐﾑﾛﾎｳｶｺﾞｼﾞﾄﾞｳｸﾗﾌﾞ,緑区松木1丁目4-11,35.8842246,139.6847253,月～土（日、祝日、年末年始使用不可）,13:00,19:00,13:00,19:00,13:00,19:00,13:00,19:00,13:00,19:00,13:00,19:00,,,,,FALSE,TRUE,,,,,,,,,,12-29|12-30|12-31|01-01|01-02|01-03,学校休業日は8:30から利用可
11007,さいたま市,中尾放課後児童クラブ,ﾅｶｵﾎｳｶｺﾞｼﾞﾄﾞｳｸﾗﾌﾞ,緑区中尾2596-1,35.8680829,139.6826742,月～土（日、祝日、年末年始使用不可）,13:00,19:00,13:00,19:00,13:00,19:00,13:00,19:00,13:00,19:00,13:00,19:00,,,,,FALSE,TRUE,,,,,,,,,,12-29|12-30|12-31|01-01|01-02|01-03,学校休業日は8:30から利用可
11007,さいたま市,原山放課後児童クラブ,ﾊﾗﾔﾏﾎｳｶｺﾞｼﾞﾄﾞｳｸﾗﾌﾞ,緑区原山1丁目22-20,35.8678076,139.6737952,月～土（日、祝日、年末年始使用不可）,13:00,19:00,13:00,19:00,13:00,19:00,13:00,19:00,13:00,19:00,13:00,19:00,,,,,FALSE,TRUE,,,,,,,,,,12-29|12-30|12-31|01-01|01-02|01-03,学校休業日は8:30から利用可
11007,さいたま市,大牧放課後児童クラブ,ｵｵﾏｷﾎｳｶｺﾞｼﾞﾄﾞｳｸﾗﾌﾞ,緑区東浦和6丁目13-15,35.8731639,139.706265,月～土（日、祝日、年末年始使用不可）,13:00,19:00,13:00,19:00,13:00,19:00,13:00,19:00,13:00,19:00,13:00,19:00,,,,,FALSE,TRUE,,,,,,,,,,12-29|12-30|12-31|01-01|01-02|01-03,学校休業日は8:30から利用可
11007,さいたま市,大門放課後児童クラブ,ﾀﾞｲﾓﾝﾎｳｶｺﾞｼﾞﾄﾞｳｸﾗﾌﾞ,緑区大門1361-13,35.8821546,139.7333468,月～土（日、祝日、年末年始使用不可）,13:00,19:00,13:00,19:00,13:00,19:00,13:00,19:00,13:00,19:00,13:00,19:00,,,,,FALSE,TRUE,,,,,,,,,,12-29|12-30|12-31|01-01|01-02|01-03,学校休業日は8:30から利用可
11007,さいたま市,道祖土放課後児童クラブ,ｻｲﾄﾞﾎｳｶｺﾞｼﾞﾄﾞｳｸﾗﾌﾞ,緑区道祖土1丁目1-1,35.874738,139.6688806,月～土（日、祝日、年末年始使用不可）,13:00,19:00,13:00,19:00,13:00,19:00,13:00,19:00,13:00,19:00,13:00,19:00,,,,,FALSE,TRUE,,,,,,,,,,12-29|12-30|12-31|01-01|01-02|01-03,学校休業日は8:30から利用可
11007,さいたま市,野田放課後児童クラブ,ﾉﾀﾞﾎｳｶｺﾞｼﾞﾄﾞｳｸﾗﾌﾞ,緑区上野田16,35.9002314,139.7039548,月～土（日、祝日、年末年始使用不可）,13:00,19:00,13:00,19:00,13:00,19:00,13:00,19:00,13:00,19:00,13:00,19:00,,,,,FALSE,TRUE,,,,,,,,,,12-29|12-30|12-31|01-01|01-02|01-03,学校休業日は8:30から利用可
11007,さいたま市,城北放課後児童クラブ,ｼﾞｮｳﾎｸﾎｳｶｺﾞｼﾞﾄﾞｳｸﾗﾌﾞ,岩槻区岩槻6619,35.9620993,139.6933735,月～土（日、祝日、年末年始使用不可）,13:00,19:00,13:00,19:00,13:00,19:00,13:00,19:00,13:00,19:00,13:00,19:00,,,,,FALSE,TRUE,,,,,,,,,,12-29|12-30|12-31|01-01|01-02|01-03,学校休業日は8:30から利用可
11007,さいたま市,太田放課後児童クラブ,ｵｵﾀﾎｳｶｺﾞｼﾞﾄﾞｳｸﾗﾌﾞ,岩槻区仲町1丁目17-3,35.9483186,139.7038133,月～土（日、祝日、年末年始使用不可）,13:00,19:00,13:00,19:00,13:00,19:00,13:00,19:00,13:00,19:00,13:00,19:00,,,,,FALSE,TRUE,,,,,,,,,,12-29|12-30|12-31|01-01|01-02|01-03,学校休業日は8:30から利用可
11007,さいたま市,西原放課後児童クラブ,ﾆｼﾊﾗﾎｳｶｺﾞｼﾞﾄﾞｳｸﾗﾌﾞ,岩槻区西原4-97,35.9520932,139.68543,月～土（日、祝日、年末年始使用不可）,13:00,19:00,13:00,19:00,13:00,19:00,13:00,19:00,13:00,19:00,13:00,19:00,,,,,FALSE,TRUE,,,,,,,,,,12-29|12-30|12-31|01-01|01-02|01-03,学校休業日は8:30から利用可
11007,さいたま市,城南放課後児童クラブ,ｼﾞｮｳﾅﾝﾎｳｶｺﾞｼﾞﾄﾞｳｸﾗﾌﾞ,岩槻区南下新井1191-1,35.9359332,139.712631,月～土（日、祝日、年末年始使用不可）,13:00,19:00,13:00,19:00,13:00,19:00,13:00,19:00,13:00,19:00,13:00,19:00,,,,,FALSE,TRUE,,,,,,,,,,12-29|12-30|12-31|01-01|01-02|01-03,学校休業日は8:30から利用可
11007,さいたま市,岩槻放課後児童クラブ,ｲﾜﾂｷﾎｳｶｺﾞｼﾞﾄﾞｳｸﾗﾌﾞ,岩槻区本町5丁目6-45,35.9536949,139.6985366,月～土（日、祝日、年末年始使用不可）,13:00,19:00,13:00,19:00,13:00,19:00,13:00,19:00,13:00,19:00,13:00,19:00,,,,,FALSE,TRUE,,,,,,,,,,12-29|12-30|12-31|01-01|01-02|01-03,学校休業日は8:30から利用可
11007,さいたま市,慈恩寺放課後児童クラブ,ｼﾞｵﾝｼﾞﾎｳｶｺﾞｼﾞﾄﾞｳｸﾗﾌﾞ,岩槻区慈恩寺259,35.9816894,139.7077972,月～土（日、祝日、年末年始使用不可）,13:00,19:00,13:00,19:00,13:00,19:00,13:00,19:00,13:00,19:00,13:00,19:00,,,,,FALSE,TRUE,,,,,,,,,,12-29|12-30|12-31|01-01|01-02|01-03,学校休業日は8:30から利用可
11007,さいたま市,東岩槻放課後児童クラブ,ﾋｶﾞｼｲﾜﾂｷﾎｳｶｺﾞｼﾞﾄﾞｳｸﾗﾌﾞ,岩槻区諏訪2丁目6-1,35.9702155,139.7093288,月～土（日、祝日、年末年始使用不可）,13:00,19:00,13:00,19:00,13:00,19:00,13:00,19:00,13:00,19:00,13:00,19:00,,,,,FALSE,TRUE,,,,,,,,,,12-29|12-30|12-31|01-01|01-02|01-03,学校休業日は8:30から利用可
11007,さいたま市,上里放課後児童クラブ,ｶﾐｻﾄﾎｳｶｺﾞｼﾞﾄﾞｳｸﾗﾌﾞ,岩槻区上里2-2,35.9651858,139.7038699,月～土（日、祝日、年末年始使用不可）,13:00,19:00,13:00,19:00,13:00,19:00,13:00,19:00,13:00,19:00,13:00,19:00,,,,,FALSE,TRUE,,,,,,,,,,12-29|12-30|12-31|01-01|01-02|01-03,学校休業日は8:30から利用可
11007,さいたま市,和土放課後児童クラブ,ﾜﾄﾞﾎｳｶｺﾞｼﾞﾄﾞｳｸﾗﾌﾞ,岩槻区黒谷1353,35.9261999,139.7206831,月～土（日、祝日、年末年始使用不可）,13:00,19:00,13:00,19:00,13:00,19:00,13:00,19:00,13:00,19:00,13:00,19:00,,,,,FALSE,TRUE,,,,,,,,,,12-29|12-30|12-31|01-01|01-02|01-03,学校休業日は8:30から利用可
11007,さいたま市,徳力放課後児童クラブ,ﾄｸﾘｷﾎｳｶｺﾞｼﾞﾄﾞｳｸﾗﾌﾞ,岩槻区徳力136-4,35.9741002,139.71679,月～土（日、祝日、年末年始使用不可）,13:00,19:00,13:00,19:00,13:00,19:00,13:00,19:00,13:00,19:00,13:00,19:00,,,,,FALSE,TRUE,,,,,,,,,,12-29|12-30|12-31|01-01|01-02|01-03,学校休業日は8:30から利用可
11007,さいたま市,柏崎放課後児童クラブ,ｶｼﾜｻﾞｷﾎｳｶｺﾞｼﾞﾄﾞｳｸﾗﾌﾞ,岩槻区柏崎762,35.9337231,139.7014645,月～土（日、祝日、年末年始使用不可）,13:00,19:00,13:00,19:00,13:00,19:00,13:00,19:00,13:00,19:00,13:00,19:00,,,,,FALSE,TRUE,,,,,,,,,,12-29|12-30|12-31|01-01|01-02|01-03,学校休業日は8:30から利用可
11007,さいたま市,新和放課後児童クラブ,ｼﾝﾜﾎｳｶｺﾞｼﾞﾄﾞｳｸﾗﾌﾞ,岩槻区尾ヶ崎1252,35.9105858,139.7324384,月～土（日、祝日、年末年始使用不可）,13:00,19:00,13:00,19:00,13:00,19:00,13:00,19:00,13:00,19:00,13:00,19:00,,,,,FALSE,TRUE,,,,,,,,,,12-29|12-30|12-31|01-01|01-02|01-03,学校休業日は8:30から利用可
11007,さいたま市,グリーンライフ猿花キャンプ場,ｸﾞﾘーﾝﾗｲﾌｻﾙﾊﾞﾅｷｬﾝﾌﾟｼﾞｮｳ,見沼区南中野975-2,35.91659,139.6656011,施設使用時,施設使用時,施設使用時,施設使用時,施設使用時,施設使用時,施設使用時,施設使用時,施設使用時,施設使用時,施設使用時,施設使用時,施設使用時,施設使用時,施設使用時,,,TRUE,TRUE,,,,,,,,,,,施設使用時のみ利用可
11007,さいたま市,馬宮児童センター,ﾏﾐﾔｼﾞﾄﾞｳｾﾝﾀー,西区西遊馬533-1,35.9051702,139.5726662,ほぼ全日（祝日（こどもの日、敬老の日、文化の日除く）、年末年始使用不可）,9:00,19:00,9:00,19:00,9:00,19:00,9:00,19:00,9:00,19:00,9:00,19:00,9:00,18:00,,,FALSE,TRUE,こどもの日|敬老の日|文化の日,,,,,,,,,12-29|12-30|12-31|01-01|01-02|01-03,
11007,さいたま市,植竹児童センター,ｳｴﾀｹｼﾞﾄﾞｳｾﾝﾀー,北区盆栽町430,35.9273665,139.6281166,ほぼ全日（祝日（こどもの日、敬老の日、文化の日除く）、年末年始使用不可）,9:00,19:00,9:00,19:00,9:00,19:00,9:00,19:00,9:00,19:00,9:00,19:00,9:00,18:00,,,FALSE,TRUE,こどもの日|敬老の日|文化の日,,,,,,,,,12-29|12-30|12-31|01-01|01-02|01-03,
11007,さいたま市,向原児童センター,ﾑｶｲﾊﾗｼﾞﾄﾞｳｾﾝﾀー,中央区下落合7丁目11-9,35.8814138,139.6315769,ほぼ全日（祝日（こどもの日、敬老の日、文化の日除く）、年末年始使用不可）,9:00,18:00,9:00,18:00,9:00,18:00,9:00,18:00,9:00,18:00,9:00,18:00,9:00,18:00,,,FALSE,TRUE,こどもの日|敬老の日|文化の日,,,,,,,,,12-29|12-30|12-31|01-01|01-02|01-03,
11007,さいたま市,大戸児童センター,ｵｵﾄｼﾞﾄﾞｳｾﾝﾀー,中央区大戸6丁目2-19,35.8671526,139.6348035,ほぼ全日（祝日（こどもの日、敬老の日、文化の日除く）、年末年始使用不可）,9:00,19:00,9:00,19:00,9:00,19:00,9:00,19:00,9:00,19:00,9:00,19:00,9:00,18:00,,,FALSE,TRUE,こどもの日|敬老の日|文化の日,,,,,,,,,12-29|12-30|12-31|01-01|01-02|01-03,
11007,さいたま市,大久保東児童センター,ｵｵｸﾎﾞﾋｶﾞｼｼﾞﾄﾞｳｾﾝﾀー,桜区大久保領家131-6,35.8695657,139.6083294,ほぼ全日（祝日（こどもの日、敬老の日、文化の日除く）、年末年始使用不可）,9:00,18:00,9:00,18:00,9:00,18:00,9:00,18:00,9:00,18:00,9:00,18:00,9:00,18:00,,,FALSE,TRUE,こどもの日|敬老の日|文化の日,,,,,,,,,12-29|12-30|12-31|01-01|01-02|01-03,
11007,さいたま市,文蔵児童センタ－,ﾌﾞｿﾞｳｼﾞﾄﾞｳｾﾝﾀ－,南区文蔵4丁目19-3,35.837957,139.6695771,ほぼ全日（祝日（こどもの日、敬老の日、文化の日除く）、年末年始使用不可）,9:00,19:00,9:00,19:00,9:00,19:00,9:00,19:00,9:00,19:00,9:00,19:00,9:00,18:00,,,FALSE,TRUE,こどもの日|敬老の日|文化の日,,,,,,,,,12-29|12-30|12-31|01-01|01-02|01-03,
11007,さいたま市,浦和別所児童センター,ｳﾗﾜﾍﾞｯｼｮｼﾞﾄﾞｳｾﾝﾀー,南区別所2丁目15-6,35.8513468,139.6461043,ほぼ全日（祝日（こどもの日、敬老の日、文化の日除く）、年末年始使用不可）,9:00,19:00,9:00,19:00,9:00,19:00,9:00,19:00,9:00,19:00,9:00,19:00,9:00,18:00,,,FALSE,TRUE,こどもの日|敬老の日|文化の日,,,,,,,,,12-29|12-30|12-31|01-01|01-02|01-03,
11007,さいたま市,岩槻児童センター,ｲﾜﾂｷｼﾞﾄﾞｳｾﾝﾀー,岩槻区本町1丁目11-11,35.9467231,139.6918816,ほぼ全日（祝日（こどもの日、敬老の日、文化の日除く）、年末年始使用不可）,9:00,18:00,9:00,18:00,9:00,18:00,9:00,18:00,9:00,18:00,9:00,18:00,9:00,18:00,,,FALSE,TRUE,こどもの日|敬老の日|文化の日,,,,,,,,,12-29|12-30|12-31|01-01|01-02|01-03,
11007,さいたま市,子育て支援センターエンゼルキッズさいたま西,ｺｿﾀﾞﾃｼｴﾝｾﾝﾀーｴﾝｾﾞﾙｷｯｽﾞｻｲﾀﾏﾆｼ,西区指扇2645-1,35.9173511,139.5668239,月～土（火、日、祝休日年末年始除く）,9:00,16:00,,,9:00,16:00,9:00,16:00,9:00,16:00,9:00,16:00,,,,,FALSE,TRUE,,,,,,,,,,12-29|12-30|12-31|01-01|01-02|01-03,
11007,さいたま市,子育て支援センターさいたま北,ｺｿﾀﾞﾃｼｴﾝｾﾝﾀーｻｲﾀﾏｷﾀ,北区日進町3丁目757-2,35.940469,139.6067847,月～土（水、日、祝休日年末年始除く）,9:00,16:00,9:00,16:00,,,9:00,16:00,9:00,16:00,9:00,16:00,,,,,FALSE,TRUE,,,,,,,,,,12-29|12-30|12-31|01-01|01-02|01-03,
11007,さいたま市,子育て支援センターおおみや,ｺｿﾀﾞﾃｼｴﾝｾﾝﾀーｵｵﾐﾔ,大宮区桜木町1丁目185-2,35.9033632,139.6225033,月～土（日、祝日、年末年始使用不可）,9:00,16:00,9:00,16:00,9:00,16:00,9:00,16:00,9:00,16:00,9:00,16:00,,,,,FALSE,TRUE,,,,,,,,,,12-29|12-30|12-31|01-01|01-02|01-03,
11007,さいたま市,子育て支援センターさいのこ,ｺｿﾀﾞﾃｼｴﾝｾﾝﾀーｻｲﾉｺ,見沼区大和田町1丁目1387-1,35.927538,139.6503852,月～土（日、祝日、年末年始使用不可）,9:00,16:00,9:00,16:00,9:00,16:00,9:00,16:00,9:00,16:00,9:00,16:00,,,,,FALSE,TRUE,,,,,,,,,,12-29|12-30|12-31|01-01|01-02|01-03,
11007,さいたま市,子育て支援センターさくら,ｺｿﾀﾞﾃｼｴﾝｾﾝﾀーｻｸﾗ,桜区栄和6丁目9-4,35.8601152,139.6111118,月～土（日、祝日、年末年始使用不可）,9:00,16:00,9:00,16:00,9:00,16:00,9:00,16:00,9:00,16:00,9:00,16:00,,,,,FALSE,TRUE,,,,,,,,,,12-29|12-30|12-31|01-01|01-02|01-03,
11007,さいたま市,子育て支援センターうらわ,ｺｿﾀﾞﾃｼｴﾝｾﾝﾀーｳﾗﾜ,浦和区高砂1丁目2-1,35.8568749,139.6569004,月～土（日、祝日、年末年始使用不可）,9:00,16:00,9:00,16:00,9:00,16:00,9:00,16:00,9:00,16:00,9:00,16:00,,,,,FALSE,TRUE,,,,,,,,,,12-29|12-30|12-31|01-01|01-02|01-03,
11007,さいたま市,子育て支援センターみなみ,ｺｿﾀﾞﾃｼｴﾝｾﾝﾀーﾐﾅﾐ,南区別所7丁目20-1,35.8452604,139.6453465,年末年始以外,8:00,22:00,8:00,22:00,8:00,22:00,8:00,22:00,8:00,22:00,8:00,22:00,8:00,22:00,,,TRUE,TRUE,,,,,,,,,,12-29|12-30|12-31|01-01|01-02|01-03,
11007,さいたま市,子育て支援センターみどり,ｺｿﾀﾞﾃｼｴﾝｾﾝﾀーﾐﾄﾞﾘ,緑区東浦和7丁目20-4,35.871326,139.7051045,月～土（日、祝日、年末年始使用不可）,9:00,16:00,9:00,16:00,9:00,16:00,9:00,16:00,9:00,16:00,9:00,16:00,,,,,FALSE,TRUE,,,,,,,,,,12-29|12-30|12-31|01-01|01-02|01-03,
11007,さいたま市,子育て支援センターいわつき,ｺｿﾀﾞﾃｼｴﾝｾﾝﾀーｲﾜﾂｷ,岩槻区本町3丁目1-1,35.9503838,139.6935255,月～土（日、祝日、年末年始使用不可）,9:00,16:00,9:00,16:00,9:00,16:00,9:00,16:00,9:00,16:00,9:00,16:00,,,,,FALSE,TRUE,,,,,,,,,,12-29|12-30|12-31|01-01|01-02|01-03,
11007,さいたま市,のびのびプラザ大宮,ﾉﾋﾞﾉﾋﾞﾌﾟﾗｻﾞｵｵﾐﾔ,大宮区桜木町1丁目185-2,35.9033632,139.6225033,月～土（日、祝日、年末年始使用不可）,7:30,19:30,7:30,19:30,7:30,19:30,7:30,19:30,7:30,19:30,7:30,19:30,,,,,FALSE,TRUE,,,,,,,,,,12-29|12-30|12-31|01-01|01-02|01-03,
11007,さいたま市,岸町保育園,ｷｼﾏﾁﾎｲｸｴﾝ,浦和区岸町6丁目5-12,35.8537244,139.6516905,月～土（日、祝日、年末年始使用不可）,7:30,19:30,7:30,19:30,7:30,19:30,7:30,19:30,7:30,19:30,7:30,19:30,,,,,FALSE,TRUE,,,,,,,,,,12-29|12-30|12-31|01-01|01-02|01-03,
11007,さいたま市,本太保育園,ﾓﾄﾌﾞﾄﾎｲｸｴﾝ,浦和区本太4丁目3-15,35.8667887,139.6575734,月～土（日、祝日、年末年始使用不可）,7:30,19:30,7:30,19:30,7:30,19:30,7:30,19:30,7:30,19:30,7:30,19:30,,,,,FALSE,TRUE,,,,,,,,,,12-29|12-30|12-31|01-01|01-02|01-03,
11007,さいたま市,領家保育園,ﾘｮｳｹﾎｲｸｴﾝ,浦和区領家7丁目14-16,35.8823899,139.6490665,月～土（日、祝日、年末年始使用不可）,7:30,19:30,7:30,19:30,7:30,19:30,7:30,19:30,7:30,19:30,7:30,19:30,,,,,FALSE,TRUE,,,,,,,,,,12-29|12-30|12-31|01-01|01-02|01-03,
11007,さいたま市,駒場保育園,ｺﾏﾊﾞﾎｲｸｴﾝ,浦和区駒場1丁目27-7,35.8721095,139.6602933,月～土（日、祝日、年末年始使用不可）,7:30,19:30,7:30,19:30,7:30,19:30,7:30,19:30,7:30,19:30,7:30,19:30,,,,,FALSE,TRUE,,,,,,,,,,12-29|12-30|12-31|01-01|01-02|01-03,
11007,さいたま市,大久保保育園,ｵｵｸﾎﾞﾎｲｸｴﾝ,桜区大久保領家373-1,35.8695246,139.602856,月～土（日、祝日、年末年始使用不可）,7:30,19:30,7:30,19:30,7:30,19:30,7:30,19:30,7:30,19:30,7:30,19:30,,,,,FALSE,TRUE,,,,,,,,,,12-29|12-30|12-31|01-01|01-02|01-03,
11007,さいたま市,浦和中央保育園,ｳﾗﾜﾁｭｳｵｳﾎｲｸｴﾝ,浦和区仲町2丁目13-7,35.8585946,139.6518365,月～土（日、祝日、年末年始使用不可）,7:30,19:30,7:30,19:30,7:30,19:30,7:30,19:30,7:30,19:30,7:30,19:30,,,,,FALSE,TRUE,,,,,,,,,,12-29|12-30|12-31|01-01|01-02|01-03,
11007,さいたま市,南浦和保育園,ﾐﾅﾐｳﾗﾜﾎｲｸｴﾝ,南区根岸2丁目19-3,35.8400479,139.6652486,月～土（日、祝日、年末年始使用不可）,7:30,19:30,7:30,19:30,7:30,19:30,7:30,19:30,7:30,19:30,7:30,19:30,,,,,FALSE,TRUE,,,,,,,,,,12-29|12-30|12-31|01-01|01-02|01-03,
11007,さいたま市,田島保育園,ﾀｼﾞﾏﾎｲｸｴﾝ,桜区田島2丁目16-7,35.8434562,139.6314637,月～土（日、祝日、年末年始使用不可）,7:30,19:30,7:30,19:30,7:30,19:30,7:30,19:30,7:30,19:30,7:30,19:30,,,,,FALSE,TRUE,,,,,,,,,,12-29|12-30|12-31|01-01|01-02|01-03,
11007,さいたま市,尾間木保育園,ｵﾏｷﾞﾎｲｸｴﾝ,緑区中尾1432-5,35.8733279,139.6860998,月～土（日、祝日、年末年始使用不可）,7:30,19:30,7:30,19:30,7:30,19:30,7:30,19:30,7:30,19:30,7:30,19:30,,,,,FALSE,TRUE,,,,,,,,,,12-29|12-30|12-31|01-01|01-02|01-03,
11007,さいたま市,原山保育園,ﾊﾗﾔﾏﾎｲｸｴﾝ,緑区原山1丁目7-2,35.8694891,139.6720253,月～土（日、祝日、年末年始使用不可）,7:30,19:30,7:30,19:30,7:30,19:30,7:30,19:30,7:30,19:30,7:30,19:30,,,,,FALSE,TRUE,,,,,,,,,,12-29|12-30|12-31|01-01|01-02|01-03,
11007,さいたま市,常盤保育園,ﾄｷﾜﾎｲｸｴﾝ,浦和区常盤9丁目3-16,35.8671279,139.6468403,月～土（日、祝日、年末年始使用不可）,7:30,19:30,7:30,19:30,7:30,19:30,7:30,19:30,7:30,19:30,7:30,19:30,,,,,FALSE,TRUE,,,,,,,,,,12-29|12-30|12-31|01-01|01-02|01-03,
11007,さいたま市,常盤北保育園,ﾄｷﾜｷﾀﾎｲｸｴﾝ,浦和区針ヶ谷4丁目1-1,35.8783189,139.6404828,月～土（日、祝日、年末年始使用不可）,7:30,19:30,7:30,19:30,7:30,19:30,7:30,19:30,7:30,19:30,7:30,19:30,,,,,FALSE,TRUE,,,,,,,,,,12-29|12-30|12-31|01-01|01-02|01-03,
11007,さいたま市,文蔵保育園,ﾌﾞｿﾞｳﾎｲｸｴﾝ,南区文蔵3丁目7-14,35.8400475,139.6756052,月～土（日、祝日、年末年始使用不可）,7:30,19:30,7:30,19:30,7:30,19:30,7:30,19:30,7:30,19:30,7:30,19:30,,,,,FALSE,TRUE,,,,,,,,,,12-29|12-30|12-31|01-01|01-02|01-03,
11007,さいたま市,白幡保育園,ｼﾗﾊﾀﾎｲｸｴﾝ,南区白幡3丁目1-2,35.8448493,139.6554829,月～土（日、祝日、年末年始使用不可）,7:30,19:30,7:30,19:30,7:30,19:30,7:30,19:30,7:30,19:30,7:30,19:30,,,,,FALSE,TRUE,,,,,,,,,,12-29|12-30|12-31|01-01|01-02|01-03,
11007,さいたま市,大谷場保育園,ｵｵﾔﾊﾞﾎｲｸｴﾝ,南区南浦和3丁目36-11,35.8463121,139.6742633,月～土（日、祝日、年末年始使用不可）,7:30,19:30,7:30,19:30,7:30,19:30,7:30,19:30,7:30,19:30,7:30,19:30,,,,,FALSE,TRUE,,,,,,,,,,12-29|12-30|12-31|01-01|01-02|01-03,
11007,さいたま市,白鍬保育園,ｼﾗｸﾜﾎｲｸｴﾝ,桜区白鍬511,35.884807,139.603948,月～土（日、祝日、年末年始使用不可）,7:30,19:30,7:30,19:30,7:30,19:30,7:30,19:30,7:30,19:30,7:30,19:30,,,,,FALSE,TRUE,,,,,,,,,,12-29|12-30|12-31|01-01|01-02|01-03,
11007,さいたま市,東仲町保育園,ﾋｶﾞｼﾅｶﾏﾁﾎｲｸｴﾝ,浦和区東仲町28-16,35.8606002,139.6600946,月～土（日、祝日、年末年始使用不可）,7:30,19:30,7:30,19:30,7:30,19:30,7:30,19:30,7:30,19:30,7:30,19:30,,,,,FALSE,TRUE,,,,,,,,,,12-29|12-30|12-31|01-01|01-02|01-03,
11007,さいたま市,辻保育園,ﾂｼﾞﾎｲｸｴﾝ,南区辻3丁目10-15,35.8392196,139.6572112,月～土（日、祝日、年末年始使用不可）,7:30,19:30,7:30,19:30,7:30,19:30,7:30,19:30,7:30,19:30,7:30,19:30,,,,,FALSE,TRUE,,,,,,,,,,12-29|12-30|12-31|01-01|01-02|01-03,
11007,さいたま市,曲本保育園,ﾏｶﾞﾓﾄﾎｲｸｴﾝ,南区曲本4丁目5-7,35.8381054,139.6421081,月～土（日、祝日、年末年始使用不可）,7:30,19:30,7:30,19:30,7:30,19:30,7:30,19:30,7:30,19:30,7:30,19:30,,,,,FALSE,TRUE,,,,,,,,,,12-29|12-30|12-31|01-01|01-02|01-03,
11007,さいたま市,大谷口保育園,ｵｵﾔｸﾞﾁﾎｲｸｴﾝ,南区大谷口1089-1,35.8614998,139.6770428,月～土（日、祝日、年末年始使用不可）,7:30,19:30,7:30,19:30,7:30,19:30,7:30,19:30,7:30,19:30,7:30,19:30,,,,,FALSE,TRUE,,,,,,,,,,12-29|12-30|12-31|01-01|01-02|01-03,
11007,さいたま市,下木崎保育園,ｼﾓｷｻﾞｷﾎｲｸｴﾝ,浦和区木崎1丁目5-32,35.8843179,139.660484,月～土（日、祝日、年末年始使用不可）,7:30,19:30,7:30,19:30,7:30,19:30,7:30,19:30,7:30,19:30,7:30,19:30,,,,,FALSE,TRUE,,,,,,,,,,12-29|12-30|12-31|01-01|01-02|01-03,
11007,さいたま市,三室保育園,ﾐﾑﾛﾎｲｸｴﾝ,緑区三室1629-6,35.8826603,139.6787069,月～土（日、祝日、年末年始使用不可）,7:30,19:30,7:30,19:30,7:30,19:30,7:30,19:30,7:30,19:30,7:30,19:30,,,,,FALSE,TRUE,,,,,,,,,,12-29|12-30|12-31|01-01|01-02|01-03,
11007,さいたま市,西堀保育園,ﾆｼﾎﾞﾘﾎｲｸｴﾝ,桜区桜田3丁目9-12,35.8520724,139.6188596,月～土（日、祝日、年末年始使用不可）,7:30,19:30,7:30,19:30,7:30,19:30,7:30,19:30,7:30,19:30,7:30,19:30,,,,,FALSE,TRUE,,,,,,,,,,12-29|12-30|12-31|01-01|01-02|01-03,
11007,さいたま市,針ケ谷保育園,ﾊﾘｶﾞﾔﾎｲｸｴﾝ,浦和区針ヶ谷1丁目4-3,35.8797377,139.6420802,月～土（日、祝日、年末年始使用不可）,7:30,19:30,7:30,19:30,7:30,19:30,7:30,19:30,7:30,19:30,7:30,19:30,,,,,FALSE,TRUE,,,,,,,,,,12-29|12-30|12-31|01-01|01-02|01-03,
11007,さいたま市,上大久保保育園,ｶﾐｵｵｸﾎﾞﾎｲｸｴﾝ,桜区上大久保940-3,35.8693844,139.6093487,月～土（日、祝日、年末年始使用不可）,7:30,19:30,7:30,19:30,7:30,19:30,7:30,19:30,7:30,19:30,7:30,19:30,,,,,FALSE,TRUE,,,,,,,,,,12-29|12-30|12-31|01-01|01-02|01-03,
11007,さいたま市,武蔵浦和保育園,ﾑｻｼｳﾗﾜﾎｲｸｴﾝ,南区鹿手袋4丁目1-12,35.8487029,139.6421426,月～土（日、祝日、年末年始使用不可）,7:30,19:30,7:30,19:30,7:30,19:30,7:30,19:30,7:30,19:30,7:30,19:30,,,,,FALSE,TRUE,,,,,,,,,,12-29|12-30|12-31|01-01|01-02|01-03,
11007,さいたま市,大宮保育園,ｵｵﾐﾔﾎｲｸｴﾝ,大宮区吉敷町1丁目132-3,35.9013154,139.6306438,月～土（日、祝日、年末年始使用不可）,7:30,19:30,7:30,19:30,7:30,19:30,7:30,19:30,7:30,19:30,7:30,19:30,,,,,FALSE,TRUE,,,,,,,,,,12-29|12-30|12-31|01-01|01-02|01-03,
11007,さいたま市,桜木保育園,ｻｸﾗｷﾞﾎｲｸｴﾝ,大宮区桜木町1丁目185-2,35.9033632,139.6225033,月～土（日、祝日、年末年始使用不可）,7:30,19:30,7:30,19:30,7:30,19:30,7:30,19:30,7:30,19:30,7:30,19:30,,,,,FALSE,TRUE,,,,,,,,,,12-29|12-30|12-31|01-01|01-02|01-03,
11007,さいたま市,日進保育園,ﾆｯｼﾝﾎｲｸｴﾝ,北区日進町2丁目632,35.9295646,139.6091696,月～土（日、祝日、年末年始使用不可）,7:30,19:30,7:30,19:30,7:30,19:30,7:30,19:30,7:30,19:30,7:30,19:30,,,,,FALSE,TRUE,,,,,,,,,,12-29|12-30|12-31|01-01|01-02|01-03,
11007,さいたま市,東大成保育園,ﾋｶﾞｼｵｵﾅﾘﾎｲｸｴﾝ,北区東大成町2丁目103,35.9258554,139.6205332,月～土（日、祝日、年末年始使用不可）,7:30,19:30,7:30,19:30,7:30,19:30,7:30,19:30,7:30,19:30,7:30,19:30,,,,,FALSE,TRUE,,,,,,,,,,12-29|12-30|12-31|01-01|01-02|01-03,
11007,さいたま市,宮原保育園,ﾐﾔﾊﾗﾎｲｸｴﾝ,北区宮原町2丁目83-2,35.9421783,139.6171527,月～土（日、祝日、年末年始使用不可）,7:30,19:30,7:30,19:30,7:30,19:30,7:30,19:30,7:30,19:30,7:30,19:30,,,,,FALSE,TRUE,,,,,,,,,,12-29|12-30|12-31|01-01|01-02|01-03,
11007,さいたま市,大砂土保育園,ｵｵｻﾄﾎｲｸｴﾝ,北区土呂町1丁目51-8,35.9354279,139.628256,月～土（日、祝日、年末年始使用不可）,7:30,19:30,7:30,19:30,7:30,19:30,7:30,19:30,7:30,19:30,7:30,19:30,,,,,FALSE,TRUE,,,,,,,,,,12-29|12-30|12-31|01-01|01-02|01-03,
11007,さいたま市,三橋保育園,ﾐﾊｼﾎｲｸｴﾝ,大宮区三橋2丁目929,35.9022307,139.6056913,月～土（日、祝日、年末年始使用不可）,7:30,19:30,7:30,19:30,7:30,19:30,7:30,19:30,7:30,19:30,7:30,19:30,,,,,FALSE,TRUE,,,,,,,,,,12-29|12-30|12-31|01-01|01-02|01-03,
11007,さいたま市,天沼保育園,ｱﾏﾇﾏﾎｲｸｴﾝ,大宮区天沼町2丁目438-1,35.8988286,139.6394986,月～土（日、祝日、年末年始使用不可）,7:30,19:30,7:30,19:30,7:30,19:30,7:30,19:30,7:30,19:30,7:30,19:30,,,,,FALSE,TRUE,,,,,,,,,,12-29|12-30|12-31|01-01|01-02|01-03,
11007,さいたま市,大和田保育園,ｵｵﾜﾀﾞﾎｲｸｴﾝ,見沼区大和田町1丁目1230-92,35.9244361,139.6522634,月～土（日、祝日、年末年始使用不可）,7:30,19:30,7:30,19:30,7:30,19:30,7:30,19:30,7:30,19:30,7:30,19:30,,,,,FALSE,TRUE,,,,,,,,,,12-29|12-30|12-31|01-01|01-02|01-03,
11007,さいたま市,日進西保育園,ﾆｯｼﾝﾆｼﾎｲｸｴﾝ,北区日進町1丁目800-1,35.9263081,139.6042299,月～土（日、祝日、年末年始使用不可）,7:30,19:30,7:30,19:30,7:30,19:30,7:30,19:30,7:30,19:30,7:30,19:30,,,,,FALSE,TRUE,,,,,,,,,,12-29|12-30|12-31|01-01|01-02|01-03,
11007,さいたま市,上小保育園,ｶﾐｺﾎｲｸｴﾝ,大宮区上小町845-4,35.9000089,139.6113249,月～土（日、祝日、年末年始使用不可）,7:30,19:30,7:30,19:30,7:30,19:30,7:30,19:30,7:30,19:30,7:30,19:30,,,,,FALSE,TRUE,,,,,,,,,,12-29|12-30|12-31|01-01|01-02|01-03,
11007,さいたま市,七里保育園,ﾅﾅｻﾄﾎｲｸｴﾝ,見沼区大谷1985,35.9266013,139.6754239,月～土（日、祝日、年末年始使用不可）,7:30,19:30,7:30,19:30,7:30,19:30,7:30,19:30,7:30,19:30,7:30,19:30,,,,,FALSE,TRUE,,,,,,,,,,12-29|12-30|12-31|01-01|01-02|01-03,
11007,さいたま市,大成保育園,ｵｵﾅﾘﾎｲｸｴﾝ,大宮区大成町3丁目655-1,35.915505,139.611419,月～土（日、祝日、年末年始使用不可）,7:30,19:30,7:30,19:30,7:30,19:30,7:30,19:30,7:30,19:30,7:30,19:30,,,,,FALSE,TRUE,,,,,,,,,,12-29|12-30|12-31|01-01|01-02|01-03,
11007,さいたま市,片柳保育園,ｶﾀﾔﾅｷﾞﾎｲｸｴﾝ,見沼区御蔵796,35.9064357,139.6693388,月～土（日、祝日、年末年始使用不可）,7:30,19:30,7:30,19:30,7:30,19:30,7:30,19:30,7:30,19:30,7:30,19:30,,,,,FALSE,TRUE,,,,,,,,,,12-29|12-30|12-31|01-01|01-02|01-03,
11007,さいたま市,植水保育園,ｳｴﾐｽﾞﾎｲｸｴﾝ,西区佐知川306,35.9035548,139.5871364,月～土（日、祝日、年末年始使用不可）,7:30,19:30,7:30,19:30,7:30,19:30,7:30,19:30,7:30,19:30,7:30,19:30,,,,,FALSE,TRUE,,,,,,,,,,12-29|12-30|12-31|01-01|01-02|01-03,
11007,さいたま市,東大宮保育園,ﾋｶﾞｼｵｵﾐﾔﾎｲｸｴﾝ,見沼区丸ヶ崎町13-13,35.9536105,139.6513747,月～土（日、祝日、年末年始使用不可）,7:30,19:30,7:30,19:30,7:30,19:30,7:30,19:30,7:30,19:30,7:30,19:30,,,,,FALSE,TRUE,,,,,,,,,,12-29|12-30|12-31|01-01|01-02|01-03,
11007,さいたま市,寿能保育園,ｼﾞｭﾉｳﾎｲｸｴﾝ,大宮区寿能町2丁目140,35.9211386,139.6366859,月～土（日、祝日、年末年始使用不可）,7:30,19:30,7:30,19:30,7:30,19:30,7:30,19:30,7:30,19:30,7:30,19:30,,,,,FALSE,TRUE,,,,,,,,,,12-29|12-30|12-31|01-01|01-02|01-03,
11007,さいたま市,奈良保育園,ﾅﾗﾎｲｸｴﾝ,北区奈良町125-6,35.9491015,139.5979922,月～土（日、祝日、年末年始使用不可）,7:30,19:30,7:30,19:30,7:30,19:30,7:30,19:30,7:30,19:30,7:30,19:30,,,,,FALSE,TRUE,,,,,,,,,,12-29|12-30|12-31|01-01|01-02|01-03,
11007,さいたま市,七里東保育園,ﾅﾅｻﾄｱｽﾞﾏﾎｲｸｴﾝ,見沼区新堤40,35.9310369,139.6713813,月～土（日、祝日、年末年始使用不可）,7:30,19:30,7:30,19:30,7:30,19:30,7:30,19:30,7:30,19:30,7:30,19:30,,,,,FALSE,TRUE,,,,,,,,,,12-29|12-30|12-31|01-01|01-02|01-03,
11007,さいたま市,指扇保育園,ｻｼｵｳｷﾞﾎｲｸｴﾝ,西区高木567-3,35.9274483,139.5707863,月～土（日、祝日、年末年始使用不可）,7:30,19:30,7:30,19:30,7:30,19:30,7:30,19:30,7:30,19:30,7:30,19:30,,,,,FALSE,TRUE,,,,,,,,,,12-29|12-30|12-31|01-01|01-02|01-03,
11007,さいたま市,泰平保育園,ﾀｲﾍｲﾎｲｸｴﾝ,北区今羽町596,35.9484806,139.6262982,月～土（日、祝日、年末年始使用不可）,7:30,19:30,7:30,19:30,7:30,19:30,7:30,19:30,7:30,19:30,7:30,19:30,,,,,FALSE,TRUE,,,,,,,,,,12-29|12-30|12-31|01-01|01-02|01-03,
11007,さいたま市,馬宮保育園,ﾏﾐﾔﾎｲｸｴﾝ,西区西遊馬119,35.9014867,139.5741551,月～土（日、祝日、年末年始使用不可）,7:30,19:30,7:30,19:30,7:30,19:30,7:30,19:30,7:30,19:30,7:30,19:30,,,,,FALSE,TRUE,,,,,,,,,,12-29|12-30|12-31|01-01|01-02|01-03,
11007,さいたま市,三橋西保育園,ﾐﾊｼﾆｼﾎｲｸｴﾝ,西区三橋6丁目381-1,35.9129169,139.5860387,月～土（日、祝日、年末年始使用不可）,7:30,19:30,7:30,19:30,7:30,19:30,7:30,19:30,7:30,19:30,7:30,19:30,,,,,FALSE,TRUE,,,,,,,,,,12-29|12-30|12-31|01-01|01-02|01-03,
11007,さいたま市,春野保育園,ﾊﾙﾉﾎｲｸｴﾝ,見沼区春野1丁目7-1,35.9556838,139.6679948,月～土（日、祝日、年末年始使用不可）,7:30,19:30,7:30,19:30,7:30,19:30,7:30,19:30,7:30,19:30,7:30,19:30,,,,,FALSE,TRUE,,,,,,,,,,12-29|12-30|12-31|01-01|01-02|01-03,
11007,さいたま市,上落合保育園,ｶﾐｵﾁｱｲﾎｲｸｴﾝ,中央区上落合2丁目9-10,35.8896879,139.6263099,月～土（日、祝日、年末年始使用不可）,7:30,19:30,7:30,19:30,7:30,19:30,7:30,19:30,7:30,19:30,7:30,19:30,,,,,FALSE,TRUE,,,,,,,,,,12-29|12-30|12-31|01-01|01-02|01-03,
11007,さいたま市,与野本町保育園,ﾖﾉﾎﾝﾏﾁﾎｲｸｴﾝ,中央区本町東7丁目4-19,35.8915592,139.6207431,月～土（日、祝日、年末年始使用不可）,7:30,19:30,7:30,19:30,7:30,19:30,7:30,19:30,7:30,19:30,7:30,19:30,,,,,FALSE,TRUE,,,,,,,,,,12-29|12-30|12-31|01-01|01-02|01-03,
11007,さいたま市,大戸保育園,ｵｵﾄﾎｲｸｴﾝ,中央区大戸2丁目7-19,35.8654006,139.6333921,月～土（日、祝日、年末年始使用不可）,7:30,19:30,7:30,19:30,7:30,19:30,7:30,19:30,7:30,19:30,7:30,19:30,,,,,FALSE,TRUE,,,,,,,,,,12-29|12-30|12-31|01-01|01-02|01-03,
11007,さいたま市,下落合団地保育園,ｼﾓｵﾁｱｲﾀﾞﾝﾁﾎｲｸｴﾝ,中央区下落合3丁目8-2,35.8851949,139.6313905,月～土（日、祝日、年末年始使用不可）,7:30,19:30,7:30,19:30,7:30,19:30,7:30,19:30,7:30,19:30,7:30,19:30,,,,,FALSE,TRUE,,,,,,,,,,12-29|12-30|12-31|01-01|01-02|01-03,
11007,さいたま市,鈴谷西保育園,ｽｽﾞﾔﾆｼﾎｲｸｴﾝ,中央区鈴谷7丁目3-31,35.8741521,139.6261579,月～土（日、祝日、年末年始使用不可）,7:30,19:30,7:30,19:30,7:30,19:30,7:30,19:30,7:30,19:30,7:30,19:30,,,,,FALSE,TRUE,,,,,,,,,,12-29|12-30|12-31|01-01|01-02|01-03,
11007,さいたま市,鈴谷東保育園,ｽｽﾞﾔﾋｶﾞｼﾎｲｸｴﾝ,中央区鈴谷9丁目3-2,35.8765538,139.6286983,月～土（日、祝日、年末年始使用不可）,7:30,19:30,7:30,19:30,7:30,19:30,7:30,19:30,7:30,19:30,7:30,19:30,,,,,FALSE,TRUE,,,,,,,,,,12-29|12-30|12-31|01-01|01-02|01-03,
11007,さいたま市,八王子保育園,ﾊﾁｵｳｼﾞﾎｲｸｴﾝ,中央区八王子5丁目12-17,35.8806327,139.6053678,月～土（日、祝日、年末年始使用不可）,7:30,19:30,7:30,19:30,7:30,19:30,7:30,19:30,7:30,19:30,7:30,19:30,,,,,FALSE,TRUE,,,,,,,,,,12-29|12-30|12-31|01-01|01-02|01-03,
11007,さいたま市,西町保育園,ﾆｼﾏﾁﾎｲｸｴﾝ,岩槻区西町3丁目1-24,35.9531017,139.6865264,月～土（日、祝日、年末年始使用不可）,7:30,19:30,7:30,19:30,7:30,19:30,7:30,19:30,7:30,19:30,7:30,19:30,,,,,FALSE,TRUE,,,,,,,,,,12-29|12-30|12-31|01-01|01-02|01-03,
11007,さいたま市,岩槻本町保育園,ｲﾜﾂｷﾎﾝﾁｮｳﾎｲｸｴﾝ,岩槻区本町2丁目5-5,35.9441537,139.6935401,月～土（日、祝日、年末年始使用不可）,7:30,19:30,7:30,19:30,7:30,19:30,7:30,19:30,7:30,19:30,7:30,19:30,,,,,FALSE,TRUE,,,,,,,,,,12-29|12-30|12-31|01-01|01-02|01-03,
11007,さいたま市,諏訪保育園,ｽﾜﾎｲｸｴﾝ,岩槻区諏訪2丁目5-1,35.9691143,139.7090236,月～土（日、祝日、年末年始使用不可）,7:30,19:30,7:30,19:30,7:30,19:30,7:30,19:30,7:30,19:30,7:30,19:30,,,,,FALSE,TRUE,,,,,,,,,,12-29|12-30|12-31|01-01|01-02|01-03,
11007,さいたま市,美幸保育園,ﾐﾕｷﾎｲｸｴﾝ,岩槻区美幸町3丁目18,35.9602155,139.6909925,月～土（日、祝日、年末年始使用不可）,7:30,19:30,7:30,19:30,7:30,19:30,7:30,19:30,7:30,19:30,7:30,19:30,,,,,FALSE,TRUE,,,,,,,,,,12-29|12-30|12-31|01-01|01-02|01-03,
11007,さいたま市,児童相談所,ｼﾞﾄﾞｳｿｳﾀﾞﾝｼﾞｮ,中央区下落合5丁目6-11,35.8842169,139.6272859,月～金（土、日、祝日、年末年始使用不可）,8:30,18:00,8:30,18:00,8:30,18:00,8:30,18:00,8:30,18:00,,,,,,,FALSE,TRUE,,,,,,,,,,12-29|12-30|12-31|01-01|01-02|01-03,
11007,さいたま市,市民の森・見沼グリーンセンター,ｼﾐﾝﾉﾓﾘ・ﾐﾇﾏｸﾞﾘーﾝｾﾝﾀー,北区見沼2-94,35.9321022,139.63812,全日（年末年始使用不可）,9:00,21:00,9:00,21:00,9:00,21:00,9:00,21:00,9:00,21:00,9:00,17:00,9:00,17:00,9:00,17:00,TRUE,TRUE,,,,,,,,,,12-29|12-30|12-31|01-01|01-02|01-03,
11007,さいたま市,大宮花の丘農林公苑,ｵｵﾐﾔﾊﾅﾉｵｶﾉｳﾘﾝｺｳｴﾝ,西区西新井124,35.9396545,139.5914526,全日（年末年始使用不可）,9:00,21:00,9:00,21:00,9:00,21:00,9:00,21:00,9:00,21:00,9:00,21:00,9:00,21:00,,,TRUE,TRUE,,,,,,,,,,12-29|12-30|12-31|01-01|01-02|01-03,
11007,さいたま市,春おか広場,ﾊﾙｵｶﾋﾛﾊﾞ,見沼区宮ヶ谷塔765,35.9433817,139.6706889,全日（年末年始不可）,9:00,21:00,9:00,21:00,9:00,21:00,9:00,21:00,9:00,21:00,9:00,21:00,9:00,21:00,,,TRUE,TRUE,,,,,,,,,,12-29|12-30|12-31|01-01|01-02|01-03,
11007,さいたま市,食肉中央卸売市場,ｼｮｸﾆｸﾁｭｳｵｳｵﾛｼｳﾘｼｼﾞｮｳ,大宮区吉敷町2丁目23,35.8981781,139.627562,全日（年末年始使用不可）,8:30,17:00,8:30,17:00,8:30,17:00,8:30,17:00,8:30,17:00,8:30,17:00,8:30,17:00,,,TRUE,TRUE,,,,,,,,,,12-29|12-30|12-31|01-01|01-02|01-03,
11007,さいたま市,浦和駅西口案内所,ｳﾗﾜｴｷﾆｼｸﾞﾁｱﾝﾅｲｼﾞｮ,浦和区高砂1丁目16-20,35.8589234,139.6567652,全日（年末年始使用不可）,8:30,17:00,8:30,17:00,8:30,17:00,8:30,17:00,8:30,17:00,8:30,17:00,8:30,17:00,,,TRUE,TRUE,,,,,,,,,,12-29|12-30|12-31|01-01|01-02|01-03,
11007,さいたま市,産業振興会館,ｻﾝｷﾞｮｳｼﾝｺｳｶｲｶﾝ,北区日進町2丁目1915-4,35.9330885,139.6091253,月～土（日、祝日、年末年始使用不可）,9:00,21:00,9:00,21:00,9:00,21:00,9:00,21:00,9:00,21:00,9:00,21:00,,,,,FALSE,TRUE,,,,,,,,,,12-29|12-30|12-31|01-01|01-02|01-03,
11007,さいたま市,産業文化センター,ｻﾝｷﾞｮｳﾌﾞﾝｶｾﾝﾀー,中央区下落合5丁目4-3,35.8840281,139.6285501,全日（年末年始使用不可）,9:00,21:30,9:00,21:30,9:00,21:30,9:00,21:30,9:00,21:30,9:00,21:30,9:00,21:30,,,TRUE,TRUE,,,,,,,,,,12-29|12-30|12-31|01-01|01-02|01-03,
11007,さいたま市,農業者トレーニングセンター,ﾉｳｷﾞｮｳｼｬﾄﾚーﾆﾝｸﾞｾﾝﾀー,緑区大崎3156-1,35.8840485,139.7130543,全日（年末年始使用不可）,8:30,17:00,8:30,17:00,8:30,17:00,8:30,17:00,8:30,17:00,8:30,17:00,8:30,17:00,,,TRUE,TRUE,,,,,,,,,,12-29|12-30|12-31|01-01|01-02|01-03,
11007,さいたま市,職業訓練センター（大宮建設高等職業訓練校）,ｼｮｸｷﾞｮｳｸﾝﾚﾝｾﾝﾀー（ｵｵﾐﾔｹﾝｾﾂｺｳﾄｳｼｮｸｷﾞｮｳｸﾝﾚﾝｺｳ）,西区西遊馬1338-13,35.9146736,139.5612817,月～土曜日,9:00,17:00,9:00,17:00,9:00,17:00,9:00,17:00,9:00,17:00,9:00,17:00,,,,,TRUE,TRUE,,,,,,,,,,,
11007,さいたま市,北浦和ターミナルビル,ｷﾀｳﾗﾜﾀーﾐﾅﾙﾋﾞﾙ,浦和区北浦和1丁目7-1,35.8736976,139.6476347,全日（お盆・年末年始使用不可）,9:00,21:00,9:00,21:00,9:00,21:00,9:00,21:00,9:00,21:00,9:00,21:00,9:00,21:00,,,TRUE,TRUE,,,,,,,,,,12-29|12-30|12-31|01-01|01-02|01-03,お盆使用不可
11007,さいたま市,西部環境センター,ｾｲﾌﾞｶﾝｷｮｳｾﾝﾀー,西区宝来52-1,35.9322074,139.5527314,月～金（土、日、祝日、年末年始使用不可）,8:30,17:00,8:30,17:00,8:30,17:00,8:30,17:00,8:30,17:00,,,,,,,FALSE,TRUE,,,,,,,,,,12-29|12-30|12-31|01-01|01-02|01-03,
11007,さいたま市,東部環境センター,ﾄｳﾌﾞｶﾝｷｮｳｾﾝﾀー,見沼区膝子626-1,35.9285222,139.6871922,月～金（土、日、年末年始使用不可）,8:30,17:15,8:30,17:15,8:30,17:15,8:30,17:15,8:30,17:15,,,,,,,FALSE,FALSE,,,,,,,,,,12-29|12-30|12-31|01-01|01-02|01-03,
11007,さいたま市,クリーンセンター大崎,ｸﾘーﾝｾﾝﾀーｵｵｻｷ,緑区大崎317,35.8805798,139.7117918,月～金（土、日、祝日、年末年始使用不可）,8:30,17:15,8:30,17:15,8:30,17:15,8:30,17:15,8:30,17:15,,,,,,,FALSE,TRUE,,,,,,,,,,12-29|12-30|12-31|01-01|01-02|01-03,
11007,さいたま市,クリーンセンター西堀,ｸﾘーﾝｾﾝﾀーﾆｼﾎﾞﾘ,桜区新開4丁目1-1,35.8431359,139.6183421,月～金（土、日、祝日、年末年始使用不可）,8:30,17:15,8:30,17:15,8:30,17:15,8:30,17:15,8:30,17:15,,,,,,,FALSE,TRUE,,,,,,,,,,12-29|12-30|12-31|01-01|01-02|01-03,
11007,さいたま市,環境広場,ｶﾝｷｮｳﾋﾛﾊﾞ,見沼区大谷483-1,35.9214222,139.6814617,月～金（土、日、祝日、年末年始使用不可）,8:30,17:15,8:30,17:15,8:30,17:15,8:30,17:15,8:30,17:15,,,,,,,FALSE,TRUE,,,,,,,,,,12-29|12-30|12-31|01-01|01-02|01-03,
11007,さいたま市,うらわフェニックス,ｳﾗﾜﾌｪﾆｯｸｽ,緑区間宮741-1,35.885332,139.7193243,月～金（土、日、祝日、年末年始使用不可）,8:30,17:15,8:30,17:15,8:30,17:15,8:30,17:15,8:30,17:15,,,,,,,FALSE,TRUE,,,,,,,,,,12-29|12-30|12-31|01-01|01-02|01-03,
11007,さいたま市,大宮南部浄化センター,ｵｵﾐﾔﾅﾝﾌﾞｼﾞｮｳｶｾﾝﾀー,見沼区上山口新田508-1,35.9011751,139.6487219,全日（第4土曜日、年末年始使用不可）,8:30,17:15,8:30,17:15,8:30,17:15,8:30,17:15,8:30,17:15,8:30,17:15,8:30,17:15,,,TRUE,TRUE,,,,,,,,4,,12-29|12-30|12-31|01-01|01-02|01-03,
11007,さいたま市,さいたま新都心ふれあいプラザ,ｻｲﾀﾏｼﾝﾄｼﾝﾌﾚｱｲﾌﾟﾗｻﾞ,中央区新都心10,35.8933582,139.6308969,全日（年末年始使用不可）,10:00,18:00,10:00,18:00,10:00,18:00,10:00,18:00,10:00,18:00,10:00,18:00,10:00,18:00,,,TRUE,TRUE,,,,,,,,,,12-29|12-30|12-31|01-01|01-02|01-03,
11007,さいたま市,新開自転車保管所,ｼﾝｶｲｼﾞﾃﾝｼｬﾎｶﾝｼﾞｮ,桜区新開4丁目3252-5,35.8461607,139.6180408,全日（年末年始使用不可）,9:00,17:00,9:00,17:00,9:00,17:00,9:00,17:00,9:00,17:00,9:00,17:00,9:00,17:00,,,TRUE,TRUE,,,,,,,,,,12-29|12-30|12-31|01-01|01-02|01-03,
11007,さいたま市,吉野原自転車保管所,ﾖｼﾉﾊﾗｼﾞﾃﾝｼｬﾎｶﾝｼﾞｮ,北区今羽町140-2,35.9544025,139.6202551,全日（年末年始使用不可）,9:00,17:00,9:00,17:00,9:00,17:00,9:00,17:00,9:00,17:00,9:00,17:00,9:00,17:00,,,TRUE,TRUE,,,,,,,,,,12-29|12-30|12-31|01-01|01-02|01-03,
11007,さいたま市,大戸自転車保管所,ｵｵﾄｼﾞﾃﾝｼｬﾎｶﾝｼﾞｮ,中央区大戸1丁目1129,35.8602158,139.6372517,全日（年末年始使用不可）,9:00,17:00,9:00,17:00,9:00,17:00,9:00,17:00,9:00,17:00,9:00,17:00,9:00,17:00,,,TRUE,TRUE,,,,,,,,,,12-29|12-30|12-31|01-01|01-02|01-03,
11007,さいたま市,岩槻自転車保管所,ｲﾜﾂｷｼﾞﾃﾝｼｬﾎｶﾝｼﾞｮ,岩槻区岩槻5188,35.9573596,139.6861663,全日（年末年始使用不可）,9:00,17:00,9:00,17:00,9:00,17:00,9:00,17:00,9:00,17:00,9:00,17:00,9:00,17:00,,,TRUE,TRUE,,,,,,,,,,12-29|12-30|12-31|01-01|01-02|01-03,
11007,さいたま市,桜木駐車場,ｻｸﾗｷﾞﾁｭｳｼｬｼﾞｮｳ,大宮区桜木町3丁目1-1,35.9101225,139.618952,全日（１月１日を除く）,8:00,22:00,8:00,22:00,8:00,22:00,8:00,22:00,8:00,22:00,8:00,22:00,8:00,22:00,,,TRUE,TRUE,,,,,,,,,,01-01,
11007,さいたま市,北浦和臨時駐車場,ｷﾀｳﾗﾜﾘﾝｼﾞﾁｭｳｼｬｼﾞｮｳ,浦和区北浦和5丁目4-19,35.8736889,139.6418231,全日（１月１日を除く）,8:00,21:00,8:00,21:00,8:00,21:00,8:00,21:00,8:00,21:00,8:00,21:00,8:00,21:00,,,TRUE,TRUE,,,,,,,,,,01-01,
11007,さいたま市,北与野駅北口地下駐車場,ｷﾀﾖﾉｴｷｷﾀｸﾞﾁﾁｶﾁｭｳｼｬｼﾞｮｳ,中央区上落合2丁目3-10,35.8911539,139.6278633,全日（１月１日を除く）,7:00,23:00,7:00,23:00,7:00,23:00,7:00,23:00,7:00,23:00,7:00,23:00,7:00,23:00,,,TRUE,TRUE,,,,,,,,,,01-01,
11007,さいたま市,岩槻駅東口公共駐車場,ｲﾜﾂｷｴｷﾋｶﾞｼｸﾞﾁｺｳｷｮｳﾁｭｳｼｬｼﾞｮｳ,岩槻区本町3丁目2-5,35.949945,139.6942564,全日（１月１日を除く）,7:00,23:30,7:00,23:30,7:00,23:30,7:00,23:30,7:00,23:30,7:00,23:30,7:00,23:30,,,TRUE,TRUE,,,,,,,,,,01-01,
11007,さいたま市,指扇駅南自転車駐車場,ｻｼｵｳｷﾞｴｷﾐﾅﾐｼﾞﾃﾝｼｬﾁｭｳｼｬｼﾞｮｳ,西区宝来1649-4,35.9165772,139.5644415,全日,0:00,24:00,0:00,24:00,0:00,24:00,0:00,24:00,0:00,24:00,0:00,24:00,0:00,24:00,,,TRUE,TRUE,,,,,,,,,,,
11007,さいたま市,日進駅南口自転車駐車場,ﾆｯｼﾝｴｷﾐﾅﾐｸﾞﾁｼﾞﾃﾝｼｬﾁｭｳｼｬｼﾞｮｳ,北区日進町2丁目1125-22,35.9315397,139.6066588,全日,4:25,01:10,4:25,01:10,4:25,01:10,4:25,01:10,4:25,01:10,4:25,01:10,4:25,01:10,,,TRUE,TRUE,,,,,,,,,,,
11007,さいたま市,宮原駅東口自転車駐車場,ﾐﾔﾊﾗｴｷﾋｶﾞｼｸﾞﾁｼﾞﾃﾝｼｬﾁｭｳｼｬｼﾞｮｳ,北区宮原町3丁目824-2,35.9405982,139.6097396,全日,5:15,00:40,5:15,00:40,5:15,00:40,5:15,00:40,5:15,00:40,5:15,00:40,5:15,00:40,,,TRUE,TRUE,,,,,,,,,,,
11007,さいたま市,宮原駅西口自転車駐車場,ﾐﾔﾊﾗｴｷﾆｼｸﾞﾁｼﾞﾃﾝｼｬﾁｭｳｼｬｼﾞｮｳ,北区日進町3丁目729,35.9399188,139.6062018,全日,5:15,00:40,5:15,00:40,5:15,00:40,5:15,00:40,5:15,00:40,5:15,00:40,5:15,00:40,,,TRUE,TRUE,,,,,,,,,,,
11007,さいたま市,土呂駅西口自転車駐車場,ﾄﾛｴｷﾆｼｸﾞﾁｼﾞﾃﾝｼｬﾁｭｳｼｬｼﾞｮｳ,北区土呂町1丁目6-5,35.9304205,139.6310046,全日,5:10,00:40,5:10,00:40,5:10,00:40,5:10,00:40,5:10,00:40,5:10,00:40,5:10,00:40,,,TRUE,TRUE,,,,,,,,,,,
11007,さいたま市,大栄橋錦町自転車駐車場,ﾀｲｴｲﾊﾞｼﾆｼｷﾁｮｳｼﾞﾃﾝｼｬﾁｭｳｼｬｼﾞｮｳ,大宮区錦町682-1,35.9080734,139.6219323,全日,4:00,01:45,4:00,01:45,4:00,01:45,4:00,01:45,4:00,01:45,4:00,01:45,4:00,01:45,,,TRUE,TRUE,,,,,,,,,,,
11007,さいたま市,大宮駅東口大門町自転車駐車場,ｵｵﾐﾔｴｷﾋｶﾞｼｸﾞﾁｵｵｶﾄﾞﾏﾁｼﾞﾃﾝｼｬﾁｭｳｼｬｼﾞｮｳ,大宮区大門町3-2,35.9066694,139.6289982,全日,4:00,01:45,4:00,01:45,4:00,01:45,4:00,01:45,4:00,01:45,4:00,01:45,4:00,01:45,,,TRUE,TRUE,,,,,,,,,,,
11007,さいたま市,大宮駅東口錦町自転車駐車場,ｵｵﾐﾔｴｷﾋｶﾞｼｸﾞﾁﾆｼｷﾁｮｳｼﾞﾃﾝｼｬﾁｭｳｼｬｼﾞｮｳ,大宮区錦町478-6,35.9058896,139.6250371,全日,0:00,24:00,0:00,24:00,0:00,24:00,0:00,24:00,0:00,24:00,0:00,24:00,0:00,24:00,,,TRUE,TRUE,,,,,,,,,,,
11007,さいたま市,大宮駅西口桜木町自転車駐車場,ｵｵﾐﾔｴｷﾆｼｸﾞﾁｻｸﾗｷﾞﾏﾁｼﾞﾃﾝｼｬﾁｭｳｼｬｼﾞｮｳ,大宮区桜木町1丁目7-1,35.9058033,139.6206286,全日,4:00,01:45,4:00,01:45,4:00,01:45,4:00,01:45,4:00,01:45,4:00,01:45,4:00,01:45,,,TRUE,TRUE,,,,,,,,,,,
11007,さいたま市,大宮駅西口自転車駐車場,ｵｵﾐﾔｴｷﾆｼｸﾞﾁｼﾞﾃﾝｼｬﾁｭｳｼｬｼﾞｮｳ,大宮区桜木町1丁目188-1,35.9036899,139.6222291,全日,0:00,24:00,0:00,24:00,0:00,24:00,0:00,24:00,0:00,24:00,0:00,24:00,0:00,24:00,,,TRUE,TRUE,,,,,,,,,,,
11007,さいたま市,北大宮駅自転車駐車場,ｷﾀｵｵﾐﾔｴｷｼﾞﾃﾝｼｬﾁｭｳｼｬｼﾞｮｳ,大宮区土手町3丁目162-4,35.9162153,139.6252208,全日,0:00,24:00,0:00,24:00,0:00,24:00,0:00,24:00,0:00,24:00,0:00,24:00,0:00,24:00,,,TRUE,TRUE,,,,,,,,,,,
11007,さいたま市,シーノ大宮自転車駐車場,ｼーﾉｵｵﾐﾔｼﾞﾃﾝｼｬﾁｭｳｼｬｼﾞｮｳ,大宮区桜木町1丁目10-19,35.9057166,139.6186099,全日,4:00,01:45,4:00,01:45,4:00,01:45,4:00,01:45,4:00,01:45,4:00,01:45,4:00,01:45,,,TRUE,TRUE,,,,,,,,,,,
11007,さいたま市,さいたま新都心駅東口自転車等駐車場,ｻｲﾀﾏｼﾝﾄｼﾝｴｷﾋｶﾞｼｸﾞﾁｼﾞﾃﾝｼｬﾅﾄﾞﾁｭｳｼｬｼﾞｮｳ,大宮区吉敷町4丁目269-1,35.8941406,139.6370383,全日,4:00,01:45,4:00,01:45,4:00,01:45,4:00,01:45,4:00,01:45,4:00,01:45,4:00,01:45,,,TRUE,TRUE,,,,,,,,,,,
11007,さいたま市,南与野第1自転車駐車場,ﾐﾅﾐﾖﾉﾀﾞｲ1ｼﾞﾃﾝｼｬﾁｭｳｼｬｼﾞｮｳ,中央区鈴谷2丁目1221,35.8691081,139.6303323,全日,0:00,24:00,0:00,24:00,0:00,24:00,0:00,24:00,0:00,24:00,0:00,24:00,0:00,24:00,,,TRUE,TRUE,,,,,,,,,,,
11007,さいたま市,南与野第2自転車駐車場,ﾐﾅﾐﾖﾉﾀﾞｲ2ｼﾞﾃﾝｼｬﾁｭｳｼｬｼﾞｮｳ,中央区鈴谷1丁目513,35.8664234,139.6313304,全日,0:00,24:00,0:00,24:00,0:00,24:00,0:00,24:00,0:00,24:00,0:00,24:00,0:00,24:00,,,TRUE,TRUE,,,,,,,,,,,
11007,さいたま市,与野本町第1自転車駐車場,ﾖﾉﾎﾝﾏﾁﾀﾞｲ1ｼﾞﾃﾝｼｬﾁｭｳｼｬｼﾞｮｳ,中央区本町東2丁目128,35.8826825,139.6253612,全日,0:00,24:00,0:00,24:00,0:00,24:00,0:00,24:00,0:00,24:00,0:00,24:00,0:00,24:00,,,TRUE,TRUE,,,,,,,,,,,
11007,さいたま市,与野本町第2自転車駐車場,ﾖﾉﾎﾝﾏﾁﾀﾞｲ2ｼﾞﾃﾝｼｬﾁｭｳｼｬｼﾞｮｳ,中央区本町東1丁目99,35.8799554,139.6264799,全日,0:00,24:00,0:00,24:00,0:00,24:00,0:00,24:00,0:00,24:00,0:00,24:00,0:00,24:00,,,TRUE,TRUE,,,,,,,,,,,
11007,さいたま市,与野駅西口臨時自転車駐車場,ﾖﾉｴｷﾆｼｸﾞﾁﾘﾝｼﾞｼﾞﾃﾝｼｬﾁｭｳｼｬｼﾞｮｳ,中央区下落合1055-6,35.883505,139.6374061,全日,0:00,24:00,0:00,24:00,0:00,24:00,0:00,24:00,0:00,24:00,0:00,24:00,0:00,24:00,,,TRUE,TRUE,,,,,,,,,,,
11007,さいたま市,けやきひろば自転車駐車場,ｹﾔｷﾋﾛﾊﾞｼﾞﾃﾝｼｬﾁｭｳｼｬｼﾞｮｳ,中央区新都心10,35.8933582,139.6308969,全日,4:00,01:45,4:00,01:45,4:00,01:45,4:00,01:45,4:00,01:45,4:00,01:45,4:00,01:45,,,TRUE,TRUE,,,,,,,,,,,
11007,さいたま市,高砂第1自転車駐車場,ﾀｶｻｺﾞﾀﾞｲ1ｼﾞﾃﾝｼｬﾁｭｳｼｬｼﾞｮｳ,浦和区高砂1丁目47-3,35.8560571,139.6587187,全日,0:00,24:00,0:00,24:00,0:00,24:00,0:00,24:00,0:00,24:00,0:00,24:00,0:00,24:00,,,TRUE,TRUE,,,,,,,,,,,
11007,さいたま市,高砂第2自転車駐車場,ﾀｶｻｺﾞﾀﾞｲ2ｼﾞﾃﾝｼｬﾁｭｳｼｬｼﾞｮｳ,浦和区高砂1丁目197,35.8572073,139.6582044,全日,0:00,24:00,0:00,24:00,0:00,24:00,0:00,24:00,0:00,24:00,0:00,24:00,0:00,24:00,,,TRUE,TRUE,,,,,,,,,,,
11007,さいたま市,北浦和自転車駐車場,ｷﾀｳﾗﾜｼﾞﾃﾝｼｬﾁｭｳｼｬｼﾞｮｳ,浦和区北浦和5丁目2-1,35.8740845,139.643425,全日,0:00,24:00,0:00,24:00,0:00,24:00,0:00,24:00,0:00,24:00,0:00,24:00,0:00,24:00,,,TRUE,TRUE,,,,,,,,,,,
11007,さいたま市,武蔵浦和駅南自転車駐車場,ﾑｻｼｳﾗﾜｴｷﾐﾅﾐｼﾞﾃﾝｼｬﾁｭｳｼｬｼﾞｮｳ,南区沼影1丁目105-1,35.8441424,139.6472817,全日,4:30,01:30,4:30,01:30,4:30,01:30,4:30,01:30,4:30,01:30,4:30,01:30,4:30,01:30,,,TRUE,TRUE,,,,,,,,,,,
11007,さいたま市,武蔵浦和駅東口地下自転車駐車場,ﾑｻｼｳﾗﾜｴｷﾋｶﾞｼｸﾞﾁﾁｶｼﾞﾃﾝｼｬﾁｭｳｼｬｼﾞｮｳ,南区別所7丁目1535,35.8458835,139.6478035,全日,4:30,01:30,4:30,01:30,4:30,01:30,4:30,01:30,4:30,01:30,4:30,01:30,4:30,01:30,,,TRUE,TRUE,,,,,,,,,,,
11007,さいたま市,武蔵浦和駅西自転車等駐車場,ﾑｻｼｳﾗﾜｴｷﾆｼｼﾞﾃﾝｼｬﾅﾄﾞﾁｭｳｼｬｼﾞｮｳ,南区別所7丁目21-1,35.845868,139.645389,全日,4:30,01:30,4:30,01:30,4:30,01:30,4:30,01:30,4:30,01:30,4:30,01:30,4:30,01:30,,,TRUE,TRUE,,,,,,,,,,,
11007,さいたま市,東大宮駅東口自転車駐車場,ﾋｶﾞｼｵｵﾐﾔｴｷﾋｶﾞｼｸﾞﾁｼﾞﾃﾝｼｬﾁｭｳｼｬｼﾞｮｳ,見沼区東大宮5丁目61,35.9485244,139.6404731,全日,5:10,00:40,5:10,00:40,5:10,00:40,5:10,00:40,5:10,00:40,5:10,00:40,5:10,00:40,,,TRUE,TRUE,,,,,,,,,,,
11007,さいたま市,大和田駅南自転車駐車場,ｵｵﾜﾀﾞｴｷﾐﾅﾐｼﾞﾃﾝｼｬﾁｭｳｼｬｼﾞｮｳ,見沼区大和田町1-1387-1,35.927538,139.6503852,全日,4:40,00:50,4:40,00:50,4:40,00:50,4:40,00:50,4:40,00:50,4:40,00:50,4:40,00:50,,,TRUE,TRUE,,,,,,,,,,,
11007,さいたま市,武蔵浦和駅東駐車場,ﾑｻｼｳﾗﾜｴｷﾋｶﾞｼﾁｭｳｼｬｼﾞｮｳ,南区別所7丁目2-1,35.8472103,139.6493475,全日（１月１日を除く）,7:00,24:00,7:00,24:00,7:00,24:00,7:00,24:00,7:00,24:00,7:00,24:00,7:00,24:00,,,TRUE,TRUE,,,,,,,,,,01-01,
11007,さいたま市,浦和駅東口駐車場,ｳﾗﾜｴｷﾋｶﾞｼｸﾞﾁﾁｭｳｼｬｼﾞｮｳ,浦和区東高砂町11-1,35.8586737,139.6591511,全日,7:00,01:00,7:00,01:00,7:00,01:00,7:00,01:00,7:00,01:00,7:00,01:00,7:00,01:00,,,TRUE,TRUE,,,,,,,,,,,
11007,さいたま市,浦和駅東口駐車場,ｳﾗﾜｴｷﾋｶﾞｼｸﾞﾁﾁｭｳｼｬｼﾞｮｳ,浦和区東高砂町11－1,35.8586737,139.6591511,全日,7:00,01:00,7:00,01:00,7:00,01:00,7:00,01:00,7:00,01:00,7:00,01:00,7:00,01:00,,,TRUE,TRUE,,,,,,,,,,,
11007,さいたま市,八王子スポーツ施設,ﾊﾁｵｳｼﾞｽﾎﾟーﾂｼｾﾂ,中央区八王子4丁目1-10,35.8793693,139.609384,全日（年末年始使用不可）,8:30,21:00,8:30,21:00,8:30,21:00,8:30,21:00,8:30,21:00,8:30,21:00,8:30,21:00,,,TRUE,TRUE,,,,,,,,,,12-29|12-30|12-31|01-01|01-02|01-03,
11007,さいたま市,大原サッカー場,ｵｵﾊﾗｻｯｶーｼﾞｮｳ,浦和区大原3丁目4-102,35.8948365,139.6467506,練習実施日,カフェ開場時,カフェ開場時,カフェ開場時,カフェ開場時,カフェ開場時,カフェ開場時,カフェ開場時,カフェ開場時,カフェ開場時,カフェ開場時,カフェ開場時,カフェ開場時,カフェ開場時,カフェ開場時,,,TRUE,TRUE,,,,,,,,,,,練習実施日のみ使用可
11007,さいたま市,浦和駒場体育館,ｳﾗﾜｺﾏﾊﾞﾀｲｲｸｶﾝ,浦和区駒場2丁目5-6,35.8722568,139.6616636,全日（年末年始使用不可）,9:00,21:00,9:00,21:00,9:00,21:00,9:00,21:00,9:00,21:00,9:00,21:00,9:00,21:00,,,TRUE,TRUE,,,,,,,,,,12-29|12-30|12-31|01-01|01-02|01-03,
11007,さいたま市,記念総合体育館,ｷﾈﾝｿｳｺﾞｳﾀｲｲｸｶﾝ,桜区道場4丁目3-1,35.8556337,139.6088379,全日（年末年始使用不可）,9:00,21:00,9:00,21:00,9:00,21:00,9:00,21:00,9:00,21:00,9:00,21:00,9:00,21:00,,,TRUE,TRUE,,,,,,,,,,12-29|12-30|12-31|01-01|01-02|01-03,
11007,さいたま市,大宮体育館,ｵｵﾐﾔﾀｲｲｸｶﾝ,見沼区大和田町1丁目305,35.9229167,139.6447369,全日（年末年始使用不可）,9:00,21:00,9:00,21:00,9:00,21:00,9:00,21:00,9:00,21:00,9:00,21:00,9:00,21:00,,,TRUE,TRUE,,,,,,,,,,12-29|12-30|12-31|01-01|01-02|01-03,
11007,さいたま市,与野体育館,ﾖﾉﾀｲｲｸｶﾝ,中央区下落合5丁目8-10,35.8843701,139.6258538,全日（年末年始使用不可）,9:00,21:00,9:00,21:00,9:00,21:00,9:00,21:00,9:00,21:00,9:00,21:00,9:00,21:00,,,TRUE,TRUE,,,,,,,,,,12-29|12-30|12-31|01-01|01-02|01-03,
11007,さいたま市,浦和西体育館,ｳﾗﾜﾆｼﾀｲｲｸｶﾝ,桜区下大久保1676-1,35.8587404,139.6015326,全日（年末年始使用不可）,9:00,21:00,9:00,21:00,9:00,21:00,9:00,21:00,9:00,21:00,9:00,21:00,9:00,21:00,,,TRUE,TRUE,,,,,,,,,,12-29|12-30|12-31|01-01|01-02|01-03,
11007,さいたま市,大宮武道館,ｵｵﾐﾔﾌﾞﾄﾞｳｶﾝ,見沼区堀崎町12-36,35.9352311,139.654387,全日（年末年始使用不可）,9:00,21:00,9:00,21:00,9:00,21:00,9:00,21:00,9:00,21:00,9:00,21:00,9:00,21:00,,,TRUE,TRUE,,,,,,,,,,12-29|12-30|12-31|01-01|01-02|01-03,
11007,さいたま市,三橋総合公園,ﾐﾊｼｿｳｺﾞｳｺｳｴﾝ,西区三橋5丁目190,35.9127997,139.5950322,全日（年末年始使用不可）,9:00,21:00,9:00,21:00,9:00,21:00,9:00,21:00,9:00,21:00,9:00,21:00,9:00,21:00,,,TRUE,TRUE,,,,,,,,,,12-29|12-30|12-31|01-01|01-02|01-03,
11007,さいたま市,西遊馬公園,ﾆｼｱｽﾏｺｳｴﾝ,西区西遊馬899-3,35.9096103,139.5632911,全日（年末年始使用不可）,9:00,17:00,9:00,17:00,9:00,17:00,9:00,17:00,9:00,17:00,9:00,17:00,9:00,17:00,,,TRUE,TRUE,,,,,,,,,,12-29|12-30|12-31|01-01|01-02|01-03,
11007,さいたま市,秋葉の森総合公園,ｱｷﾊﾞﾉﾓﾘｿｳｺﾞｳｺｳｴﾝ,西区中釘1241,35.9344262,139.5661305,全日（年末年始使用不可）,9:00,17:00,9:00,17:00,9:00,17:00,9:00,17:00,9:00,17:00,9:00,17:00,9:00,17:00,,,TRUE,TRUE,,,,,,,,,,12-29|12-30|12-31|01-01|01-02|01-03,
11007,さいたま市,三橋プール,ﾐﾊｼﾌﾟーﾙ,西区三橋6丁目1709-3,35.9219161,139.5852234,夏季プール開催期間,9:00,17:00,9:00,17:00,9:00,17:00,9:00,17:00,9:00,17:00,9:00,17:00,9:00,17:00,,,TRUE,TRUE,,,,,,,,,,,夏季プール開催期間のみ使用可
11007,さいたま市,三橋総合公園プール,ﾐﾊｼｿｳｺﾞｳｺｳｴﾝﾌﾟーﾙ,西区三橋5丁目190,35.9127997,139.5950322,全日（毎月第三月曜日・年末年始使用不可）,10:00,21:00,10:00,21:00,10:00,21:00,10:00,21:00,10:00,21:00,10:00,21:00,10:00,21:00,,,TRUE,TRUE,,,3,,,,,,,12-29|12-30|12-31|01-01|01-02|01-03,
11007,さいたま市,大和田公園（市営大宮球場・プール）,ｵｵﾜﾀﾞｺｳｴﾝ（ｼｴｲｵｵﾐﾔｷｭｳｼﾞｮｳ・ﾌﾟーﾙ）,大宮区寿能町2丁目519,35.9222845,139.6396363,全日（年末年始使用不可）,9:00,21:00,9:00,21:00,9:00,21:00,9:00,21:00,9:00,21:00,9:00,21:00,9:00,21:00,,,TRUE,TRUE,,,,,,,,,,12-29|12-30|12-31|01-01|01-02|01-03,
11007,さいたま市,天沼テニス公園,ｱﾏﾇﾏﾃﾆｽｺｳｴﾝ,大宮区天沼町1丁目676-1,35.9102003,139.6454923,全日（年末年始使用不可）,9:00,21:00,9:00,21:00,9:00,21:00,9:00,21:00,9:00,21:00,9:00,21:00,9:00,21:00,,,TRUE,TRUE,,,,,,,,,,12-29|12-30|12-31|01-01|01-02|01-03,
11007,さいたま市,NACK5スタジアム大宮,NACK5ｽﾀｼﾞｱﾑｵｵﾐﾔ,大宮区高鼻町4丁目,35.9168199,139.6297157,全日（年末年始使用不可）,9:00,17:00,9:00,17:00,9:00,17:00,9:00,17:00,9:00,17:00,9:00,17:00,9:00,17:00,,,TRUE,TRUE,,,,,,,,,,12-29|12-30|12-31|01-01|01-02|01-03,
11007,さいたま市,大和田公園プール,ｵｵﾜﾀﾞｺｳｴﾝﾌﾟーﾙ,大宮区寿能町2丁目519,35.9222845,139.6396363,夏季プール開催期間,9:00,17:00,9:00,17:00,9:00,17:00,9:00,17:00,9:00,17:00,9:00,17:00,9:00,17:00,,,TRUE,TRUE,,,,,,,,,,,夏季プール開催期間のみ使用可
11007,さいたま市,堀崎公園,ﾎﾘｻｷｺｳｴﾝ,見沼区堀崎町12-1,35.9367631,139.6533226,全日（年末年始使用不可）,9:00,21:00,9:00,21:00,9:00,21:00,9:00,21:00,9:00,21:00,9:00,21:00,9:00,21:00,,,TRUE,TRUE,,,,,,,,,,12-29|12-30|12-31|01-01|01-02|01-03,
11007,さいたま市,荒川総合運動公園,ｱﾗｶﾜｿｳｺﾞｳｳﾝﾄﾞｳｺｳｴﾝ,桜区在家591,35.8779271,139.5845783,全日（年末年始使用不可）,8:30,17:00,8:30,17:00,8:30,17:00,8:30,17:00,8:30,17:00,8:30,17:00,8:30,17:00,,,TRUE,TRUE,,,,,,,,,,12-29|12-30|12-31|01-01|01-02|01-03,
11007,さいたま市,浦和総合運動場,ｳﾗﾜｿｳｺﾞｳｳﾝﾄﾞｳｼﾞｮｳ,浦和区元町1丁目29-10,35.8700155,139.65857,全日（年末年始使用不可）,8:30,17:00,8:30,17:00,8:30,17:00,8:30,17:00,8:30,17:00,8:30,17:00,8:30,17:00,,,TRUE,TRUE,,,,,,,,,,12-29|12-30|12-31|01-01|01-02|01-03,
11007,さいたま市,駒場運動公園（スタジアム）,ｺﾏﾊﾞｳﾝﾄﾞｳｺｳｴﾝ（ｽﾀｼﾞｱﾑ）,浦和区駒場2丁目1-1,35.8718267,139.6652901,全日（年末年始使用不可）,8:30,17:00,8:30,17:00,8:30,17:00,8:30,17:00,8:30,17:00,8:30,17:00,8:30,17:00,,,TRUE,TRUE,,,,,,,,,,12-29|12-30|12-31|01-01|01-02|01-03,
11007,さいたま市,別所沼公園,ﾍﾞｯｼｮﾇﾏｺｳｴﾝ,南区別所4丁目12-10,35.8552739,139.6403008,月～金（土、日、祝日、年末年始使用不可）,8:30,17:15,8:30,17:15,8:30,17:15,8:30,17:15,8:30,17:15,,,,,,,FALSE,TRUE,,,,,,,,,,12-29|12-30|12-31|01-01|01-02|01-03,
11007,さいたま市,さぎ山記念公園,ｻｷﾞﾔﾏｷﾈﾝｺｳｴﾝ,緑区南部領辻359-1,35.9064793,139.7005202,全日（年末年始使用不可）,8:30,17:15,8:30,17:15,8:30,17:15,8:30,17:15,8:30,17:15,8:30,17:15,8:30,17:15,,,TRUE,TRUE,,,,,,,,,,12-29|12-30|12-31|01-01|01-02|01-03,
11007,さいたま市,下落合プール,ｼﾓｵﾁｱｲﾌﾟーﾙ,中央区下落合5丁目11-10,35.8849495,139.6271466,全日（年末年始使用不可）,8:30,17:00,8:30,17:00,8:30,17:00,8:30,17:00,8:30,17:00,8:30,17:00,8:30,17:00,,,TRUE,TRUE,,,,,,,,,,12-29|12-30|12-31|01-01|01-02|01-03,
11007,さいたま市,与野中央公園,ﾖﾉﾁｭｳｵｳｺｳｴﾝ,中央区新中里4丁目7-2,35.877053,139.6319315,全日（年末年始使用不可）,9:00,17:00,9:00,17:00,9:00,17:00,9:00,17:00,9:00,17:00,9:00,17:00,9:00,17:00,,,TRUE,TRUE,,,,,,,,,,12-29|12-30|12-31|01-01|01-02|01-03,
11007,さいたま市,沼影公園,ﾇﾏｶｹﾞｺｳｴﾝ,南区沼影2丁目7-35,35.83981,139.6452528,火～日（月、祝日の翌日（夏季、スケート公開期間除く）、12月31日、1月1日使用不可）,,,9:00,21:00,9:00,21:00,9:00,21:00,9:00,21:00,9:00,21:00,9:00,17:00,9:00,17:00,TRUE,FALSE,,,,,,,,,,12-31|01-01,月、祝日の翌日（夏季、スケート公開期間除く）、12月31日、1月1日使用不可
11007,さいたま市,三浦運動公園（サッカー場）,ﾐｳﾗｳﾝﾄﾞｳｺｳｴﾝ（ｻｯｶーｼﾞｮｳ）,緑区三浦6836,35.897711,139.6644323,全日（年末年始使用不可）,9:00,17:00,9:00,17:00,9:00,17:00,9:00,17:00,9:00,17:00,9:00,17:00,9:00,17:00,,,TRUE,TRUE,,,,,,,,,,12-29|12-30|12-31|01-01|01-02|01-03,
11007,さいたま市,駒場運動公園（原山プール）,ｺﾏﾊﾞｳﾝﾄﾞｳｺｳｴﾝ（ﾊﾗﾔﾏﾌﾟーﾙ）,緑区原山2丁目33-7,35.8720656,139.6683471,夏季プール開催期間,9:00,17:00,9:00,17:00,9:00,17:00,9:00,17:00,9:00,17:00,9:00,17:00,9:00,17:00,,,TRUE,TRUE,,,,,,,,,,,夏季プール開催期間のみ使用可
11007,さいたま市,大崎公園,ｵｵｻｷｺｳｴﾝ,緑区大崎3156-1,35.8840485,139.7130543,全日（年末年始使用不可）,8:30,17:00,8:30,17:00,8:30,17:00,8:30,17:00,8:30,17:00,8:30,17:00,8:30,17:00,,,TRUE,TRUE,,,,,,,,,,12-29|12-30|12-31|01-01|01-02|01-03,
11007,さいたま市,大崎公園,ｵｵｻｷｺｳｴﾝ,緑区大崎3156-1,35.8840485,139.7130543,火～日（月、月が祝日の場合はその翌日、年末年始使用不可）,,,10:00,16:00,10:00,16:00,10:00,16:00,10:00,16:00,10:00,16:00,10:00,16:00,,,TRUE,FALSE,,,,,,,,,,12-29|12-30|12-31|01-01|01-02|01-03,
11007,さいたま市,岩槻温水プール,ｲﾜﾂｷｵﾝｽｲﾌﾟーﾙ,岩槻区本丸3丁目17-2,35.9540212,139.7048331,ほぼ全日（毎月第4月曜日、年末年始使用不可）,9:00,21:00,9:00,21:00,9:00,21:00,9:00,21:00,9:00,21:00,9:00,21:00,9:00,21:00,,,TRUE,TRUE,,,4,,,,,,,12-29|12-30|12-31|01-01|01-02|01-03,
11007,さいたま市,岩槻文化公園,ｲﾜﾂｷﾌﾞﾝｶｺｳｴﾝ,岩槻区村国229,35.9444977,139.7218203,全日（年末年始使用不可）,9:00,21:00,9:00,21:00,9:00,21:00,9:00,21:00,9:00,21:00,9:00,21:00,9:00,21:00,,,TRUE,TRUE,,,,,,,,,,12-29|12-30|12-31|01-01|01-02|01-03,
11007,さいたま市,川通公園,ｶﾜﾄﾞｵﾘｺｳｴﾝ,岩槻区長宮825-5,35.9515545,139.7283192,全日（年末年始使用不可）,9:00,17:00,9:00,17:00,9:00,17:00,9:00,17:00,9:00,17:00,9:00,17:00,9:00,17:00,,,TRUE,TRUE,,,,,,,,,,12-29|12-30|12-31|01-01|01-02|01-03,4月～11月は21:00まで利用可
11007,さいたま市,さいたま市立病院,ｻｲﾀﾏｼﾘﾂﾋﾞｮｳｲﾝ,緑区三室2460,35.8910613,139.6782423,全日,0:00,24:00,0:00,24:00,0:00,24:00,0:00,24:00,0:00,24:00,0:00,24:00,0:00,24:00,,,TRUE,TRUE,,,,,,,,,,,
11007,さいたま市,救急課,ｷｭｳｷｭｳｶ,浦和区常盤6丁目1-28,35.8619625,139.6462492,-,不明,不明,不明,不明,不明,不明,不明,不明,不明,不明,不明,不明,不明,不明,,,TRUE,TRUE,,,,,,,,,,,利用可能日時不明
11007,さいたま市,さいたま市消防局3階講堂,ｻｲﾀﾏｼｼｮｳﾎﾞｳｷｮｸ3ｶｲｺｳﾄﾞｳ,浦和区常盤6丁目1-28,35.8619625,139.6462492,-,不明,不明,不明,不明,不明,不明,不明,不明,不明,不明,不明,不明,不明,不明,,,TRUE,TRUE,,,,,,,,,,,利用可能日時不明
11007,さいたま市,さいたま市防災センター,ｻｲﾀﾏｼﾎﾞｳｻｲｾﾝﾀー,大宮区天沼町1丁目893,35.907336,139.64753,-,不明,不明,不明,不明,不明,不明,不明,不明,不明,不明,不明,不明,不明,不明,,,TRUE,TRUE,,,,,,,,,,,利用可能日時不明
11007,さいたま市,西消防署,ﾆｼｼｮｳﾎﾞｳｼｮ,西区清河寺447-1,35.929469,139.5806759,全日,0:00,24:00,0:00,24:00,0:00,24:00,0:00,24:00,0:00,24:00,0:00,24:00,0:00,24:00,,,TRUE,TRUE,,,,,,,,,,,
11007,さいたま市,西消防署西遊馬出張所,ﾆｼｼｮｳﾎﾞｳｼｮﾆｼｱｽﾏｼｭｯﾁｮｳｼﾞｮ,西区西遊馬307-1,35.9035552,139.5755878,全日,0:00,24:00,0:00,24:00,0:00,24:00,0:00,24:00,0:00,24:00,0:00,24:00,0:00,24:00,,,TRUE,TRUE,,,,,,,,,,,
11007,さいたま市,北消防署,ｷﾀｼｮｳﾎﾞｳｼｮ,北区宮原町4丁目66-14,35.9473675,139.610897,全日,0:00,24:00,0:00,24:00,0:00,24:00,0:00,24:00,0:00,24:00,0:00,24:00,0:00,24:00,,,TRUE,TRUE,,,,,,,,,,,
11007,さいたま市,北消防署植竹出張所,ｷﾀｼｮｳﾎﾞｳｼｮｳｴﾀｹｼｭｯﾁｮｳｼﾞｮ,北区植竹町1丁目820-1,35.9298577,139.6200127,全日,0:00,24:00,0:00,24:00,0:00,24:00,0:00,24:00,0:00,24:00,0:00,24:00,0:00,24:00,,,TRUE,TRUE,,,,,,,,,,,
11007,さいたま市,大宮消防署,ｵｵﾐﾔｼｮｳﾎﾞｳｼｮ,大宮区天沼町1丁目893,35.907336,139.64753,全日,0:00,24:00,0:00,24:00,0:00,24:00,0:00,24:00,0:00,24:00,0:00,24:00,0:00,24:00,,,TRUE,TRUE,,,,,,,,,,,
11007,さいたま市,大宮消防署大成出張所,ｵｵﾐﾔｼｮｳﾎﾞｳｼｮｵｵﾅﾘｼｭｯﾁｮｳｼﾞｮ,大宮区大成町1丁目226,35.9099035,139.6153688,全日,0:00,24:00,0:00,24:00,0:00,24:00,0:00,24:00,0:00,24:00,0:00,24:00,0:00,24:00,,,TRUE,TRUE,,,,,,,,,,,
11007,さいたま市,大宮消防署氷川参道出張所,ｵｵﾐﾔｼｮｳﾎﾞｳｼｮﾋｶﾜｻﾝﾄﾞｳｼｭｯﾁｮｳｼﾞｮ,大宮区吉敷町1丁目136-1,35.9013913,139.6310755,全日,0:00,24:00,0:00,24:00,0:00,24:00,0:00,24:00,0:00,24:00,0:00,24:00,0:00,24:00,,,TRUE,TRUE,,,,,,,,,,,
11007,さいたま市,見沼消防署,ﾐﾇﾏｼｮｳﾎﾞｳｼｮ,見沼区春野2丁目6-1,35.9560277,139.6613296,全日,0:00,24:00,0:00,24:00,0:00,24:00,0:00,24:00,0:00,24:00,0:00,24:00,0:00,24:00,,,TRUE,TRUE,,,,,,,,,,,
11007,さいたま市,見沼消防署東大宮出張所,ﾐﾇﾏｼｮｳﾎﾞｳｼｮﾋｶﾞｼｵｵﾐﾔｼｭｯﾁｮｳｼﾞｮ,見沼区東大宮4丁目31-1,35.9493778,139.6373307,全日,0:00,24:00,0:00,24:00,0:00,24:00,0:00,24:00,0:00,24:00,0:00,24:00,0:00,24:00,,,TRUE,TRUE,,,,,,,,,,,
11007,さいたま市,見沼消防署蓮沼出張所,ﾐﾇﾏｼｮｳﾎﾞｳｼｮﾊｽﾇﾏｼｭｯﾁｮｳｼﾞｮ,見沼区蓮沼267,35.9251043,139.6580829,全日,0:00,24:00,0:00,24:00,0:00,24:00,0:00,24:00,0:00,24:00,0:00,24:00,0:00,24:00,,,TRUE,TRUE,,,,,,,,,,,
11007,さいたま市,中央消防署,ﾁｭｳｵｳｼｮｳﾎﾞｳｼｮ,中央区下落合5丁目7-18,35.8833052,139.6262866,全日,0:00,24:00,0:00,24:00,0:00,24:00,0:00,24:00,0:00,24:00,0:00,24:00,0:00,24:00,,,TRUE,TRUE,,,,,,,,,,,
11007,さいたま市,桜消防署,ｻｸﾗｼｮｳﾎﾞｳｼｮ,桜区田島4丁目23-7,35.8503566,139.6289766,全日,0:00,24:00,0:00,24:00,0:00,24:00,0:00,24:00,0:00,24:00,0:00,24:00,0:00,24:00,,,TRUE,TRUE,,,,,,,,,,,
11007,さいたま市,桜消防署西浦和出張所,ｻｸﾗｼｮｳﾎﾞｳｼｮﾆｼｳﾗﾜｼｭｯﾁｮｳｼﾞｮ,桜区田島7丁目17-10,35.8388799,139.6267345,全日,0:00,24:00,0:00,24:00,0:00,24:00,0:00,24:00,0:00,24:00,0:00,24:00,0:00,24:00,,,TRUE,TRUE,,,,,,,,,,,
11007,さいたま市,桜消防署大久保出張所,ｻｸﾗｼｮｳﾎﾞｳｼｮｵｵｸﾎﾞｼｭｯﾁｮｳｼﾞｮ,桜区五関762-2,35.8674955,139.5969555,全日,0:00,24:00,0:00,24:00,0:00,24:00,0:00,24:00,0:00,24:00,0:00,24:00,0:00,24:00,,,TRUE,TRUE,,,,,,,,,,,
11007,さいたま市,浦和消防署,ｳﾗﾜｼｮｳﾎﾞｳｼｮ,浦和区常盤6丁目1-28,35.8619625,139.6462492,全日,0:00,24:00,0:00,24:00,0:00,24:00,0:00,24:00,0:00,24:00,0:00,24:00,0:00,24:00,,,TRUE,TRUE,,,,,,,,,,,
11007,さいたま市,浦和消防署日の出出張所,ｳﾗﾜｼｮｳﾎﾞｳｼｮﾋﾉﾃﾞｼｭｯﾁｮｳｼﾞｮ,浦和区東岸町8丁目10,35.8542267,139.6622559,全日,0:00,24:00,0:00,24:00,0:00,24:00,0:00,24:00,0:00,24:00,0:00,24:00,0:00,24:00,,,TRUE,TRUE,,,,,,,,,,,
11007,さいたま市,浦和消防署木崎出張所,ｳﾗﾜｼｮｳﾎﾞｳｼｮｷｻﾞｷｼｭｯﾁｮｳｼﾞｮ,浦和区領家4丁目21-20,35.8822039,139.6539922,全日,0:00,24:00,0:00,24:00,0:00,24:00,0:00,24:00,0:00,24:00,0:00,24:00,0:00,24:00,,,TRUE,TRUE,,,,,,,,,,,
11007,さいたま市,南消防署,ﾐﾅﾐｼｮｳﾎﾞｳｼｮ,南区根岸3丁目10-7,35.8397853,139.6623588,全日,0:00,24:00,0:00,24:00,0:00,24:00,0:00,24:00,0:00,24:00,0:00,24:00,0:00,24:00,,,TRUE,TRUE,,,,,,,,,,,
11007,さいたま市,南消防署東浦和出張所,ﾐﾅﾐｼｮｳﾎﾞｳｼｮﾋｶﾞｼｳﾗﾜｼｭｯﾁｮｳｼﾞｮ,南区大谷口5668,35.8552913,139.6928006,全日,0:00,24:00,0:00,24:00,0:00,24:00,0:00,24:00,0:00,24:00,0:00,24:00,0:00,24:00,,,TRUE,TRUE,,,,,,,,,,,
11007,さいたま市,緑消防署,ﾐﾄﾞﾘｼｮｳﾎﾞｳｼｮ,緑区中尾973-2,35.8720826,139.6844338,全日,0:00,24:00,0:00,24:00,0:00,24:00,0:00,24:00,0:00,24:00,0:00,24:00,0:00,24:00,,,TRUE,TRUE,,,,,,,,,,,
11007,さいたま市,緑消防署美園出張所,ﾐﾄﾞﾘｼｮｳﾎﾞｳｼｮﾐｿﾉｼｭｯﾁｮｳｼﾞｮ,緑区玄蕃新田597-1,35.889107,139.7161167,全日,0:00,24:00,0:00,24:00,0:00,24:00,0:00,24:00,0:00,24:00,0:00,24:00,0:00,24:00,,,TRUE,TRUE,,,,,,,,,,,
11007,さいたま市,岩槻消防署,ｲﾜﾂｷｼｮｳﾎﾞｳｼｮ,岩槻区城南1丁目2-3,35.9422887,139.7010357,全日,0:00,24:00,0:00,24:00,0:00,24:00,0:00,24:00,0:00,24:00,0:00,24:00,0:00,24:00,,,TRUE,TRUE,,,,,,,,,,,
11007,さいたま市,岩槻消防署太田出張所,ｲﾜﾂｷｼｮｳﾎﾞｳｼｮｵｵﾀｼｭｯﾁｮｳｼﾞｮ,岩槻区太田1丁目2-11,35.9532231,139.7046318,全日,0:00,24:00,0:00,24:00,0:00,24:00,0:00,24:00,0:00,24:00,0:00,24:00,0:00,24:00,,,TRUE,TRUE,,,,,,,,,,,
11007,さいたま市,岩槻消防署上野出張所,ｲﾜﾂｷｼｮｳﾎﾞｳｼｮｳｴﾉｼｭｯﾁｮｳｼﾞｮ,岩槻区上野4丁目6-21,35.973843,139.6959089,全日,0:00,24:00,0:00,24:00,0:00,24:00,0:00,24:00,0:00,24:00,0:00,24:00,0:00,24:00,,,TRUE,TRUE,,,,,,,,,,,
11007,さいたま市,岩槻消防署笹久保出張所,ｲﾜﾂｷｼｮｳﾎﾞｳｼｮｻｻｸﾎﾞｼｭｯﾁｮｳｼﾞｮ,岩槻区笹久保1328,35.9155945,139.7154731,全日,0:00,24:00,0:00,24:00,0:00,24:00,0:00,24:00,0:00,24:00,0:00,24:00,0:00,24:00,,,TRUE,TRUE,,,,,,,,,,,
11007,さいたま市,水道局本庁舎,ｽｲﾄﾞｳｷｮｸﾎﾝﾁｮｳｼｬ,浦和区針ヶ谷1丁目18-2,35.8792527,139.6455425,月～金（土、日、祝日、年末年始使用不可）,8:30,17:15,8:30,17:15,8:30,17:15,8:30,17:15,8:30,17:15,,,,,,,FALSE,TRUE,,,,,,,,,,12-29|12-30|12-31|01-01|01-02|01-03,
11007,さいたま市,北部水道営業所,ﾎｸﾌﾞｽｲﾄﾞｳｴｲｷﾞｮｳｼﾞｮ,北区盆栽町200-1,35.9248811,139.6291444,月～金（土、日、祝日、年末年始使用不可）,8:30,17:15,8:30,17:15,8:30,17:15,8:30,17:15,8:30,17:15,,,,,,,FALSE,TRUE,,,,,,,,,,12-29|12-30|12-31|01-01|01-02|01-03,
11007,さいたま市,南部水道営業所,ﾅﾝﾌﾞｽｲﾄﾞｳｴｲｷﾞｮｳｼﾞｮ,浦和区常盤6丁目14-16,35.8628655,139.6420945,月～金（土、日、祝日、年末年始使用不可）,8:30,17:15,8:30,17:15,8:30,17:15,8:30,17:15,8:30,17:15,,,,,,,FALSE,TRUE,,,,,,,,,,12-29|12-30|12-31|01-01|01-02|01-03,
11007,さいたま市,市立浦和高等学校,ｼﾘﾂｳﾗﾜｺｳﾄｳｶﾞｯｺｳ,浦和区元町1丁目28-17,35.8714598,139.6573112,月～金（土、日、祝日、学校休業日使用不可）,8:30,17:00,8:30,17:00,8:30,17:00,8:30,17:00,8:30,17:00,,,,,,,FALSE,TRUE,,,,,,,,,,,学校休業日使用不可
11007,さいたま市,市立浦和高等学校,ｼﾘﾂｳﾗﾜｺｳﾄｳｶﾞｯｺｳ,浦和区元町1丁目28-17,35.8714598,139.6573112,月～金（土、日、祝日、学校休業日使用不可）,8:30,17:00,8:30,17:00,8:30,17:00,8:30,17:00,8:30,17:00,,,,,,,FALSE,TRUE,,,,,,,,,,,学校休業日使用不可
11007,さいたま市,市立浦和南高等学校,ｼﾘﾂｳﾗﾜﾐﾅﾐｺｳﾄｳｶﾞｯｺｳ,南区辻6丁目5-31,35.831829,139.6565223,月～金（土、日、祝日、学校休業日使用不可）,8:30,17:00,8:30,17:00,8:30,17:00,8:30,17:00,8:30,17:00,,,,,,,FALSE,TRUE,,,,,,,,,,,学校休業日使用不可
11007,さいたま市,市立大宮北高等学校,ｼﾘﾂｵｵﾐﾔｷﾀｺｳﾄｳｶﾞｯｺｳ,北区奈良町91-1,35.9458829,139.6002295,月～金（土、日、祝日、学校休業日使用不可）,8:30,17:00,8:30,17:00,8:30,17:00,8:30,17:00,8:30,17:00,,,,,,,FALSE,TRUE,,,,,,,,,,,学校休業日使用不可
11007,さいたま市,市立大宮北高等学校,ｼﾘﾂｵｵﾐﾔｷﾀｺｳﾄｳｶﾞｯｺｳ,北区奈良町91-1,35.9458829,139.6002295,月～金（土、日、祝日、学校休業日使用不可）,8:30,17:00,8:30,17:00,8:30,17:00,8:30,17:00,8:30,17:00,,,,,,,FALSE,TRUE,,,,,,,,,,,学校休業日使用不可
11007,さいたま市,市立大宮北高等学校,ｼﾘﾂｵｵﾐﾔｷﾀｺｳﾄｳｶﾞｯｺｳ,北区奈良町91-1,35.9458829,139.6002295,月～金（土、日、祝日、学校休業日使用不可）,8:30,17:00,8:30,17:00,8:30,17:00,8:30,17:00,8:30,17:00,,,,,,,FALSE,TRUE,,,,,,,,,,,学校休業日使用不可
11007,さいたま市,市立大宮西高等学校,ｼﾘﾂｵｵﾐﾔﾆｼｺｳﾄｳｶﾞｯｺｳ,大宮区三橋4丁目96,35.8964066,139.5986197,月～金（土、日、祝日、学校休業日使用不可）,8:30,17:00,8:30,17:00,8:30,17:00,8:30,17:00,8:30,17:00,,,,,,,FALSE,TRUE,,,,,,,,,,,学校休業日使用不可
11007,さいたま市,市立大宮西高等学校,ｼﾘﾂｵｵﾐﾔﾆｼｺｳﾄｳｶﾞｯｺｳ,大宮区三橋4丁目96,35.8964066,139.5986197,月～金（土、日、祝日、学校休業日使用不可）,8:30,17:00,8:30,17:00,8:30,17:00,8:30,17:00,8:30,17:00,,,,,,,FALSE,TRUE,,,,,,,,,,,学校休業日使用不可
11007,さいたま市,岸中学校,ｷｼﾁｭｳｶﾞｯｺｳ,南区南本町2丁目25-27,35.8498059,139.6645629,月～金（土、日、祝日、学校休業日使用不可）,8:30,17:00,8:30,17:00,8:30,17:00,8:30,17:00,8:30,17:00,,,,,,,FALSE,TRUE,,,,,,,,,,,学校休業日使用不可
11007,さいたま市,常盤中学校,ﾄｷﾜﾁｭｳｶﾞｯｺｳ,浦和区針ヶ谷4丁目1-9,35.8782,139.6393677,月～金（土、日、祝日、学校休業日使用不可）,8:30,17:00,8:30,17:00,8:30,17:00,8:30,17:00,8:30,17:00,,,,,,,FALSE,TRUE,,,,,,,,,,,学校休業日使用不可
11007,さいたま市,木崎中学校,ｷｻﾞｷﾁｭｳｶﾞｯｺｳ,浦和区瀬ヶ崎2丁目17-1,35.8787747,139.6615672,月～金（土、日、祝日、学校休業日使用不可）,8:30,17:00,8:30,17:00,8:30,17:00,8:30,17:00,8:30,17:00,,,,,,,FALSE,TRUE,,,,,,,,,,,学校休業日使用不可
11007,さいたま市,原山中学校,ﾊﾗﾔﾏﾁｭｳｶﾞｯｺｳ,緑区太田窪1丁目10-22,35.8663078,139.6669107,月～金（土、日、祝日、学校休業日使用不可）,8:30,17:00,8:30,17:00,8:30,17:00,8:30,17:00,8:30,17:00,,,,,,,FALSE,TRUE,,,,,,,,,,,学校休業日使用不可
11007,さいたま市,本太中学校,ﾓﾄﾌﾞﾄﾁｭｳｶﾞｯｺｳ,浦和区領家1丁目4-15,35.8733928,139.6584833,月～金（土、日、祝日、学校休業日使用不可）,8:30,17:00,8:30,17:00,8:30,17:00,8:30,17:00,8:30,17:00,,,,,,,FALSE,TRUE,,,,,,,,,,,学校休業日使用不可
11007,さいたま市,東浦和中学校,ﾋｶﾞｼｳﾗﾜﾁｭｳｶﾞｯｺｳ,緑区中尾1207-1,35.8745072,139.6841698,月～金（土、日、祝日、学校休業日使用不可）,8:30,17:00,8:30,17:00,8:30,17:00,8:30,17:00,8:30,17:00,,,,,,,FALSE,TRUE,,,,,,,,,,,学校休業日使用不可
11007,さいたま市,南浦和中学校,ﾐﾅﾐｳﾗﾜﾁｭｳｶﾞｯｺｳ,南区辻6丁目1-33,35.8350247,139.656666,月～金（土、日、祝日、学校休業日使用不可）,8:30,17:00,8:30,17:00,8:30,17:00,8:30,17:00,8:30,17:00,,,,,,,FALSE,TRUE,,,,,,,,,,,学校休業日使用不可
11007,さいたま市,白幡中学校,ｼﾗﾊﾀﾁｭｳｶﾞｯｺｳ,南区白幡2丁目18-13,35.8484798,139.6526265,月～金（土、日、祝日、学校休業日使用不可）,8:30,17:00,8:30,17:00,8:30,17:00,8:30,17:00,8:30,17:00,,,,,,,FALSE,TRUE,,,,,,,,,,,学校休業日使用不可
11007,さいたま市,大原中学校,ｵｵﾊﾗﾁｭｳｶﾞｯｺｳ,浦和区大原3丁目1-11,35.8928799,139.6482095,月～金（土、日、祝日、学校休業日使用不可）,8:30,17:00,8:30,17:00,8:30,17:00,8:30,17:00,8:30,17:00,,,,,,,FALSE,TRUE,,,,,,,,,,,学校休業日使用不可
11007,さいたま市,土合中学校,ﾂﾁｱｲﾁｭｳｶﾞｯｺｳ,桜区町谷1丁目19-1,35.8596722,139.6230163,月～金（土、日、祝日、学校休業日使用不可）,8:30,17:00,8:30,17:00,8:30,17:00,8:30,17:00,8:30,17:00,,,,,,,FALSE,TRUE,,,,,,,,,,,学校休業日使用不可
11007,さいたま市,大久保中学校,ｵｵｸﾎﾞﾁｭｳｶﾞｯｺｳ,桜区五関282,35.8668101,139.5971761,月～金（土、日、祝日、学校休業日使用不可）,8:30,17:00,8:30,17:00,8:30,17:00,8:30,17:00,8:30,17:00,,,,,,,FALSE,TRUE,,,,,,,,,,,学校休業日使用不可
11007,さいたま市,大谷場中学校,ｵｵﾔﾊﾞﾁｭｳｶﾞｯｺｳ,南区大谷場2-13-54,35.8534215,139.6742528,月～金（土、日、祝日、学校休業日使用不可）,8:30,17:00,8:30,17:00,8:30,17:00,8:30,17:00,8:30,17:00,,,,,,,FALSE,TRUE,,,,,,,,,,,学校休業日使用不可
11007,さいたま市,美園中学校,ﾐｿﾉﾁｭｳｶﾞｯｺｳ,緑区大崎2550-3,35.8921389,139.7126234,月～金（土、日、祝日、学校休業日使用不可）,8:30,17:00,8:30,17:00,8:30,17:00,8:30,17:00,8:30,17:00,,,,,,,FALSE,TRUE,,,,,,,,,,,学校休業日使用不可
11007,さいたま市,大谷口中学校,ｵｵﾔｸﾞﾁﾁｭｳｶﾞｯｺｳ,南区広ヶ谷戸21,35.8628465,139.6831659,月～金（土、日、祝日、学校休業日使用不可）,8:30,17:00,8:30,17:00,8:30,17:00,8:30,17:00,8:30,17:00,,,,,,,FALSE,TRUE,,,,,,,,,,,学校休業日使用不可
11007,さいたま市,田島中学校,ﾀｼﾞﾏﾁｭｳｶﾞｯｺｳ,桜区田島10丁目13-1,35.838475,139.6225816,月～金（土、日、祝日、学校休業日使用不可）,8:30,17:00,8:30,17:00,8:30,17:00,8:30,17:00,8:30,17:00,,,,,,,FALSE,TRUE,,,,,,,,,,,学校休業日使用不可
11007,さいたま市,三室中学校,ﾐﾑﾛﾁｭｳｶﾞｯｺｳ,緑区馬場1丁目38-2,35.8867226,139.6842384,月～金（土、日、祝日、学校休業日使用不可）,8:30,17:00,8:30,17:00,8:30,17:00,8:30,17:00,8:30,17:00,,,,,,,FALSE,TRUE,,,,,,,,,,,学校休業日使用不可
11007,さいたま市,上大久保中学校,ｶﾐｵｵｸﾎﾞﾁｭｳｶﾞｯｺｳ,桜区上大久保861-1,35.8718673,139.6163867,月～金（土、日、祝日、学校休業日使用不可）,8:30,17:00,8:30,17:00,8:30,17:00,8:30,17:00,8:30,17:00,,,,,,,FALSE,TRUE,,,,,,,,,,,学校休業日使用不可
11007,さいたま市,内谷中学校,ｳﾁﾔﾁｭｳｶﾞｯｺｳ,南区内谷6丁目10-1,35.8352541,139.6479275,月～金（土、日、祝日、学校休業日使用不可）,8:30,17:00,8:30,17:00,8:30,17:00,8:30,17:00,8:30,17:00,,,,,,,FALSE,TRUE,,,,,,,,,,,学校休業日使用不可
11007,さいたま市,尾間木中学校,ｵﾏｷﾞﾁｭｳｶﾞｯｺｳ,緑区東浦和4丁目29-1,35.8689311,139.6982811,月～金（土、日、祝日、学校休業日使用不可）,8:30,17:00,8:30,17:00,8:30,17:00,8:30,17:00,8:30,17:00,,,,,,,FALSE,TRUE,,,,,,,,,,,学校休業日使用不可
11007,さいたま市,大宮東中学校,ｵｵﾐﾔﾋｶﾞｼﾁｭｳｶﾞｯｺｳ,大宮区堀の内町1丁目99,35.9086817,139.6351357,月～金（土、日、祝日、学校休業日使用不可）,8:30,17:00,8:30,17:00,8:30,17:00,8:30,17:00,8:30,17:00,,,,,,,FALSE,TRUE,,,,,,,,,,,学校休業日使用不可
11007,さいたま市,大宮南中学校,ｵｵﾐﾔﾐﾅﾐﾁｭｳｶﾞｯｺｳ,大宮区天沼町2丁目362,35.8990706,139.6367866,月～金（土、日、祝日、学校休業日使用不可）,8:30,17:00,8:30,17:00,8:30,17:00,8:30,17:00,8:30,17:00,,,,,,,FALSE,TRUE,,,,,,,,,,,学校休業日使用不可
11007,さいたま市,大宮北中学校,ｵｵﾐﾔｷﾀﾁｭｳｶﾞｯｺｳ,大宮区寿能町1丁目21,35.9221541,139.6324072,月～金（土、日、祝日、学校休業日使用不可）,8:30,17:00,8:30,17:00,8:30,17:00,8:30,17:00,8:30,17:00,,,,,,,FALSE,TRUE,,,,,,,,,,,学校休業日使用不可
11007,さいたま市,桜木中学校,ｻｸﾗｷﾞﾁｭｳｶﾞｯｺｳ,大宮区桜木町4丁目219,35.9052995,139.6166701,月～金（土、日、祝日、学校休業日使用不可）,8:30,17:00,8:30,17:00,8:30,17:00,8:30,17:00,8:30,17:00,,,,,,,FALSE,TRUE,,,,,,,,,,,学校休業日使用不可
11007,さいたま市,三橋中学校,ﾐﾊｼﾁｭｳｶﾞｯｺｳ,大宮区三橋1丁目1300,35.9047788,139.6022142,月～金（土、日、祝日、学校休業日使用不可）,8:30,17:00,8:30,17:00,8:30,17:00,8:30,17:00,8:30,17:00,,,,,,,FALSE,TRUE,,,,,,,,,,,学校休業日使用不可
11007,さいたま市,大成中学校,ｵｵﾅﾘﾁｭｳｶﾞｯｺｳ,大宮区大成町2丁目379,35.9132316,139.6131633,月～金（土、日、祝日、学校休業日使用不可）,8:30,17:00,8:30,17:00,8:30,17:00,8:30,17:00,8:30,17:00,,,,,,,FALSE,TRUE,,,,,,,,,,,学校休業日使用不可
11007,さいたま市,日進中学校,ﾆｯｼﾝﾁｭｳｶﾞｯｺｳ,北区櫛引町2丁目503-1,35.9216966,139.6102269,月～金（土、日、祝日、学校休業日使用不可）,8:30,17:00,8:30,17:00,8:30,17:00,8:30,17:00,8:30,17:00,,,,,,,FALSE,TRUE,,,,,,,,,,,学校休業日使用不可
11007,さいたま市,宮原中学校,ﾐﾔﾊﾗﾁｭｳｶﾞｯｺｳ,北区宮原町4丁目129,35.9520647,139.6044991,月～金（土、日、祝日、学校休業日使用不可）,8:30,17:00,8:30,17:00,8:30,17:00,8:30,17:00,8:30,17:00,,,,,,,FALSE,TRUE,,,,,,,,,,,学校休業日使用不可
11007,さいたま市,植竹中学校,ｳｴﾀｹﾁｭｳｶﾞｯｺｳ,北区土呂町352,35.9339878,139.6270253,月～金（土、日、祝日、学校休業日使用不可）,8:30,17:00,8:30,17:00,8:30,17:00,8:30,17:00,8:30,17:00,,,,,,,FALSE,TRUE,,,,,,,,,,,学校休業日使用不可
11007,さいたま市,大砂土中学校,ｵｵｻﾄﾁｭｳｶﾞｯｺｳ,見沼区東大宮1丁目100-1,35.9379901,139.6446878,月～金（土、日、祝日、学校休業日使用不可）,8:30,17:00,8:30,17:00,8:30,17:00,8:30,17:00,8:30,17:00,,,,,,,FALSE,TRUE,,,,,,,,,,,学校休業日使用不可
11007,さいたま市,指扇中学校,ｻｼｵｳｷﾞﾁｭｳｶﾞｯｺｳ,西区清河寺185-2,35.9275148,139.5770727,月～金（土、日、祝日、学校休業日使用不可）,8:30,17:00,8:30,17:00,8:30,17:00,8:30,17:00,8:30,17:00,,,,,,,FALSE,TRUE,,,,,,,,,,,学校休業日使用不可
11007,さいたま市,馬宮中学校,ﾏﾐﾔﾁｭｳｶﾞｯｺｳ,西区二ツ宮589-1,35.8991051,139.5799245,月～金（土、日、祝日、学校休業日使用不可）,8:30,17:00,8:30,17:00,8:30,17:00,8:30,17:00,8:30,17:00,,,,,,,FALSE,TRUE,,,,,,,,,,,学校休業日使用不可
11007,さいたま市,片柳中学校,ｶﾀﾔﾅｷﾞﾁｭｳｶﾞｯｺｳ,見沼区御蔵551,35.9070125,139.6737801,月～金（土、日、祝日、学校休業日使用不可）,8:30,17:00,8:30,17:00,8:30,17:00,8:30,17:00,8:30,17:00,,,,,,,FALSE,TRUE,,,,,,,,,,,学校休業日使用不可
11007,さいたま市,春里中学校,ﾊﾙｻﾄﾁｭｳｶﾞｯｺｳ,見沼区小深作268-19,35.940931,139.6641298,月～金（土、日、祝日、学校休業日使用不可）,8:30,17:00,8:30,17:00,8:30,17:00,8:30,17:00,8:30,17:00,,,,,,,FALSE,TRUE,,,,,,,,,,,学校休業日使用不可
11007,さいたま市,大宮西中学校,ｵｵﾐﾔﾆｼﾁｭｳｶﾞｯｺｳ,西区三橋6丁目1558,35.920152,139.5905867,月～金（土、日、祝日、学校休業日使用不可）,8:30,17:00,8:30,17:00,8:30,17:00,8:30,17:00,8:30,17:00,,,,,,,FALSE,TRUE,,,,,,,,,,,学校休業日使用不可
11007,さいたま市,七里中学校,ﾅﾅｻﾄﾁｭｳｶﾞｯｺｳ,見沼区東宮下1丁目1-1,35.9277122,139.6810131,月～金（土、日、祝日、学校休業日使用不可）,8:30,17:00,8:30,17:00,8:30,17:00,8:30,17:00,8:30,17:00,,,,,,,FALSE,TRUE,,,,,,,,,,,学校休業日使用不可
11007,さいたま市,泰平中学校,ﾀｲﾍｲﾁｭｳｶﾞｯｺｳ,北区本郷町1991,35.9486896,139.6271298,月～金（土、日、祝日、学校休業日使用不可）,8:30,17:00,8:30,17:00,8:30,17:00,8:30,17:00,8:30,17:00,,,,,,,FALSE,TRUE,,,,,,,,,,,学校休業日使用不可
11007,さいたま市,宮前中学校,ﾐﾔﾏｴﾁｭｳｶﾞｯｺｳ,西区宮前町1467-1,35.9298349,139.5981006,月～金（土、日、祝日、学校休業日使用不可）,8:30,17:00,8:30,17:00,8:30,17:00,8:30,17:00,8:30,17:00,,,,,,,FALSE,TRUE,,,,,,,,,,,学校休業日使用不可
11007,さいたま市,植水中学校,ｳｴﾐｽﾞﾁｭｳｶﾞｯｺｳ,西区三条町345-1,35.8869395,139.5839486,月～金（土、日、祝日、学校休業日使用不可）,8:30,17:00,8:30,17:00,8:30,17:00,8:30,17:00,8:30,17:00,,,,,,,FALSE,TRUE,,,,,,,,,,,学校休業日使用不可
11007,さいたま市,大谷中学校,ｵｵﾔﾁｭｳｶﾞｯｺｳ,見沼区大谷1634-2,35.9255572,139.6662909,月～金（土、日、祝日、学校休業日使用不可）,8:30,17:00,8:30,17:00,8:30,17:00,8:30,17:00,8:30,17:00,,,,,,,FALSE,TRUE,,,,,,,,,,,学校休業日使用不可
11007,さいたま市,第二東中学校,ﾀﾞｲﾆﾋｶﾞｼﾁｭｳｶﾞｯｺｳ,大宮区天沼町1丁目760,35.9089339,139.6451112,月～金（土、日、祝日、学校休業日使用不可）,8:30,17:00,8:30,17:00,8:30,17:00,8:30,17:00,8:30,17:00,,,,,,,FALSE,TRUE,,,,,,,,,,,学校休業日使用不可
11007,さいたま市,土屋中学校,ﾂﾁﾔﾁｭｳｶﾞｯｺｳ,西区土屋1766-1,35.9117687,139.5706705,月～金（土、日、祝日、学校休業日使用不可）,8:30,17:00,8:30,17:00,8:30,17:00,8:30,17:00,8:30,17:00,,,,,,,FALSE,TRUE,,,,,,,,,,,学校休業日使用不可
11007,さいたま市,大宮八幡中学校,ｵｵﾐﾔﾔﾊﾀﾁｭｳｶﾞｯｺｳ,見沼区南中丸357,35.9192282,139.6532921,月～金（土、日、祝日、学校休業日使用不可）,8:30,17:00,8:30,17:00,8:30,17:00,8:30,17:00,8:30,17:00,,,,,,,FALSE,TRUE,,,,,,,,,,,学校休業日使用不可
11007,さいたま市,土呂中学校,ﾄﾛﾁｭｳｶﾞｯｺｳ,北区見沼3丁目75,35.9389182,139.6372627,月～金（土、日、祝日、学校休業日使用不可）,8:30,17:00,8:30,17:00,8:30,17:00,8:30,17:00,8:30,17:00,,,,,,,FALSE,TRUE,,,,,,,,,,,学校休業日使用不可
11007,さいたま市,春野中学校,ﾊﾙﾉﾁｭｳｶﾞｯｺｳ,見沼区春野2丁目2-1,35.9568108,139.662798,月～金（土、日、祝日、学校休業日使用不可）,8:30,17:00,8:30,17:00,8:30,17:00,8:30,17:00,8:30,17:00,,,,,,,FALSE,TRUE,,,,,,,,,,,学校休業日使用不可
11007,さいたま市,与野東中学校,ﾖﾉﾋｶﾞｼﾁｭｳｶﾞｯｺｳ,中央区下落合3丁目21-10,35.8884985,139.6321857,月～金（土、日、祝日、学校休業日使用不可）,8:30,17:00,8:30,17:00,8:30,17:00,8:30,17:00,8:30,17:00,,,,,,,FALSE,TRUE,,,,,,,,,,,学校休業日使用不可
11007,さいたま市,与野西中学校,ﾖﾉﾆｼﾁｭｳｶﾞｯｺｳ,中央区鈴谷8丁目10-33,35.8779357,139.6235844,月～金（土、日、祝日、学校休業日使用不可）,8:30,17:00,8:30,17:00,8:30,17:00,8:30,17:00,8:30,17:00,,,,,,,FALSE,TRUE,,,,,,,,,,,学校休業日使用不可
11007,さいたま市,与野南中学校,ﾖﾉﾐﾅﾐﾁｭｳｶﾞｯｺｳ,中央区大戸2丁目6-25,35.8657006,139.6347551,月～金（土、日、祝日、学校休業日使用不可）,8:30,17:00,8:30,17:00,8:30,17:00,8:30,17:00,8:30,17:00,,,,,,,FALSE,TRUE,,,,,,,,,,,学校休業日使用不可
11007,さいたま市,八王子中学校,ﾊﾁｵｳｼﾞﾁｭｳｶﾞｯｺｳ,中央区八王子4丁目2-1,35.8785748,139.6083743,月～金（土、日、祝日、学校休業日使用不可）,8:30,17:00,8:30,17:00,8:30,17:00,8:30,17:00,8:30,17:00,,,,,,,FALSE,TRUE,,,,,,,,,,,学校休業日使用不可
11007,さいたま市,岩槻中学校,ｲﾜﾂｷﾁｭｳｶﾞｯｺｳ,岩槻区仲町1丁目14-35,35.949428,139.7036382,月～金（土、日、祝日、学校休業日使用不可）,8:30,17:00,8:30,17:00,8:30,17:00,8:30,17:00,8:30,17:00,,,,,,,FALSE,TRUE,,,,,,,,,,,学校休業日使用不可
11007,さいたま市,川通中学校,ｶﾜﾄﾞｵﾘﾁｭｳｶﾞｯｺｳ,岩槻区長宮435,35.9478442,139.7313645,月～金（土、日、祝日、学校休業日使用不可）,8:30,17:00,8:30,17:00,8:30,17:00,8:30,17:00,8:30,17:00,,,,,,,FALSE,TRUE,,,,,,,,,,,学校休業日使用不可
11007,さいたま市,城南中学校,ｼﾞｮｳﾅﾝﾁｭｳｶﾞｯｺｳ,岩槻区笹久保577,35.9149907,139.727192,月～金（土、日、祝日、学校休業日使用不可）,8:30,17:00,8:30,17:00,8:30,17:00,8:30,17:00,8:30,17:00,,,,,,,FALSE,TRUE,,,,,,,,,,,学校休業日使用不可
11007,さいたま市,慈恩寺中学校,ｼﾞｵﾝｼﾞﾁｭｳｶﾞｯｺｳ,岩槻区裏慈恩寺505,35.9852249,139.7049493,月～金（土、日、祝日、学校休業日使用不可）,8:30,17:00,8:30,17:00,8:30,17:00,8:30,17:00,8:30,17:00,,,,,,,FALSE,TRUE,,,,,,,,,,,学校休業日使用不可
11007,さいたま市,城北中学校,ｼﾞｮｳﾎｸﾁｭｳｶﾞｯｺｳ,岩槻区本宿392-1,35.9647836,139.689297,月～金（土、日、祝日、学校休業日使用不可）,8:30,17:00,8:30,17:00,8:30,17:00,8:30,17:00,8:30,17:00,,,,,,,FALSE,TRUE,,,,,,,,,,,学校休業日使用不可
11007,さいたま市,桜山中学校,ｻｸﾗﾔﾏﾁｭｳｶﾞｯｺｳ,岩槻区表慈恩寺684-1,35.9729116,139.7111876,月～金（土、日、祝日、学校休業日使用不可）,8:30,17:00,8:30,17:00,8:30,17:00,8:30,17:00,8:30,17:00,,,,,,,FALSE,TRUE,,,,,,,,,,,学校休業日使用不可
11007,さいたま市,柏陽中学校,ﾊｸﾖｳﾁｭｳｶﾞｯｺｳ,岩槻区真福寺454,35.9359452,139.7030404,月～金（土、日、祝日、学校休業日使用不可）,8:30,17:00,8:30,17:00,8:30,17:00,8:30,17:00,8:30,17:00,,,,,,,FALSE,TRUE,,,,,,,,,,,学校休業日使用不可
11007,さいたま市,西原中学校,ﾆｼﾊﾗﾁｭｳｶﾞｯｺｳ,岩槻区岩槻3750,35.9551333,139.6814421,月～金（土、日、祝日、学校休業日使用不可）,8:30,17:00,8:30,17:00,8:30,17:00,8:30,17:00,8:30,17:00,,,,,,,FALSE,TRUE,,,,,,,,,,,学校休業日使用不可
11007,さいたま市,浦和中学校,ｳﾗﾜﾁｭｳｶﾞｯｺｳ,浦和区元町1丁目28-17,35.8714598,139.6573112,月～金（土、日、祝日、学校休業日使用不可）,8:30,17:00,8:30,17:00,8:30,17:00,8:30,17:00,8:30,17:00,,,,,,,FALSE,TRUE,,,,,,,,,,,学校休業日使用不可
11007,さいたま市,高砂小学校,ﾀｶｻｺﾞｼｮｳｶﾞｯｺｳ,浦和区岸町4丁目1-29,35.8565402,139.6567957,月～金（土、日、祝日、学校休業日使用不可）,8:30,17:00,8:30,17:00,8:30,17:00,8:30,17:00,8:30,17:00,,,,,,,FALSE,TRUE,,,,,,,,,,,学校休業日使用不可
11007,さいたま市,常盤小学校,ﾄｷﾜｼｮｳｶﾞｯｺｳ,浦和区常盤9丁目30-9,35.8687852,139.6431591,月～金（土、日、祝日、学校休業日使用不可）,8:30,17:00,8:30,17:00,8:30,17:00,8:30,17:00,8:30,17:00,,,,,,,FALSE,TRUE,,,,,,,,,,,学校休業日使用不可
11007,さいたま市,木崎小学校,ｷｻﾞｷｼｮｳｶﾞｯｺｳ,浦和区領家4丁目19-4,35.8828389,139.6528972,月～金（土、日、祝日、学校休業日使用不可）,8:30,17:00,8:30,17:00,8:30,17:00,8:30,17:00,8:30,17:00,,,,,,,FALSE,TRUE,,,,,,,,,,,学校休業日使用不可
11007,さいたま市,谷田小学校,ﾔﾀﾞｼｮｳｶﾞｯｺｳ,南区太田窪5丁目10-6,35.8563425,139.6779167,月～金（土、日、祝日、学校休業日使用不可）,8:30,17:00,8:30,17:00,8:30,17:00,8:30,17:00,8:30,17:00,,,,,,,FALSE,TRUE,,,,,,,,,,,学校休業日使用不可
11007,さいたま市,仲本小学校,ﾅｶﾓﾄｼｮｳｶﾞｯｺｳ,浦和区本太2丁目12-31,35.861645,139.6610407,月～金（土、日、祝日、学校休業日使用不可）,8:30,17:00,8:30,17:00,8:30,17:00,8:30,17:00,8:30,17:00,,,,,,,FALSE,TRUE,,,,,,,,,,,学校休業日使用不可
11007,さいたま市,本太小学校,ﾓﾄﾌﾞﾄｼｮｳｶﾞｯｺｳ,浦和区本太2丁目26-25,35.8652862,139.6575864,月～金（土、日、祝日、学校休業日使用不可）,8:30,17:00,8:30,17:00,8:30,17:00,8:30,17:00,8:30,17:00,,,,,,,FALSE,TRUE,,,,,,,,,,,学校休業日使用不可
11007,さいたま市,三室小学校,ﾐﾑﾛｼｮｳｶﾞｯｺｳ,緑区三室1994,35.8839976,139.6819893,月～金（土、日、祝日、学校休業日使用不可）,8:30,17:00,8:30,17:00,8:30,17:00,8:30,17:00,8:30,17:00,,,,,,,FALSE,TRUE,,,,,,,,,,,学校休業日使用不可
11007,さいたま市,尾間木小学校,ｵﾏｷﾞｼｮｳｶﾞｯｺｳ,緑区東浦和8丁目11-5,35.8689731,139.6965393,月～金（土、日、祝日、学校休業日使用不可）,8:30,17:00,8:30,17:00,8:30,17:00,8:30,17:00,8:30,17:00,,,,,,,FALSE,TRUE,,,,,,,,,,,学校休業日使用不可
11007,さいたま市,南浦和小学校,ﾐﾅﾐｳﾗﾜｼｮｳｶﾞｯｺｳ,南区白幡1丁目1-20,35.8452633,139.6579715,月～金（土、日、祝日、学校休業日使用不可）,8:30,17:00,8:30,17:00,8:30,17:00,8:30,17:00,8:30,17:00,,,,,,,FALSE,TRUE,,,,,,,,,,,学校休業日使用不可
11007,さいたま市,浦和別所小学校,ｳﾗﾜﾍﾞｯｼｮｼｮｳｶﾞｯｺｳ,南区別所2丁目5-34,35.849628,139.6481557,月～金（土、日、祝日、学校休業日使用不可）,8:30,17:00,8:30,17:00,8:30,17:00,8:30,17:00,8:30,17:00,,,,,,,FALSE,TRUE,,,,,,,,,,,学校休業日使用不可
11007,さいたま市,北浦和小学校,ｷﾀｳﾗﾜｼｮｳｶﾞｯｺｳ,浦和区北浦和2丁目18-3,35.8773737,139.6483223,月～金（土、日、祝日、学校休業日使用不可）,8:30,17:00,8:30,17:00,8:30,17:00,8:30,17:00,8:30,17:00,,,,,,,FALSE,TRUE,,,,,,,,,,,学校休業日使用不可
11007,さいたま市,仲町小学校,ﾅｶﾏﾁｼｮｳｶﾞｯｺｳ,浦和区常盤8丁目18-4,35.8641462,139.6405637,月～金（土、日、祝日、学校休業日使用不可）,8:30,17:00,8:30,17:00,8:30,17:00,8:30,17:00,8:30,17:00,,,,,,,FALSE,TRUE,,,,,,,,,,,学校休業日使用不可
11007,さいたま市,上木崎小学校,ｶﾐｷｻﾞｷｼｮｳｶﾞｯｺｳ,浦和区上木崎3丁目4-3,35.8877089,139.6429528,月～金（土、日、祝日、学校休業日使用不可）,8:30,17:00,8:30,17:00,8:30,17:00,8:30,17:00,8:30,17:00,,,,,,,FALSE,TRUE,,,,,,,,,,,学校休業日使用不可
11007,さいたま市,岸町小学校,ｷｼﾏﾁｼｮｳｶﾞｯｺｳ,浦和区岸町5丁目20-4,35.8510276,139.6502606,月～金（土、日、祝日、学校休業日使用不可）,8:30,17:00,8:30,17:00,8:30,17:00,8:30,17:00,8:30,17:00,,,,,,,FALSE,TRUE,,,,,,,,,,,学校休業日使用不可
11007,さいたま市,大谷場小学校,ｵｵﾔﾊﾞｼｮｳｶﾞｯｺｳ,南区南浦和1丁目18-3,35.8527792,139.6679633,月～金（土、日、祝日、学校休業日使用不可）,8:30,17:00,8:30,17:00,8:30,17:00,8:30,17:00,8:30,17:00,,,,,,,FALSE,TRUE,,,,,,,,,,,学校休業日使用不可
11007,さいたま市,土合小学校,ﾂﾁｱｲｼｮｳｶﾞｯｺｳ,桜区西堀7丁目21-1,35.8578801,139.6270631,月～金（土、日、祝日、学校休業日使用不可）,8:30,17:00,8:30,17:00,8:30,17:00,8:30,17:00,8:30,17:00,,,,,,,FALSE,TRUE,,,,,,,,,,,学校休業日使用不可
11007,さいたま市,大久保小学校,ｵｵｸﾎﾞｼｮｳｶﾞｯｺｳ,桜区五関21,35.8721763,139.5983596,月～金（土、日、祝日、学校休業日使用不可）,8:30,17:00,8:30,17:00,8:30,17:00,8:30,17:00,8:30,17:00,,,,,,,FALSE,TRUE,,,,,,,,,,,学校休業日使用不可
11007,さいたま市,原山小学校,ﾊﾗﾔﾏｼｮｳｶﾞｯｺｳ,緑区原山1丁目30-12,35.8663979,139.6707648,月～金（土、日、祝日、学校休業日使用不可）,8:30,17:00,8:30,17:00,8:30,17:00,8:30,17:00,8:30,17:00,,,,,,,FALSE,TRUE,,,,,,,,,,,学校休業日使用不可
11007,さいたま市,針ケ谷小学校,ﾊﾘｶﾞﾔｼｮｳｶﾞｯｺｳ,浦和区領家7丁目2-1,35.8818921,139.6490582,月～金（土、日、祝日、学校休業日使用不可）,8:30,17:00,8:30,17:00,8:30,17:00,8:30,17:00,8:30,17:00,,,,,,,FALSE,TRUE,,,,,,,,,,,学校休業日使用不可
11007,さいたま市,大谷場東小学校,ｵｵﾔﾊﾞﾋｶﾞｼｼｮｳｶﾞｯｺｳ,南区大谷場2丁目13-54,35.8534215,139.6742528,月～金（土、日、祝日、学校休業日使用不可）,8:30,17:00,8:30,17:00,8:30,17:00,8:30,17:00,8:30,17:00,,,,,,,FALSE,TRUE,,,,,,,,,,,学校休業日使用不可
11007,さいたま市,大門小学校,ﾀﾞｲﾓﾝｼｮｳｶﾞｯｺｳ,緑区大門1189,35.8807931,139.7335412,月～金（土、日、祝日、学校休業日使用不可）,8:30,17:00,8:30,17:00,8:30,17:00,8:30,17:00,8:30,17:00,,,,,,,FALSE,TRUE,,,,,,,,,,,学校休業日使用不可
11007,さいたま市,野田小学校,ﾉﾀﾞｼｮｳｶﾞｯｺｳ,緑区上野田16,35.9002314,139.7039548,月～金（土、日、祝日、学校休業日使用不可）,8:30,17:00,8:30,17:00,8:30,17:00,8:30,17:00,8:30,17:00,,,,,,,FALSE,TRUE,,,,,,,,,,,学校休業日使用不可
11007,さいたま市,西浦和小学校,ﾆｼｳﾗﾜｼｮｳｶﾞｯｺｳ,南区曲本1丁目3-5,35.8384836,139.6301684,月～金（土、日、祝日、学校休業日使用不可）,8:30,17:00,8:30,17:00,8:30,17:00,8:30,17:00,8:30,17:00,,,,,,,FALSE,TRUE,,,,,,,,,,,学校休業日使用不可
11007,さいたま市,辻小学校,ﾂｼﾞｼｮｳｶﾞｯｺｳ,南区辻6丁目3-28,35.8332822,139.6583359,月～金（土、日、祝日、学校休業日使用不可）,8:30,17:00,8:30,17:00,8:30,17:00,8:30,17:00,8:30,17:00,,,,,,,FALSE,TRUE,,,,,,,,,,,学校休業日使用不可
11007,さいたま市,大東小学校,ﾀﾞｲﾄｳｼｮｳｶﾞｯｺｳ,浦和区大東3丁目14-1,35.8835214,139.6645276,月～金（土、日、祝日、学校休業日使用不可）,8:30,17:00,8:30,17:00,8:30,17:00,8:30,17:00,8:30,17:00,,,,,,,FALSE,TRUE,,,,,,,,,,,学校休業日使用不可
11007,さいたま市,文蔵小学校,ﾌﾞｿﾞｳｼｮｳｶﾞｯｺｳ,南区文蔵5丁目16-29,35.8351911,139.6739404,月～金（土、日、祝日、学校休業日使用不可）,8:30,17:00,8:30,17:00,8:30,17:00,8:30,17:00,8:30,17:00,,,,,,,FALSE,TRUE,,,,,,,,,,,学校休業日使用不可
11007,さいたま市,沼影小学校,ﾇﾏｶｹﾞｼｮｳｶﾞｯｺｳ,南区沼影2丁目8-36,35.8391289,139.6462743,月～金（土、日、祝日、学校休業日使用不可）,8:30,17:00,8:30,17:00,8:30,17:00,8:30,17:00,8:30,17:00,,,,,,,FALSE,TRUE,,,,,,,,,,,学校休業日使用不可
11007,さいたま市,大谷口小学校,ｵｵﾔｸﾞﾁｼｮｳｶﾞｯｺｳ,南区広ヶ谷戸24,35.8625114,139.6833135,月～金（土、日、祝日、学校休業日使用不可）,8:30,17:00,8:30,17:00,8:30,17:00,8:30,17:00,8:30,17:00,,,,,,,FALSE,TRUE,,,,,,,,,,,学校休業日使用不可
11007,さいたま市,栄和小学校,ｻｶﾜｼｮｳｶﾞｯｺｳ,桜区栄和1丁目7-1,35.8617584,139.6175204,月～金（土、日、祝日、学校休業日使用不可）,8:30,17:00,8:30,17:00,8:30,17:00,8:30,17:00,8:30,17:00,,,,,,,FALSE,TRUE,,,,,,,,,,,学校休業日使用不可
11007,さいたま市,道祖土小学校,ｻｲﾄﾞｼｮｳｶﾞｯｺｳ,緑区道祖土1丁目1-1,35.874738,139.6688806,月～金（土、日、祝日、学校休業日使用不可）,8:30,17:00,8:30,17:00,8:30,17:00,8:30,17:00,8:30,17:00,,,,,,,FALSE,TRUE,,,,,,,,,,,学校休業日使用不可
11007,さいたま市,田島小学校,ﾀｼﾞﾏｼｮｳｶﾞｯｺｳ,桜区田島10丁目12-1,35.8377634,139.6233599,月～金（土、日、祝日、学校休業日使用不可）,8:30,17:00,8:30,17:00,8:30,17:00,8:30,17:00,8:30,17:00,,,,,,,FALSE,TRUE,,,,,,,,,,,学校休業日使用不可
11007,さいたま市,大久保東小学校,ｵｵｸﾎﾞﾋｶﾞｼｼｮｳｶﾞｯｺｳ,桜区大久保領家331,35.8712917,139.6034359,月～金（土、日、祝日、学校休業日使用不可）,8:30,17:00,8:30,17:00,8:30,17:00,8:30,17:00,8:30,17:00,,,,,,,FALSE,TRUE,,,,,,,,,,,学校休業日使用不可
11007,さいたま市,浦和大里小学校,ｳﾗﾜｵｵｻﾄｼｮｳｶﾞｯｺｳ,南区別所7丁目14-28,35.844779,139.6436311,月～金（土、日、祝日、学校休業日使用不可）,8:30,17:00,8:30,17:00,8:30,17:00,8:30,17:00,8:30,17:00,,,,,,,FALSE,TRUE,,,,,,,,,,,学校休業日使用不可
11007,さいたま市,新開小学校,ｼﾝｶｲｼｮｳｶﾞｯｺｳ,桜区新開2丁目18-1,35.8507174,139.6174729,月～金（土、日、祝日、学校休業日使用不可）,8:30,17:00,8:30,17:00,8:30,17:00,8:30,17:00,8:30,17:00,,,,,,,FALSE,TRUE,,,,,,,,,,,学校休業日使用不可
11007,さいたま市,神田小学校,ｶﾝﾀﾞｼｮｳｶﾞｯｺｳ,桜区神田541-1,35.8751523,139.607354,月～金（土、日、祝日、学校休業日使用不可）,8:30,17:00,8:30,17:00,8:30,17:00,8:30,17:00,8:30,17:00,,,,,,,FALSE,TRUE,,,,,,,,,,,学校休業日使用不可
11007,さいたま市,中尾小学校,ﾅｶｵｼｮｳｶﾞｯｺｳ,緑区中尾2596-1,35.8680829,139.6826742,月～金（土、日、祝日、学校休業日使用不可）,8:30,17:00,8:30,17:00,8:30,17:00,8:30,17:00,8:30,17:00,,,,,,,FALSE,TRUE,,,,,,,,,,,学校休業日使用不可
11007,さいたま市,善前小学校,ｾﾞﾝﾏｴｼｮｳｶﾞｯｺｳ,南区太田窪2500-1,35.8531781,139.6860068,月～金（土、日、祝日、学校休業日使用不可）,8:30,17:00,8:30,17:00,8:30,17:00,8:30,17:00,8:30,17:00,,,,,,,FALSE,TRUE,,,,,,,,,,,学校休業日使用不可
11007,さいたま市,大牧小学校,ｵｵﾏｷｼｮｳｶﾞｯｺｳ,緑区東浦和6丁目12-3,35.8724897,139.7068465,月～金（土、日、祝日、学校休業日使用不可）,8:30,17:00,8:30,17:00,8:30,17:00,8:30,17:00,8:30,17:00,,,,,,,FALSE,TRUE,,,,,,,,,,,学校休業日使用不可
11007,さいたま市,中島小学校,ﾅｶｼﾞﾏｼｮｳｶﾞｯｺｳ,桜区中島1丁目28-1,35.8648519,139.6233676,月～金（土、日、祝日、学校休業日使用不可）,8:30,17:00,8:30,17:00,8:30,17:00,8:30,17:00,8:30,17:00,,,,,,,FALSE,TRUE,,,,,,,,,,,学校休業日使用不可
11007,さいたま市,芝原小学校,ｼﾊﾞﾊﾗｼｮｳｶﾞｯｺｳ,緑区芝原2丁目5,35.881634,139.6908887,月～金（土、日、祝日、学校休業日使用不可）,8:30,17:00,8:30,17:00,8:30,17:00,8:30,17:00,8:30,17:00,,,,,,,FALSE,TRUE,,,,,,,,,,,学校休業日使用不可
11007,さいたま市,常盤北小学校,ﾄｷﾜｷﾀｼｮｳｶﾞｯｺｳ,浦和区針ヶ谷4丁目2-12,35.878862,139.6390732,月～金（土、日、祝日、学校休業日使用不可）,8:30,17:00,8:30,17:00,8:30,17:00,8:30,17:00,8:30,17:00,,,,,,,FALSE,TRUE,,,,,,,,,,,学校休業日使用不可
11007,さいたま市,向小学校,ﾑｶｲｼｮｳｶﾞｯｺｳ,南区大谷口5437,35.8573114,139.6958644,月～金（土、日、祝日、学校休業日使用不可）,8:30,17:00,8:30,17:00,8:30,17:00,8:30,17:00,8:30,17:00,,,,,,,FALSE,TRUE,,,,,,,,,,,学校休業日使用不可
11007,さいたま市,大宮小学校,ｵｵﾐﾔｼｮｳｶﾞｯｺｳ,大宮区大門町3丁目3,35.9066427,139.6300819,月～金（土、日、祝日、学校休業日使用不可）,8:30,17:00,8:30,17:00,8:30,17:00,8:30,17:00,8:30,17:00,,,,,,,FALSE,TRUE,,,,,,,,,,,学校休業日使用不可
11007,さいたま市,大宮東小学校,ｵｵﾐﾔﾋｶﾞｼｼｮｳｶﾞｯｺｳ,大宮区堀の内町3丁目145,35.9139472,139.6356471,月～金（土、日、祝日、学校休業日使用不可）,8:30,17:00,8:30,17:00,8:30,17:00,8:30,17:00,8:30,17:00,,,,,,,FALSE,TRUE,,,,,,,,,,,学校休業日使用不可
11007,さいたま市,大宮南小学校,ｵｵﾐﾔﾐﾅﾐｼｮｳｶﾞｯｺｳ,大宮区吉敷町3丁目87,35.9008902,139.6338016,月～金（土、日、祝日、学校休業日使用不可）,8:30,17:00,8:30,17:00,8:30,17:00,8:30,17:00,8:30,17:00,,,,,,,FALSE,TRUE,,,,,,,,,,,学校休業日使用不可
11007,さいたま市,大宮北小学校,ｵｵﾐﾔｷﾀｼｮｳｶﾞｯｺｳ,大宮区宮町3丁目84,35.9116699,139.6271357,月～金（土、日、祝日、学校休業日使用不可）,8:30,17:00,8:30,17:00,8:30,17:00,8:30,17:00,8:30,17:00,,,,,,,FALSE,TRUE,,,,,,,,,,,学校休業日使用不可
11007,さいたま市,桜木小学校,ｻｸﾗｷﾞｼｮｳｶﾞｯｺｳ,大宮区桜木町4丁目328-9,35.9032726,139.6161472,月～金（土、日、祝日、学校休業日使用不可）,8:30,17:00,8:30,17:00,8:30,17:00,8:30,17:00,8:30,17:00,,,,,,,FALSE,TRUE,,,,,,,,,,,学校休業日使用不可
11007,さいたま市,三橋小学校,ﾐﾊｼｼｮｳｶﾞｯｺｳ,大宮区三橋2丁目20,35.9039914,139.6043486,月～金（土、日、祝日、学校休業日使用不可）,8:30,17:00,8:30,17:00,8:30,17:00,8:30,17:00,8:30,17:00,,,,,,,FALSE,TRUE,,,,,,,,,,,学校休業日使用不可
11007,さいたま市,大成小学校,ｵｵﾅﾘｼｮｳｶﾞｯｺｳ,大宮区大成町2丁目282,35.914945,139.6138608,月～金（土、日、祝日、学校休業日使用不可）,8:30,17:00,8:30,17:00,8:30,17:00,8:30,17:00,8:30,17:00,,,,,,,FALSE,TRUE,,,,,,,,,,,学校休業日使用不可
11007,さいたま市,東大成小学校,ﾋｶﾞｼｵｵﾅﾘｼｮｳｶﾞｯｺｳ,北区東大成町2丁目12,35.9249602,139.6188557,月～金（土、日、祝日、学校休業日使用不可）,8:30,17:00,8:30,17:00,8:30,17:00,8:30,17:00,8:30,17:00,,,,,,,FALSE,TRUE,,,,,,,,,,,学校休業日使用不可
11007,さいたま市,日進小学校,ﾆｯｼﾝｼｮｳｶﾞｯｺｳ,北区日進町2丁目911,35.9252012,139.6076042,月～金（土、日、祝日、学校休業日使用不可）,8:30,17:00,8:30,17:00,8:30,17:00,8:30,17:00,8:30,17:00,,,,,,,FALSE,TRUE,,,,,,,,,,,学校休業日使用不可
11007,さいたま市,日進北小学校,ﾆｯｼﾝｷﾀｼｮｳｶﾞｯｺｳ,北区日進町3丁目178,35.9361921,139.6032148,月～金（土、日、祝日、学校休業日使用不可）,8:30,17:00,8:30,17:00,8:30,17:00,8:30,17:00,8:30,17:00,,,,,,,FALSE,TRUE,,,,,,,,,,,学校休業日使用不可
11007,さいたま市,宮原小学校,ﾐﾔﾊﾗｼｮｳｶﾞｯｺｳ,北区宮原町4丁目102-6,35.9490985,139.6061601,月～金（土、日、祝日、学校休業日使用不可）,8:30,17:00,8:30,17:00,8:30,17:00,8:30,17:00,8:30,17:00,,,,,,,FALSE,TRUE,,,,,,,,,,,学校休業日使用不可
11007,さいたま市,植竹小学校,ｳｴﾀｹｼｮｳｶﾞｯｺｳ,北区植竹町2丁目1,35.9300053,139.6257619,月～金（土、日、祝日、学校休業日使用不可）,8:30,17:00,8:30,17:00,8:30,17:00,8:30,17:00,8:30,17:00,,,,,,,FALSE,TRUE,,,,,,,,,,,学校休業日使用不可
11007,さいたま市,大砂土小学校,ｵｵｻﾄｼｮｳｶﾞｯｺｳ,北区本郷町1,35.9380076,139.6269762,月～金（土、日、祝日、学校休業日使用不可）,8:30,17:00,8:30,17:00,8:30,17:00,8:30,17:00,8:30,17:00,,,,,,,FALSE,TRUE,,,,,,,,,,,学校休業日使用不可
11007,さいたま市,大砂土東小学校,ｵｵｻﾄﾋｶﾞｼｼｮｳｶﾞｯｺｳ,見沼区大和田町2丁目998,35.9378937,139.646056,月～金（土、日、祝日、学校休業日使用不可）,8:30,17:00,8:30,17:00,8:30,17:00,8:30,17:00,8:30,17:00,,,,,,,FALSE,TRUE,,,,,,,,,,,学校休業日使用不可
11007,さいたま市,見沼小学校,ﾐﾇﾏｼｮｳｶﾞｯｺｳ,見沼区東大宮2丁目45,35.948393,139.6319015,月～金（土、日、祝日、学校休業日使用不可）,8:30,17:00,8:30,17:00,8:30,17:00,8:30,17:00,8:30,17:00,,,,,,,FALSE,TRUE,,,,,,,,,,,学校休業日使用不可
11007,さいたま市,指扇小学校,ｻｼｵｳｷﾞｼｮｳｶﾞｯｺｳ,西区指扇4226,35.9227933,139.5729679,月～金（土、日、祝日、学校休業日使用不可）,8:30,17:00,8:30,17:00,8:30,17:00,8:30,17:00,8:30,17:00,,,,,,,FALSE,TRUE,,,,,,,,,,,学校休業日使用不可
11007,さいたま市,馬宮東小学校,ﾏﾐﾔﾋｶﾞｼｼｮｳｶﾞｯｺｳ,西区西遊馬189-1,35.9039345,139.5713645,月～金（土、日、祝日、学校休業日使用不可）,8:30,17:00,8:30,17:00,8:30,17:00,8:30,17:00,8:30,17:00,,,,,,,FALSE,TRUE,,,,,,,,,,,学校休業日使用不可
11007,さいたま市,馬宮西小学校,ﾏﾐﾔﾆｼｼｮｳｶﾞｯｺｳ,西区飯田新田189-2,35.8862476,139.5595517,月～金（土、日、祝日、学校休業日使用不可）,8:30,17:00,8:30,17:00,8:30,17:00,8:30,17:00,8:30,17:00,,,,,,,FALSE,TRUE,,,,,,,,,,,学校休業日使用不可
11007,さいたま市,植水小学校,ｳｴﾐｽﾞｼｮｳｶﾞｯｺｳ,西区中野林225-1,35.8944299,139.5947737,月～金（土、日、祝日、学校休業日使用不可）,8:30,17:00,8:30,17:00,8:30,17:00,8:30,17:00,8:30,17:00,,,,,,,FALSE,TRUE,,,,,,,,,,,学校休業日使用不可
11007,さいたま市,片柳小学校,ｶﾀﾔﾅｷﾞｼｮｳｶﾞｯｺｳ,見沼区東新井244-1,35.910758,139.6702252,月～金（土、日、祝日、学校休業日使用不可）,8:30,17:00,8:30,17:00,8:30,17:00,8:30,17:00,8:30,17:00,,,,,,,FALSE,TRUE,,,,,,,,,,,学校休業日使用不可
11007,さいたま市,七里小学校,ﾅﾅｻﾄｼｮｳｶﾞｯｺｳ,見沼区東宮下312,35.9293773,139.6758898,月～金（土、日、祝日、学校休業日使用不可）,8:30,17:00,8:30,17:00,8:30,17:00,8:30,17:00,8:30,17:00,,,,,,,FALSE,TRUE,,,,,,,,,,,学校休業日使用不可
11007,さいたま市,春岡小学校,ﾊﾙｵｶｼｮｳｶﾞｯｺｳ,見沼区春岡2丁目29-1,35.9495949,139.6622387,月～金（土、日、祝日、学校休業日使用不可）,8:30,17:00,8:30,17:00,8:30,17:00,8:30,17:00,8:30,17:00,,,,,,,FALSE,TRUE,,,,,,,,,,,学校休業日使用不可
11007,さいたま市,大宮西小学校,ｵｵﾐﾔﾆｼｼｮｳｶﾞｯｺｳ,西区三橋5丁目1359,35.9041791,139.5905271,月～金（土、日、祝日、学校休業日使用不可）,8:30,17:00,8:30,17:00,8:30,17:00,8:30,17:00,8:30,17:00,,,,,,,FALSE,TRUE,,,,,,,,,,,学校休業日使用不可
11007,さいたま市,栄小学校,ｻｶｴｼｮｳｶﾞｯｺｳ,西区飯田811,35.9070174,139.5823906,月～金（土、日、祝日、学校休業日使用不可）,8:30,17:00,8:30,17:00,8:30,17:00,8:30,17:00,8:30,17:00,,,,,,,FALSE,TRUE,,,,,,,,,,,学校休業日使用不可
11007,さいたま市,大宮別所小学校,ｵｵﾐﾔﾍﾞｯｼｮｼｮｳｶﾞｯｺｳ,北区別所町42-1,35.955147,139.5973356,月～金（土、日、祝日、学校休業日使用不可）,8:30,17:00,8:30,17:00,8:30,17:00,8:30,17:00,8:30,17:00,,,,,,,FALSE,TRUE,,,,,,,,,,,学校休業日使用不可
11007,さいたま市,芝川小学校,ｼﾊﾞｶﾜｼｮｳｶﾞｯｺｳ,大宮区天沼町2丁目1077,35.9052438,139.6444566,月～金（土、日、祝日、学校休業日使用不可）,8:30,17:00,8:30,17:00,8:30,17:00,8:30,17:00,8:30,17:00,,,,,,,FALSE,TRUE,,,,,,,,,,,学校休業日使用不可
11007,さいたま市,蓮沼小学校,ﾊｽﾇﾏｼｮｳｶﾞｯｺｳ,見沼区蓮沼1070,35.934316,139.6606086,月～金（土、日、祝日、学校休業日使用不可）,8:30,17:00,8:30,17:00,8:30,17:00,8:30,17:00,8:30,17:00,,,,,,,FALSE,TRUE,,,,,,,,,,,学校休業日使用不可
11007,さいたま市,上小小学校,ｶﾐｺｼｮｳｶﾞｯｺｳ,大宮区上小町1337-1,35.8966922,139.6166832,月～金（土、日、祝日、学校休業日使用不可）,8:30,17:00,8:30,17:00,8:30,17:00,8:30,17:00,8:30,17:00,,,,,,,FALSE,TRUE,,,,,,,,,,,学校休業日使用不可
11007,さいたま市,宮前小学校,ﾐﾔﾏｴｼｮｳｶﾞｯｺｳ,西区宮前町341,35.9231627,139.5943454,月～金（土、日、祝日、学校休業日使用不可）,8:30,17:00,8:30,17:00,8:30,17:00,8:30,17:00,8:30,17:00,,,,,,,FALSE,TRUE,,,,,,,,,,,学校休業日使用不可
11007,さいたま市,大谷小学校,ｵｵﾔｼｮｳｶﾞｯｺｳ,見沼区大谷18,35.9215229,139.6659279,月～金（土、日、祝日、学校休業日使用不可）,8:30,17:00,8:30,17:00,8:30,17:00,8:30,17:00,8:30,17:00,,,,,,,FALSE,TRUE,,,,,,,,,,,学校休業日使用不可
11007,さいたま市,島小学校,ｼﾏｼｮｳｶﾞｯｺｳ,見沼区島町533-2,35.9469141,139.6513688,月～金（土、日、祝日、学校休業日使用不可）,8:30,17:00,8:30,17:00,8:30,17:00,8:30,17:00,8:30,17:00,,,,,,,FALSE,TRUE,,,,,,,,,,,学校休業日使用不可
11007,さいたま市,指扇北小学校,ｻｼｵｳｷﾞｷﾀｼｮｳｶﾞｯｺｳ,西区中釘1506-1,35.9337411,139.5719533,月～金（土、日、祝日、学校休業日使用不可）,8:30,17:00,8:30,17:00,8:30,17:00,8:30,17:00,8:30,17:00,,,,,,,FALSE,TRUE,,,,,,,,,,,学校休業日使用不可
11007,さいたま市,東宮下小学校,ﾋｶﾞｼﾐﾔｼﾀｼｮｳｶﾞｯｺｳ,見沼区東宮下215-1,35.9259145,139.6776449,月～金（土、日、祝日、学校休業日使用不可）,8:30,17:00,8:30,17:00,8:30,17:00,8:30,17:00,8:30,17:00,,,,,,,FALSE,TRUE,,,,,,,,,,,学校休業日使用不可
11007,さいたま市,泰平小学校,ﾀｲﾍｲｼｮｳｶﾞｯｺｳ,北区今羽町628,35.9501991,139.6258542,月～金（土、日、祝日、学校休業日使用不可）,8:30,17:00,8:30,17:00,8:30,17:00,8:30,17:00,8:30,17:00,,,,,,,FALSE,TRUE,,,,,,,,,,,学校休業日使用不可
11007,さいたま市,海老沼小学校,ｴﾋﾞﾇﾏｼｮｳｶﾞｯｺｳ,見沼区東新井710-5,35.9082327,139.6600122,月～金（土、日、祝日、学校休業日使用不可）,8:30,17:00,8:30,17:00,8:30,17:00,8:30,17:00,8:30,17:00,,,,,,,FALSE,TRUE,,,,,,,,,,,学校休業日使用不可
11007,さいたま市,春野小学校,ﾊﾙﾉｼｮｳｶﾞｯｺｳ,見沼区春野1丁目10-1,35.9567572,139.6674662,月～金（土、日、祝日、学校休業日使用不可）,8:30,17:00,8:30,17:00,8:30,17:00,8:30,17:00,8:30,17:00,,,,,,,FALSE,TRUE,,,,,,,,,,,学校休業日使用不可
11007,さいたま市,与野本町小学校,ﾖﾉﾎﾝﾏﾁｼｮｳｶﾞｯｺｳ,中央区本町東3丁目5-23,35.8836821,139.6228486,月～金（土、日、祝日、学校休業日使用不可）,8:30,17:00,8:30,17:00,8:30,17:00,8:30,17:00,8:30,17:00,,,,,,,FALSE,TRUE,,,,,,,,,,,学校休業日使用不可
11007,さいたま市,上落合小学校,ｶﾐｵﾁｱｲｼｮｳｶﾞｯｺｳ,中央区上落合4丁目14-24,35.8940704,139.6258448,月～金（土、日、祝日、学校休業日使用不可）,8:30,17:00,8:30,17:00,8:30,17:00,8:30,17:00,8:30,17:00,,,,,,,FALSE,TRUE,,,,,,,,,,,学校休業日使用不可
11007,さいたま市,大戸小学校,ｵｵﾄｼｮｳｶﾞｯｺｳ,中央区新中里1丁目6-28,35.8725503,139.6354433,月～金（土、日、祝日、学校休業日使用不可）,8:30,17:00,8:30,17:00,8:30,17:00,8:30,17:00,8:30,17:00,,,,,,,FALSE,TRUE,,,,,,,,,,,学校休業日使用不可
11007,さいたま市,下落合小学校,ｼﾓｵﾁｱｲｼｮｳｶﾞｯｺｳ,中央区上落合1丁目7-33,35.8899203,139.6314716,月～金（土、日、祝日、学校休業日使用不可）,8:30,17:00,8:30,17:00,8:30,17:00,8:30,17:00,8:30,17:00,,,,,,,FALSE,TRUE,,,,,,,,,,,学校休業日使用不可
11007,さいたま市,与野西北小学校,ﾖﾉｾｲﾎｸｼｮｳｶﾞｯｺｳ,中央区円阿弥4丁目3-7,35.88721,139.6075079,月～金（土、日、祝日、学校休業日使用不可）,8:30,17:00,8:30,17:00,8:30,17:00,8:30,17:00,8:30,17:00,,,,,,,FALSE,TRUE,,,,,,,,,,,学校休業日使用不可
11007,さいたま市,鈴谷小学校,ｽｽﾞﾔｼｮｳｶﾞｯｺｳ,中央区鈴谷5丁目1-1,35.8710612,139.6311672,月～金（土、日、祝日、学校休業日使用不可）,8:30,17:00,8:30,17:00,8:30,17:00,8:30,17:00,8:30,17:00,,,,,,,FALSE,TRUE,,,,,,,,,,,学校休業日使用不可
11007,さいたま市,与野八幡小学校,ﾖﾉﾊﾁﾏﾝｼｮｳｶﾞｯｺｳ,中央区本町東5丁目23-14,35.8905035,139.6218811,月～金（土、日、祝日、学校休業日使用不可）,8:30,17:00,8:30,17:00,8:30,17:00,8:30,17:00,8:30,17:00,,,,,,,FALSE,TRUE,,,,,,,,,,,学校休業日使用不可
11007,さいたま市,与野南小学校,ﾖﾉﾐﾅﾐｼｮｳｶﾞｯｺｳ,中央区大戸6丁目2-25,35.8666965,139.6357118,月～金（土、日、祝日、学校休業日使用不可）,8:30,17:00,8:30,17:00,8:30,17:00,8:30,17:00,8:30,17:00,,,,,,,FALSE,TRUE,,,,,,,,,,,学校休業日使用不可
11007,さいたま市,岩槻小学校,ｲﾜﾂｷｼｮｳｶﾞｯｺｳ,岩槻区本町5丁目6-45,35.9536949,139.6985366,月～金（土、日、祝日、学校休業日使用不可）,8:30,17:00,8:30,17:00,8:30,17:00,8:30,17:00,8:30,17:00,,,,,,,FALSE,TRUE,,,,,,,,,,,学校休業日使用不可
11007,さいたま市,太田小学校,ｵｵﾀｼｮｳｶﾞｯｺｳ,岩槻区仲町1丁目17-3,35.9483186,139.7038133,月～金（土、日、祝日、学校休業日使用不可）,8:30,17:00,8:30,17:00,8:30,17:00,8:30,17:00,8:30,17:00,,,,,,,FALSE,TRUE,,,,,,,,,,,学校休業日使用不可
11007,さいたま市,川通小学校,ｶﾜﾄﾞｵﾘｼｮｳｶﾞｯｺｳ,岩槻区大野島422-1,35.9419524,139.7312004,月～金（土、日、祝日、学校休業日使用不可）,8:30,17:00,8:30,17:00,8:30,17:00,8:30,17:00,8:30,17:00,,,,,,,FALSE,TRUE,,,,,,,,,,,学校休業日使用不可
11007,さいたま市,柏崎小学校,ｶｼﾜｻﾞｷｼｮｳｶﾞｯｺｳ,岩槻区柏崎762,35.9337231,139.7014645,月～金（土、日、祝日、学校休業日使用不可）,8:30,17:00,8:30,17:00,8:30,17:00,8:30,17:00,8:30,17:00,,,,,,,FALSE,TRUE,,,,,,,,,,,学校休業日使用不可
11007,さいたま市,和土小学校,ﾜﾄﾞｼｮｳｶﾞｯｺｳ,岩槻区黒谷1353,35.9261999,139.7206831,月～金（土、日、祝日、学校休業日使用不可）,8:30,17:00,8:30,17:00,8:30,17:00,8:30,17:00,8:30,17:00,,,,,,,FALSE,TRUE,,,,,,,,,,,学校休業日使用不可
11007,さいたま市,新和小学校,ﾆｲﾜｼｮｳｶﾞｯｺｳ,岩槻区尾ヶ崎1252,35.9105858,139.7324384,月～金（土、日、祝日、学校休業日使用不可）,8:30,17:00,8:30,17:00,8:30,17:00,8:30,17:00,8:30,17:00,,,,,,,FALSE,TRUE,,,,,,,,,,,学校休業日使用不可
11007,さいたま市,慈恩寺小学校,ｼﾞｵﾝｼﾞｼｮｳｶﾞｯｺｳ,岩槻区慈恩寺259,35.9816894,139.7077972,月～金（土、日、祝日、学校休業日使用不可）,8:30,17:00,8:30,17:00,8:30,17:00,8:30,17:00,8:30,17:00,,,,,,,FALSE,TRUE,,,,,,,,,,,学校休業日使用不可
11007,さいたま市,河合小学校,ｶﾜｲｼｮｳｶﾞｯｺｳ,岩槻区平林寺351,35.9672515,139.6720618,月～金（土、日、祝日、学校休業日使用不可）,8:30,17:00,8:30,17:00,8:30,17:00,8:30,17:00,8:30,17:00,,,,,,,FALSE,TRUE,,,,,,,,,,,学校休業日使用不可
11007,さいたま市,東岩槻小学校,ﾋｶﾞｼｲﾜﾂｷｼｮｳｶﾞｯｺｳ,岩槻区諏訪2-6-1,35.9702155,139.7093288,月～金（土、日、祝日、学校休業日使用不可）,8:30,17:00,8:30,17:00,8:30,17:00,8:30,17:00,8:30,17:00,,,,,,,FALSE,TRUE,,,,,,,,,,,学校休業日使用不可
11007,さいたま市,城北小学校,ｼﾞｮｳﾎｸｼｮｳｶﾞｯｺｳ,岩槻区岩槻6619,35.9620993,139.6933735,月～金（土、日、祝日、学校休業日使用不可）,8:30,17:00,8:30,17:00,8:30,17:00,8:30,17:00,8:30,17:00,,,,,,,FALSE,TRUE,,,,,,,,,,,学校休業日使用不可
11007,さいたま市,徳力小学校,ﾄｸﾘｷｼｮｳｶﾞｯｺｳ,岩槻区徳力136-4,35.9741002,139.71679,月～金（土、日、祝日、学校休業日使用不可）,8:30,17:00,8:30,17:00,8:30,17:00,8:30,17:00,8:30,17:00,,,,,,,FALSE,TRUE,,,,,,,,,,,学校休業日使用不可
11007,さいたま市,上里小学校,ｶﾐｻﾄｼｮｳｶﾞｯｺｳ,岩槻区上里2-2,35.9651858,139.7038699,月～金（土、日、祝日、学校休業日使用不可）,8:30,17:00,8:30,17:00,8:30,17:00,8:30,17:00,8:30,17:00,,,,,,,FALSE,TRUE,,,,,,,,,,,学校休業日使用不可
11007,さいたま市,西原小学校,ﾆｼﾊﾗｼｮｳｶﾞｯｺｳ,岩槻区西原6-25,35.9527001,139.6833046,月～金（土、日、祝日、学校休業日使用不可）,8:30,17:00,8:30,17:00,8:30,17:00,8:30,17:00,8:30,17:00,,,,,,,FALSE,TRUE,,,,,,,,,,,学校休業日使用不可
11007,さいたま市,城南小学校,ｼﾞｮｳﾅﾝｼｮｳｶﾞｯｺｳ,岩槻区南下新井1191-1,35.9359332,139.712631,月～金（土、日、祝日、学校休業日使用不可）,8:30,17:00,8:30,17:00,8:30,17:00,8:30,17:00,8:30,17:00,,,,,,,FALSE,TRUE,,,,,,,,,,,学校休業日使用不可
11007,さいたま市,辻南小学校,ﾂｼﾞﾐﾅﾐｼｮｳｶﾞｯｺｳ,南区辻8丁目7-32,35.8315171,139.6651876,月～金（土、日、祝日、学校休業日使用不可）,8:30,17:00,8:30,17:00,8:30,17:00,8:30,17:00,8:30,17:00,,,,,,,FALSE,TRUE,,,,,,,,,,,学校休業日使用不可
11007,さいたま市,つばさ小学校,ﾂﾊﾞｻｼｮｳｶﾞｯｺｳ,北区宮原町3丁目902-4,35.9335265,139.6105142,月～金（土、日、祝日、学校休業日使用不可）,8:30,17:00,8:30,17:00,8:30,17:00,8:30,17:00,8:30,17:00,,,,,,,FALSE,TRUE,,,,,,,,,,,学校休業日使用不可
11007,さいたま市,美園小学校,ﾐｿﾉｼｮｳｶﾞｯｺｳ,緑区大門4359,35.8906454,139.7353881,月～金（土、日、祝日、学校休業日使用不可）,8:30,17:00,8:30,17:00,8:30,17:00,8:30,17:00,8:30,17:00,,,,,,,FALSE,TRUE,,,,,,,,,,,学校休業日使用不可
11007,さいたま市,ひまわり特別支援学校,ﾋﾏﾜﾘﾄｸﾍﾞﾂｼｴﾝｶﾞｯｺｳ,西区三橋6-1587,35.9207309,139.5896106,月～金（土、日、祝日、学校休業日使用不可）,8:30,17:00,8:30,17:00,8:30,17:00,8:30,17:00,8:30,17:00,,,,,,,FALSE,TRUE,,,,,,,,,,,学校休業日使用不可
11007,さいたま市,さくら草特別支援学校,ｻｸﾗｿｳﾄｸﾍﾞﾂｼｴﾝｶﾞｯｺｳ,緑区三室636-80,35.8908643,139.6748394,月～金（土、日、祝日、学校休業日使用不可）,8:30,17:00,8:30,17:00,8:30,17:00,8:30,17:00,8:30,17:00,,,,,,,FALSE,TRUE,,,,,,,,,,,学校休業日使用不可
11007,さいたま市,幼児教育センター付属幼稚園,ﾖｳｼﾞｷｮｳｲｸｾﾝﾀーﾌｿﾞｸﾖｳﾁｴﾝ,大宮区大門町3丁目3,35.9066427,139.6300819,月～金（土、日、祝日、学校休業日使用不可）,8:30,17:00,8:30,17:00,8:30,17:00,8:30,17:00,8:30,17:00,,,,,,,FALSE,TRUE,,,,,,,,,,,学校休業日使用不可
11007,さいたま市,教育研究所,ｷｮｳｲｸｹﾝｷｭｳｼﾞｮ,浦和区岸町6丁目13-15,35.8538026,139.650062,月～金（土、日、祝日、年末年始使用不可）,8:30,17:00,8:30,17:00,8:30,17:00,8:30,17:00,8:30,17:00,,,,,,,FALSE,TRUE,,,,,,,,,,12-29|12-30|12-31|01-01|01-02|01-03,
11007,さいたま市,生涯学習総合センター,ｼｮｳｶﾞｲｶﾞｸｼｭｳｿｳｺﾞｳｾﾝﾀー,大宮区桜木町1丁目10-18,35.9053734,139.6187777,全日（年末年始使用不可）,9:00,21:30,9:00,21:30,9:00,21:30,9:00,21:30,9:00,21:30,9:00,21:30,9:00,21:30,,,TRUE,TRUE,,,,,,,,,,12-29|12-30|12-31|01-01|01-02|01-03,
11007,さいたま市,指扇公民館,ｻｼｵｳｷﾞｺｳﾐﾝｶﾝ,西区高木449-1,35.9251365,139.572071,全日（年末年始使用不可）,9:00,21:30,9:00,21:30,9:00,21:30,9:00,21:30,9:00,21:30,9:00,21:30,9:00,21:30,,,TRUE,TRUE,,,,,,,,,,12-29|12-30|12-31|01-01|01-02|01-03,
11007,さいたま市,植竹公民館,ｳｴﾀｹｺｳﾐﾝｶﾝ,北区盆栽町430,35.9273665,139.6281166,全日（年末年始使用不可）,9:00,21:30,9:00,21:30,9:00,21:30,9:00,21:30,9:00,21:30,9:00,21:30,9:00,21:30,,,TRUE,TRUE,,,,,,,,,,12-29|12-30|12-31|01-01|01-02|01-03,
11007,さいたま市,宮原公民館,ﾐﾔﾊﾗｺｳﾐﾝｶﾝ,北区宮原町4丁目66-4,35.9469762,139.6110626,全日（年末年始使用不可）,9:00,21:30,9:00,21:30,9:00,21:30,9:00,21:30,9:00,21:30,9:00,21:30,9:00,21:30,,,TRUE,TRUE,,,,,,,,,,12-29|12-30|12-31|01-01|01-02|01-03,
11007,さいたま市,大砂土公民館,ｵｵｻﾄｺｳﾐﾝｶﾝ,北区本郷町284,35.9389837,139.6301167,全日（年末年始使用不可）,9:00,21:30,9:00,21:30,9:00,21:30,9:00,21:30,9:00,21:30,9:00,21:30,9:00,21:30,,,TRUE,TRUE,,,,,,,,,,12-29|12-30|12-31|01-01|01-02|01-03,
11007,さいたま市,日進公民館,ﾆｯｼﾝｺｳﾐﾝｶﾝ,北区日進町2丁目1195-2,35.9273854,139.6042388,全日（年末年始使用不可）,9:00,21:30,9:00,21:30,9:00,21:30,9:00,21:30,9:00,21:30,9:00,21:30,9:00,21:30,,,TRUE,TRUE,,,,,,,,,,12-29|12-30|12-31|01-01|01-02|01-03,
11007,さいたま市,大宮中部公民館,ｵｵﾐﾔﾁｭｳﾌﾞｺｳﾐﾝｶﾝ,大宮区仲町3丁目30-2,35.905098,139.6289317,全日（年末年始使用不可）,9:00,21:30,9:00,21:30,9:00,21:30,9:00,21:30,9:00,21:30,9:00,21:30,9:00,21:30,,,TRUE,TRUE,,,,,,,,,,12-29|12-30|12-31|01-01|01-02|01-03,
11007,さいたま市,大宮南公民館,ｵｵﾐﾔﾐﾅﾐｺｳﾐﾝｶﾝ,大宮区吉敷町4丁目223-2,35.8983585,139.6357533,全日（年末年始使用不可）,9:00,21:30,9:00,21:30,9:00,21:30,9:00,21:30,9:00,21:30,9:00,21:30,9:00,21:30,,,TRUE,TRUE,,,,,,,,,,12-29|12-30|12-31|01-01|01-02|01-03,
11007,さいたま市,大宮北公民館,ｵｵﾐﾔｷﾀｺｳﾐﾝｶﾝ,大宮区宮町3丁目113-3,35.9115061,139.6286148,全日（年末年始使用不可）,9:00,21:30,9:00,21:30,9:00,21:30,9:00,21:30,9:00,21:30,9:00,21:30,9:00,21:30,,,TRUE,TRUE,,,,,,,,,,12-29|12-30|12-31|01-01|01-02|01-03,
11007,さいたま市,大成公民館,ｵｵﾅﾘｺｳﾐﾝｶﾝ,大宮区大成町2丁目335-1,35.9139653,139.6114901,全日（年末年始使用不可）,9:00,21:30,9:00,21:30,9:00,21:30,9:00,21:30,9:00,21:30,9:00,21:30,9:00,21:30,,,TRUE,TRUE,,,,,,,,,,12-29|12-30|12-31|01-01|01-02|01-03,
11007,さいたま市,大宮東公民館,ｵｵﾐﾔﾋｶﾞｼｺｳﾐﾝｶﾝ,大宮区堀の内町3丁目140,35.9141153,139.6366432,全日（年末年始使用不可）,9:00,21:30,9:00,21:30,9:00,21:30,9:00,21:30,9:00,21:30,9:00,21:30,9:00,21:30,,,TRUE,TRUE,,,,,,,,,,12-29|12-30|12-31|01-01|01-02|01-03,
11007,さいたま市,三橋公民館,ﾐﾊｼｺｳﾐﾝｶﾝ,大宮区三橋2丁目20,35.9039914,139.6043486,全日（年末年始使用不可）,9:00,21:30,9:00,21:30,9:00,21:30,9:00,21:30,9:00,21:30,9:00,21:30,9:00,21:30,,,TRUE,TRUE,,,,,,,,,,12-29|12-30|12-31|01-01|01-02|01-03,
11007,さいたま市,桜木公民館,ｻｸﾗｷﾞｺｳﾐﾝｶﾝ,大宮区桜木町1丁目10-18,35.9053734,139.6187777,全日（年末年始使用不可）,9:00,21:30,9:00,21:30,9:00,21:30,9:00,21:30,9:00,21:30,9:00,21:30,9:00,21:30,,,TRUE,TRUE,,,,,,,,,,12-29|12-30|12-31|01-01|01-02|01-03,
11007,さいたま市,大砂土東公民館,ｵｵｻﾄﾋｶﾞｼｺｳﾐﾝｶﾝ,見沼区大和田町2丁目1445,35.9313954,139.6488302,全日（年末年始使用不可）,9:00,21:30,9:00,21:30,9:00,21:30,9:00,21:30,9:00,21:30,9:00,21:30,9:00,21:30,,,TRUE,TRUE,,,,,,,,,,12-29|12-30|12-31|01-01|01-02|01-03,
11007,さいたま市,七里公民館,ﾅﾅｻﾄｺｳﾐﾝｶﾝ,見沼区東宮下265-1,35.9272135,139.6774677,全日（年末年始使用不可）,9:00,21:30,9:00,21:30,9:00,21:30,9:00,21:30,9:00,21:30,9:00,21:30,9:00,21:30,,,TRUE,TRUE,,,,,,,,,,12-29|12-30|12-31|01-01|01-02|01-03,
11007,さいたま市,旧与野公民館,ｷｭｳﾖﾉｺｳﾐﾝｶﾝ,中央区下落合6丁目10-3,35.8827485,139.6265974,全日（祝日、年末年始使用不可）,9:00,17:00,9:00,17:00,9:00,17:00,9:00,17:00,9:00,17:00,9:00,17:00,9:00,17:00,,,FALSE,TRUE,,,,,,,,,,12-29|12-30|12-31|01-01|01-02|01-03,
11007,さいたま市,大戸公民館,ｵｵﾄｺｳﾐﾝｶﾝ,中央区大戸3丁目14-21,35.8656604,139.6371835,全日（年末年始使用不可）,9:00,21:30,9:00,21:30,9:00,21:30,9:00,21:30,9:00,21:30,9:00,21:30,9:00,21:30,,,TRUE,TRUE,,,,,,,,,,12-29|12-30|12-31|01-01|01-02|01-03,
11007,さいたま市,与野本町公民館,ﾖﾉﾎﾝﾏﾁｺｳﾐﾝｶﾝ,中央区本町西1丁目14-12,35.8820863,139.619418,全日（年末年始使用不可）,9:00,21:30,9:00,21:30,9:00,21:30,9:00,21:30,9:00,21:30,9:00,21:30,9:00,21:30,,,TRUE,TRUE,,,,,,,,,,12-29|12-30|12-31|01-01|01-02|01-03,
11007,さいたま市,上落合公民館,ｶﾐｵﾁｱｲｺｳﾐﾝｶﾝ,中央区上落合6丁目9-3,35.8935532,139.6234418,全日（年末年始使用不可）,9:00,21:30,9:00,21:30,9:00,21:30,9:00,21:30,9:00,21:30,9:00,21:30,9:00,21:30,,,TRUE,TRUE,,,,,,,,,,12-29|12-30|12-31|01-01|01-02|01-03,
11007,さいたま市,下落合公民館,ｼﾓｵﾁｱｲｺｳﾐﾝｶﾝ,中央区下落合5丁目4-17,35.8845141,139.6286402,全日（年末年始使用不可）,9:00,21:30,9:00,21:30,9:00,21:30,9:00,21:30,9:00,21:30,9:00,21:30,9:00,21:30,,,TRUE,TRUE,,,,,,,,,,12-29|12-30|12-31|01-01|01-02|01-03,
11007,さいたま市,栄和公民館,ｻｶﾜｺｳﾐﾝｶﾝ,桜区道場2丁目11-27,35.8587564,139.6132921,全日（年末年始使用不可）,9:00,21:30,9:00,21:30,9:00,21:30,9:00,21:30,9:00,21:30,9:00,21:30,9:00,21:30,,,TRUE,TRUE,,,,,,,,,,12-29|12-30|12-31|01-01|01-02|01-03,
11007,さいたま市,田島公民館,ﾀｼﾞﾏｺｳﾐﾝｶﾝ,桜区田島3丁目27-6,35.845466,139.6328088,全日（年末年始使用不可）,9:00,21:30,9:00,21:30,9:00,21:30,9:00,21:30,9:00,21:30,9:00,21:30,9:00,21:30,,,TRUE,TRUE,,,,,,,,,,12-29|12-30|12-31|01-01|01-02|01-03,
11007,さいたま市,大久保東公民館,ｵｵｸﾎﾞﾋｶﾞｼｺｳﾐﾝｶﾝ,桜区大久保領家131-6,35.8695657,139.6083294,全日（年末年始使用不可）,9:00,21:30,9:00,21:30,9:00,21:30,9:00,21:30,9:00,21:30,9:00,21:30,9:00,21:30,,,TRUE,TRUE,,,,,,,,,,12-29|12-30|12-31|01-01|01-02|01-03,
11007,さいたま市,領家公民館,ﾘｮｳｹｺｳﾐﾝｶﾝ,浦和区領家4丁目13-14,35.8820352,139.6538616,全日（年末年始使用不可）,9:00,21:30,9:00,21:30,9:00,21:30,9:00,21:30,9:00,21:30,9:00,21:30,9:00,21:30,,,TRUE,TRUE,,,,,,,,,,12-29|12-30|12-31|01-01|01-02|01-03,
11007,さいたま市,浦和南公民館,ｳﾗﾜﾐﾅﾐｺｳﾐﾝｶﾝ,浦和区神明1丁目28-13,35.8501092,139.6610237,全日（年末年始使用不可）,9:00,21:30,9:00,21:30,9:00,21:30,9:00,21:30,9:00,21:30,9:00,21:30,9:00,21:30,,,TRUE,TRUE,,,,,,,,,,12-29|12-30|12-31|01-01|01-02|01-03,
11007,さいたま市,仲本公民館,ﾅｶﾓﾄｺｳﾐﾝｶﾝ,浦和区本太2丁目12-40,35.8606027,139.662074,全日（年末年始使用不可）,9:00,21:30,9:00,21:30,9:00,21:30,9:00,21:30,9:00,21:30,9:00,21:30,9:00,21:30,,,TRUE,TRUE,,,,,,,,,,12-29|12-30|12-31|01-01|01-02|01-03,
11007,さいたま市,針ヶ谷公民館,ﾊﾘｶﾞﾔｺｳﾐﾝｶﾝ,浦和区針ヶ谷3丁目4-14,35.8827216,139.6420119,全日（年末年始使用不可）,9:00,21:30,9:00,21:30,9:00,21:30,9:00,21:30,9:00,21:30,9:00,21:30,9:00,21:30,,,TRUE,TRUE,,,,,,,,,,12-29|12-30|12-31|01-01|01-02|01-03,
11007,さいたま市,常盤公民館,ﾄｷﾜｺｳﾐﾝｶﾝ,浦和区常盤9丁目30-1,35.8696105,139.6430242,全日（年末年始使用不可）,9:00,21:30,9:00,21:30,9:00,21:30,9:00,21:30,9:00,21:30,9:00,21:30,9:00,21:30,,,TRUE,TRUE,,,,,,,,,,12-29|12-30|12-31|01-01|01-02|01-03,
11007,さいたま市,上木崎公民館,ｶﾐｷｻﾞｷｺｳﾐﾝｶﾝ,浦和区上木崎3丁目2-14,35.8872365,139.6456883,全日（年末年始使用不可）,9:00,21:30,9:00,21:30,9:00,21:30,9:00,21:30,9:00,21:30,9:00,21:30,9:00,21:30,,,TRUE,TRUE,,,,,,,,,,12-29|12-30|12-31|01-01|01-02|01-03,
11007,さいたま市,岸町公民館,ｷｼﾏﾁｺｳﾐﾝｶﾝ,浦和区岸町5丁目1-3,35.8521501,139.6545551,全日（年末年始使用不可）,9:00,21:30,9:00,21:30,9:00,21:30,9:00,21:30,9:00,21:30,9:00,21:30,9:00,21:30,,,TRUE,TRUE,,,,,,,,,,12-29|12-30|12-31|01-01|01-02|01-03,
11007,さいたま市,大東公民館,ﾀﾞｲﾄｳｺｳﾐﾝｶﾝ,浦和区大東2丁目13-16,35.8833902,139.6626238,全日（年末年始使用不可）,9:00,21:30,9:00,21:30,9:00,21:30,9:00,21:30,9:00,21:30,9:00,21:30,9:00,21:30,,,TRUE,TRUE,,,,,,,,,,12-29|12-30|12-31|01-01|01-02|01-03,
11007,さいたま市,本太公民館,ﾓﾄﾌﾞﾄｺｳﾐﾝｶﾝ,浦和区本太4丁目3-23,35.866702,139.6578173,全日（年末年始使用不可）,9:00,21:30,9:00,21:30,9:00,21:30,9:00,21:30,9:00,21:30,9:00,21:30,9:00,21:30,,,TRUE,TRUE,,,,,,,,,,12-29|12-30|12-31|01-01|01-02|01-03,
11007,さいたま市,仲町公民館,ﾅｶﾏﾁｺｳﾐﾝｶﾝ,浦和区常盤4丁目1-12,35.8613752,139.6498826,全日（年末年始使用不可）,9:00,21:30,9:00,21:30,9:00,21:30,9:00,21:30,9:00,21:30,9:00,21:30,9:00,21:30,,,TRUE,TRUE,,,,,,,,,,12-29|12-30|12-31|01-01|01-02|01-03,
11007,さいたま市,北浦和公民館,ｷﾀｳﾗﾜｺｳﾐﾝｶﾝ,浦和区北浦和2丁目19-25,35.8774625,139.6476756,全日（年末年始使用不可）,9:00,21:30,9:00,21:30,9:00,21:30,9:00,21:30,9:00,21:30,9:00,21:30,9:00,21:30,,,TRUE,TRUE,,,,,,,,,,12-29|12-30|12-31|01-01|01-02|01-03,
11007,さいたま市,南箇公民館,ﾅﾝｶﾞｺｳﾐﾝｶﾝ,浦和区領家3丁目15-10,35.8769606,139.6580009,全日（年末年始使用不可）,9:00,21:30,9:00,21:30,9:00,21:30,9:00,21:30,9:00,21:30,9:00,21:30,9:00,21:30,,,TRUE,TRUE,,,,,,,,,,12-29|12-30|12-31|01-01|01-02|01-03,
11007,さいたま市,六辻公民館,ﾑﾂｼﾞｺｳﾐﾝｶﾝ,南区根岸3丁目10-7,35.8397853,139.6623588,全日（年末年始使用不可）,9:00,21:30,9:00,21:30,9:00,21:30,9:00,21:30,9:00,21:30,9:00,21:30,9:00,21:30,,,TRUE,TRUE,,,,,,,,,,12-29|12-30|12-31|01-01|01-02|01-03,
11007,さいたま市,谷田公民館,ﾔﾀﾞｺｳﾐﾝｶﾝ,南区大谷口1089-1,35.8614998,139.6770428,全日（年末年始使用不可）,9:00,21:30,9:00,21:30,9:00,21:30,9:00,21:30,9:00,21:30,9:00,21:30,9:00,21:30,,,TRUE,TRUE,,,,,,,,,,12-29|12-30|12-31|01-01|01-02|01-03,
11007,さいたま市,別所公民館,ﾍﾞｯｼｮｺｳﾐﾝｶﾝ,南区別所5丁目21-13,35.849506,139.6436438,全日（年末年始使用不可）,9:00,21:30,9:00,21:30,9:00,21:30,9:00,21:30,9:00,21:30,9:00,21:30,9:00,21:30,,,TRUE,TRUE,,,,,,,,,,12-29|12-30|12-31|01-01|01-02|01-03,
11007,さいたま市,西浦和公民館,ﾆｼｳﾗﾜｺｳﾐﾝｶﾝ,南区曲本2丁目7-11,35.8377895,139.6388785,全日（年末年始使用不可）,9:00,21:30,9:00,21:30,9:00,21:30,9:00,21:30,9:00,21:30,9:00,21:30,9:00,21:30,,,TRUE,TRUE,,,,,,,,,,12-29|12-30|12-31|01-01|01-02|01-03,
11007,さいたま市,南浦和公民館,ﾐﾅﾐｳﾗﾜｺｳﾐﾝｶﾝ,南区大谷場2丁目6-25,35.8545382,139.6722249,全日（年末年始使用不可）,9:00,21:30,9:00,21:30,9:00,21:30,9:00,21:30,9:00,21:30,9:00,21:30,9:00,21:30,,,TRUE,TRUE,,,,,,,,,,12-29|12-30|12-31|01-01|01-02|01-03,
11007,さいたま市,東浦和公民館,ﾋｶﾞｼｳﾗﾜｺｳﾐﾝｶﾝ,南区大谷口5339,35.861251,139.6951051,全日（年末年始使用不可）,9:00,21:30,9:00,21:30,9:00,21:30,9:00,21:30,9:00,21:30,9:00,21:30,9:00,21:30,,,TRUE,TRUE,,,,,,,,,,12-29|12-30|12-31|01-01|01-02|01-03,
11007,さいたま市,文蔵公民館,ﾌﾞｿﾞｳｺｳﾐﾝｶﾝ,南区文蔵4丁目19-3,35.837957,139.6695771,全日（年末年始使用不可）,9:00,21:30,9:00,21:30,9:00,21:30,9:00,21:30,9:00,21:30,9:00,21:30,9:00,21:30,,,TRUE,TRUE,,,,,,,,,,12-29|12-30|12-31|01-01|01-02|01-03,
11007,さいたま市,尾間木公民館,ｵﾏｷﾞｺｳﾐﾝｶﾝ,緑区大間木749,35.8726441,139.6937151,全日（年末年始使用不可）,9:00,21:30,9:00,21:30,9:00,21:30,9:00,21:30,9:00,21:30,9:00,21:30,9:00,21:30,,,TRUE,TRUE,,,,,,,,,,12-29|12-30|12-31|01-01|01-02|01-03,
11007,さいたま市,原山公民館,ﾊﾗﾔﾏｺｳﾐﾝｶﾝ,緑区原山2丁目33-1,35.8714471,139.6685792,全日（年末年始使用不可）,9:00,21:30,9:00,21:30,9:00,21:30,9:00,21:30,9:00,21:30,9:00,21:30,9:00,21:30,,,TRUE,TRUE,,,,,,,,,,12-29|12-30|12-31|01-01|01-02|01-03,
11007,さいたま市,大古里公民館,ｵｵｻﾄｺｳﾐﾝｶﾝ,緑区三室2614-2,35.8873041,139.6729557,全日（年末年始使用不可）,9:00,21:30,9:00,21:30,9:00,21:30,9:00,21:30,9:00,21:30,9:00,21:30,9:00,21:30,,,TRUE,TRUE,,,,,,,,,,12-29|12-30|12-31|01-01|01-02|01-03,
11007,さいたま市,岩槻本丸公民館,ｲﾜﾂｷﾎﾝﾏﾙｺｳﾐﾝｶﾝ,岩槻区本丸3丁目17-1,35.9540881,139.7052856,全日（年末年始使用不可）,9:00,21:30,9:00,21:30,9:00,21:30,9:00,21:30,9:00,21:30,9:00,21:30,9:00,21:30,,,TRUE,TRUE,,,,,,,,,,12-29|12-30|12-31|01-01|01-02|01-03,
11007,さいたま市,岩槻本町公民館,ｲﾜﾂｷﾎﾝﾏﾁｺｳﾐﾝｶﾝ,岩槻区本町4丁目2-25,35.949129,139.6976059,全日（年末年始使用不可）,9:00,21:30,9:00,21:30,9:00,21:30,9:00,21:30,9:00,21:30,9:00,21:30,9:00,21:30,,,TRUE,TRUE,,,,,,,,,,12-29|12-30|12-31|01-01|01-02|01-03,
11007,さいたま市,岩槻南部公民館,ｲﾜﾂｷﾅﾝﾌﾞｺｳﾐﾝｶﾝ,岩槻区笹久保1348-1,35.9164018,139.7156872,全日（年末年始使用不可）,9:00,21:30,9:00,21:30,9:00,21:30,9:00,21:30,9:00,21:30,9:00,21:30,9:00,21:30,,,TRUE,TRUE,,,,,,,,,,12-29|12-30|12-31|01-01|01-02|01-03,
11007,さいたま市,岩槻北部公民館,ｲﾜﾂｷﾎｸﾌﾞｺｳﾐﾝｶﾝ,岩槻区慈恩寺904-1,35.9800755,139.7142676,全日（年末年始使用不可）,9:00,21:30,9:00,21:30,9:00,21:30,9:00,21:30,9:00,21:30,9:00,21:30,9:00,21:30,,,TRUE,TRUE,,,,,,,,,,12-29|12-30|12-31|01-01|01-02|01-03,
11007,さいたま市,岩槻城址公民館,ｲﾜﾂｷｼﾞｮｳｼｺｳﾐﾝｶﾝ,岩槻区太田3丁目4-1,35.9511464,139.7104754,全日（年末年始使用不可）,9:00,21:30,9:00,21:30,9:00,21:30,9:00,21:30,9:00,21:30,9:00,21:30,9:00,21:30,,,TRUE,TRUE,,,,,,,,,,12-29|12-30|12-31|01-01|01-02|01-03,
11007,さいたま市,片柳公民館,ｶﾀﾔﾅｷﾞｺｳﾐﾝｶﾝ,見沼区東新井117-2,35.9097238,139.6708478,全日（年末年始使用不可）,9:00,21:30,9:00,21:30,9:00,21:30,9:00,21:30,9:00,21:30,9:00,21:30,9:00,21:30,,,TRUE,TRUE,,,,,,,,,,12-29|12-30|12-31|01-01|01-02|01-03,
11007,さいたま市,春岡公民館,ﾊﾙｵｶｺｳﾐﾝｶﾝ,見沼区深作1丁目5-1,35.950778,139.6643905,全日（年末年始使用不可）,9:00,21:30,9:00,21:30,9:00,21:30,9:00,21:30,9:00,21:30,9:00,21:30,9:00,21:30,,,TRUE,TRUE,,,,,,,,,,12-29|12-30|12-31|01-01|01-02|01-03,
11007,さいたま市,土合公民館,ﾂﾁｱｲｺｳﾐﾝｶﾝ,桜区西堀4丁目2-35,35.8518048,139.6278322,全日（年末年始使用不可）,9:00,21:30,9:00,21:30,9:00,21:30,9:00,21:30,9:00,21:30,9:00,21:30,9:00,21:30,,,TRUE,TRUE,,,,,,,,,,12-29|12-30|12-31|01-01|01-02|01-03,
11007,さいたま市,大久保公民館,ｵｵｸﾎﾞｺｳﾐﾝｶﾝ,桜区五関839-2,35.8702243,139.5978328,全日（年末年始使用不可）,9:00,21:30,9:00,21:30,9:00,21:30,9:00,21:30,9:00,21:30,9:00,21:30,9:00,21:30,,,TRUE,TRUE,,,,,,,,,,12-29|12-30|12-31|01-01|01-02|01-03,
11007,さいたま市,三室公民館,ﾐﾑﾛｺｳﾐﾝｶﾝ,緑区三室1946-5,35.8831227,139.6815821,全日（年末年始使用不可）,9:00,21:30,9:00,21:30,9:00,21:30,9:00,21:30,9:00,21:30,9:00,21:30,9:00,21:30,,,TRUE,TRUE,,,,,,,,,,12-29|12-30|12-31|01-01|01-02|01-03,
11007,さいたま市,美園公民館,ﾐｿﾉｺｳﾐﾝｶﾝ,緑区大門1973-1,35.8895447,139.7178744,全日（年末年始使用不可）,9:00,21:30,9:00,21:30,9:00,21:30,9:00,21:30,9:00,21:30,9:00,21:30,9:00,21:30,,,TRUE,TRUE,,,,,,,,,,12-29|12-30|12-31|01-01|01-02|01-03,
11007,さいたま市,植水公民館,ｳｴﾐｽﾞｺｳﾐﾝｶﾝ,西区中野林173-2,35.8939248,139.5917342,全日（年末年始使用不可）,9:00,21:30,9:00,21:30,9:00,21:30,9:00,21:30,9:00,21:30,9:00,21:30,9:00,21:30,,,TRUE,TRUE,,,,,,,,,,12-29|12-30|12-31|01-01|01-02|01-03,
11007,さいたま市,馬宮公民館,ﾏﾐﾔｺｳﾐﾝｶﾝ,西区西遊馬236-2,35.9037201,139.5730976,全日（年末年始使用不可）,9:00,21:30,9:00,21:30,9:00,21:30,9:00,21:30,9:00,21:30,9:00,21:30,9:00,21:30,,,TRUE,TRUE,,,,,,,,,,12-29|12-30|12-31|01-01|01-02|01-03,
11007,さいたま市,鈴谷公民館,ｽｽﾞﾔｺｳﾐﾝｶﾝ,中央区鈴谷7丁目5-11,35.8741404,139.6242389,全日（年末年始使用不可）,8:30,21:30,8:30,21:30,8:30,21:30,8:30,21:30,8:30,21:30,8:30,21:30,8:30,21:30,,,TRUE,TRUE,,,,,,,,,,12-29|12-30|12-31|01-01|01-02|01-03,
11007,さいたま市,善前公民館,ｾﾞﾝﾏｴｺｳﾐﾝｶﾝ,南区太田窪2504－5,35.853811,139.6870176,全日（年末年始使用不可）,9:00,21:30,9:00,21:30,9:00,21:30,9:00,21:30,9:00,21:30,9:00,21:30,9:00,21:30,,,TRUE,TRUE,,,,,,,,,,12-29|12-30|12-31|01-01|01-02|01-03,
11007,さいたま市,中央図書館,ﾁｭｳｵｳﾄｼｮｶﾝ,浦和区東高砂町11-1,35.8586737,139.6591511,全日（第1・3月曜、年末年始使用不可）,9:00,21:00,9:00,21:00,9:00,21:00,9:00,21:00,9:00,21:00,9:00,18:00,9:00,18:00,9:00,18:00,TRUE,TRUE,,,1|3,,,,,,,12-29|12-30|12-31|01-01|01-02|01-03,
11007,さいたま市,北浦和図書館,ｷﾀｳﾗﾜﾄｼｮｶﾝ,浦和区北浦和1丁目4-2,35.8748286,139.6463745,火～日（月、年末年始使用不可）,,,9:00,20:00,9:00,20:00,9:00,20:00,9:00,20:00,9:00,18:00,9:00,18:00,9:00,18:00,TRUE,TRUE,,,,,,,,,,12-29|12-30|12-31|01-01|01-02|01-03,
11007,さいたま市,南浦和図書館,ﾐﾅﾐｳﾗﾜﾄｼｮｶﾝ,南区根岸1丁目7-1,35.843456,139.6635671,火～日（月、年末年始使用不可）,,,9:00,20:00,9:00,20:00,9:00,20:00,9:00,20:00,9:00,18:00,9:00,18:00,9:00,18:00,TRUE,TRUE,,,,,,,,,,12-29|12-30|12-31|01-01|01-02|01-03,
11007,さいたま市,大宮図書館,ｵｵﾐﾔﾄｼｮｶﾝ,大宮区高鼻町2丁目1,35.9113041,139.6312308,火～日（月、年末年始使用不可）,,,9:00,20:00,9:00,20:00,9:00,20:00,9:00,20:00,9:00,18:00,9:00,18:00,9:00,18:00,TRUE,TRUE,,,,,,,,,,12-29|12-30|12-31|01-01|01-02|01-03,
11007,さいたま市,大宮西部図書館,ｵｵﾐﾔｾｲﾌﾞﾄｼｮｶﾝ,北区櫛引町2丁目499-1,35.9194453,139.6094958,火～日（月、年末年始使用不可）,,,9:00,20:00,9:00,20:00,9:00,20:00,9:00,20:00,9:00,18:00,9:00,18:00,9:00,18:00,TRUE,TRUE,,,,,,,,,,12-29|12-30|12-31|01-01|01-02|01-03,
11007,さいたま市,大宮東図書館,ｵｵﾐﾔﾋｶﾞｼﾄｼｮｶﾝ,見沼区堀崎町48-1,35.9348028,139.656992,月、水～日（火、年末年始使用不可）,9:00,18:00,,,9:00,18:00,9:00,18:00,9:00,18:00,9:00,17:00,9:00,17:00,9:00,17:00,TRUE,TRUE,,,,,,,,,,12-29|12-30|12-31|01-01|01-02|01-03,
11007,さいたま市,春野図書館,ﾊﾙﾉﾄｼｮｶﾝ,見沼区春野2丁目12-1,35.9590652,139.6607831,火～日（月、年末年始使用不可）,,,9:00,20:00,9:00,20:00,9:00,20:00,9:00,20:00,9:00,18:00,9:00,18:00,9:00,18:00,TRUE,TRUE,,,,,,,,,,12-29|12-30|12-31|01-01|01-02|01-03,
11007,さいたま市,与野図書館,ﾖﾉﾄｼｮｶﾝ,中央区下落合5丁目11-11,35.8852568,139.6271132,火～日（月、年末年始使用不可）,,,9:00,20:00,9:00,20:00,9:00,20:00,9:00,20:00,9:00,18:00,9:00,18:00,9:00,18:00,TRUE,TRUE,,,,,,,,,,12-29|12-30|12-31|01-01|01-02|01-03,
11007,さいたま市,与野南図書館,ﾖﾉﾐﾅﾐﾄｼｮｶﾝ,中央区大戸6丁目28-16,35.8668501,139.6339624,月、水～日（火、年末年始使用不可）,9:00,18:00,,,9:00,18:00,9:00,18:00,9:00,18:00,9:00,17:00,9:00,17:00,9:00,17:00,TRUE,TRUE,,,,,,,,,,12-29|12-30|12-31|01-01|01-02|01-03,
11007,さいたま市,岩槻東部図書館,ｲﾜﾂｷﾄｳﾌﾞﾄｼｮｶﾝ,岩槻区東岩槻6丁目6,35.9622198,139.7157281,月、水～日（火、年末年始使用不可）,9:00,18:00,,,9:00,18:00,9:00,18:00,9:00,18:00,9:00,17:00,9:00,17:00,9:00,17:00,TRUE,TRUE,,,,,,,,,,12-29|12-30|12-31|01-01|01-02|01-03,
11007,さいたま市,岩槻図書館,ｲﾜﾂｷﾄｼｮｶﾝ,岩槻区本町4丁目2-25,35.949129,139.6976059,月、水～日（火、年末年始使用不可）,9:00,18:00,,,9:00,18:00,9:00,18:00,9:00,18:00,9:00,17:00,9:00,17:00,9:00,17:00,TRUE,TRUE,,,,,,,,,,12-29|12-30|12-31|01-01|01-02|01-03,
11007,さいたま市,七里図書館,ﾅﾅｻﾄﾄｼｮｶﾝ,見沼区大谷1210,35.9210154,139.6744493,月、水～日（火、年末年始使用不可）,9:00,18:00,,,9:00,18:00,9:00,18:00,9:00,18:00,9:00,17:00,9:00,17:00,9:00,17:00,TRUE,TRUE,,,,,,,,,,12-29|12-30|12-31|01-01|01-02|01-03,
11007,さいたま市,馬宮図書館,ﾏﾐﾔﾄｼｮｶﾝ,西区西遊馬533-1,35.9051702,139.5726662,月、水～日（火、年末年始使用不可）,9:00,18:00,,,9:00,18:00,9:00,18:00,9:00,18:00,9:00,17:00,9:00,17:00,9:00,17:00,TRUE,TRUE,,,,,,,,,,12-29|12-30|12-31|01-01|01-02|01-03,
11007,さいたま市,宮原図書館,ﾐﾔﾊﾗﾄｼｮｶﾝ,北区吉野町2丁目195-1,35.958594,139.6008687,月、水～日（火、年末年始使用不可）,9:00,18:00,,,9:00,18:00,9:00,18:00,9:00,18:00,9:00,17:00,9:00,17:00,9:00,17:00,TRUE,TRUE,,,,,,,,,,12-29|12-30|12-31|01-01|01-02|01-03,
11007,さいたま市,岩槻駅東口図書館,ｲﾜﾂｷｴｷﾋｶﾞｼｸﾞﾁﾄｼｮｶﾝ,岩槻区本町3丁目1-1,35.9503838,139.6935255,火～日（月、年末年始使用不可）,,,9:00,20:00,9:00,20:00,9:00,20:00,9:00,20:00,9:00,18:00,9:00,18:00,9:00,18:00,TRUE,TRUE,,,,,,,,,,12-29|12-30|12-31|01-01|01-02|01-03,
11007,さいたま市,与野図書館西分館,ﾖﾉﾄｼｮｶﾝﾆｼﾌﾞﾝｶﾝ,中央区桜丘2丁目6-28,35.8821492,139.6149278,月、水～日（火、年末年始使用不可）,9:00,18:00,,,9:00,18:00,9:00,18:00,9:00,18:00,9:00,17:00,9:00,17:00,9:00,17:00,TRUE,TRUE,,,,,,,,,,12-29|12-30|12-31|01-01|01-02|01-03,
11007,さいたま市,東浦和図書館,ﾋｶﾞｼｳﾗﾜﾄｼｮｶﾝ,緑区中尾1440-8,35.8717325,139.685775,火～日（月、年末年始使用不可）,,,9:00,20:00,9:00,20:00,9:00,20:00,9:00,20:00,9:00,18:00,9:00,18:00,9:00,18:00,TRUE,TRUE,,,,,,,,,,12-29|12-30|12-31|01-01|01-02|01-03,
11007,さいたま市,桜図書館,ｻｸﾗﾄｼｮｶﾝ,桜区道場4丁目3-1,35.8556337,139.6088379,月～日（第2・第4月曜日、年末年始使用不可）,8:30,21:30,8:30,21:30,8:30,21:30,8:30,21:30,8:30,21:30,8:30,21:30,8:30,21:30,,,TRUE,TRUE,,,2|4,,,,,,,12-29|12-30|12-31|01-01|01-02|01-03,
11007,さいたま市,桜木図書館,ｻｸﾗｷﾞﾄｼｮｶﾝ,大宮区桜木町1丁目10-18,35.9053734,139.6187777,火～日（月、年末年始使用不可）,,,9:00,20:00,9:00,20:00,9:00,20:00,9:00,20:00,9:00,18:00,9:00,18:00,9:00,18:00,TRUE,TRUE,,,,,,,,,,12-29|12-30|12-31|01-01|01-02|01-03,
11007,さいたま市,大宮西部図書館三橋分館,ｵｵﾐﾔｾｲﾌﾞﾄｼｮｶﾝﾐﾊｼﾌﾞﾝｶﾝ,西区三橋6丁目642-4,35.9175959,139.5920055,月、水～日（火、年末年始使用不可）,9:00,18:00,,,9:00,18:00,9:00,18:00,9:00,18:00,9:00,17:00,9:00,17:00,9:00,17:00,TRUE,TRUE,,,,,,,,,,12-29|12-30|12-31|01-01|01-02|01-03,
11007,さいたま市,片柳図書館,ｶﾀﾔﾅｷﾞﾄｼｮｶﾝ,見沼区染谷3丁目147-1,35.9096477,139.6841321,月、水～日（火、年末年始使用不可）,9:00,18:00,,,9:00,18:00,9:00,18:00,9:00,18:00,9:00,17:00,9:00,17:00,9:00,17:00,TRUE,TRUE,,,,,,,,,,12-29|12-30|12-31|01-01|01-02|01-03,
11007,さいたま市,北図書館,ｷﾀﾄｼｮｶﾝ,北区宮原町1丁目852-1,35.9314988,139.6203592,火～日（月、年末年始使用不可）,,,9:00,20:00,9:00,20:00,9:00,20:00,9:00,20:00,9:00,18:00,9:00,18:00,9:00,18:00,TRUE,TRUE,,,,,,,,,,12-29|12-30|12-31|01-01|01-02|01-03,
11007,さいたま市,武蔵浦和図書館,ﾑｻｼｳﾗﾜﾄｼｮｶﾝ,南区別所7丁目20-1,35.8452604,139.6453465,年末年始以外,8:00,22:00,8:00,22:00,8:00,22:00,8:00,22:00,8:00,22:00,8:00,22:00,8:00,22:00,,,TRUE,TRUE,,,,,,,,,,12-29|12-30|12-31|01-01|01-02|01-03,
11007,さいたま市,土器の館,ﾄﾞｷﾉﾔｶﾀ,大宮区高鼻町2丁目305-4,35.9156675,139.6323719,月～金（土、日、祝日、年末年始使用不可）,9:00,16:00,9:00,16:00,9:00,16:00,9:00,16:00,9:00,16:00,,,,,,,FALSE,TRUE,,,,,,,,,,12-29|12-30|12-31|01-01|01-02|01-03,
11007,さいたま市,博物館,ﾊｸﾌﾞﾂｶﾝ,大宮区高鼻町2丁目1-2,35.9113189,139.6316523,火～日（月、祝日の翌日、年末年始使用不可）,,,9:00,16:30,9:00,16:30,9:00,16:30,9:00,16:30,9:00,16:30,9:00,16:30,,,TRUE,FALSE,,,,,,,,,,12-29|12-30|12-31|01-01|01-02|01-03,
11007,さいたま市,浦和博物館,ｳﾗﾜﾊｸﾌﾞﾂｶﾝ,緑区三室2458,35.8900256,139.6775493,火～日（月、祝日の翌日、年末年始使用不可）,,,9:00,16:30,9:00,16:30,9:00,16:30,9:00,16:30,9:00,16:30,9:00,16:30,,,TRUE,FALSE,,,,,,,,,,12-29|12-30|12-31|01-01|01-02|01-03,
11007,さいたま市,民家園,ﾐﾝｶｴﾝ,緑区下山口新田1179-1,35.8783492,139.7106272,火～日（月、祝日の翌日、年末年始使用不可）,,,9:00,16:30,9:00,16:30,9:00,16:30,9:00,16:30,9:00,16:30,9:00,16:30,,,TRUE,FALSE,,,,,,,,,,12-29|12-30|12-31|01-01|01-02|01-03,
11007,さいたま市,くらしっく館,ｸﾗｼｯｸｶﾝ,見沼区片柳1266-2,35.9062175,139.6907865,火～日（月、祝日の翌日、年末年始使用不可）,,,9:00,16:30,9:00,16:30,9:00,16:30,9:00,16:30,9:00,16:30,9:00,16:30,,,TRUE,FALSE,,,,,,,,,,12-29|12-30|12-31|01-01|01-02|01-03,
11007,さいたま市,岩槻郷土資料館,ｲﾜﾂｷｷｮｳﾄﾞｼﾘｮｳｶﾝ,岩槻区本町2丁目2-34,35.945458,139.6935125,火～日（月、祝日の翌日、年末年始使用不可）,,,9:00,16:30,9:00,16:30,9:00,16:30,9:00,16:30,9:00,16:30,9:00,16:30,,,TRUE,FALSE,,,,,,,,,,12-29|12-30|12-31|01-01|01-02|01-03,
11007,さいたま市,遷喬館,ｾﾝｷｮｳｶﾝ,岩槻区本町4丁目8-9,35.9490473,139.6980745,火～日（月、祝日の翌日、年末年始使用不可）,,,9:00,16:30,9:00,16:30,9:00,16:30,9:00,16:30,9:00,16:30,9:00,16:30,,,TRUE,FALSE,,,,,,,,,,12-29|12-30|12-31|01-01|01-02|01-03,
11007,さいたま市,青少年宇宙科学館,ｾｲｼｮｳﾈﾝｳﾁｭｳｶｶﾞｸｶﾝ,浦和区駒場2丁目3-45,35.8723621,139.6645327,火～日（月、祝日の翌日、年末年始使用不可）,,,9:00,17:00,9:00,17:00,9:00,17:00,9:00,17:00,9:00,17:00,9:00,17:00,,,TRUE,FALSE,,,,,,,,,,12-29|12-30|12-31|01-01|01-02|01-03,
11007,さいたま市,宇宙劇場,ｳﾁｭｳｹﾞｷｼﾞｮｳ,大宮区錦町682-2,35.908036,139.6215459,ほぼ全日（年末年始使用不可）,9:00,21:00,9:00,21:00,9:00,21:00,9:00,21:00,9:00,21:00,9:00,21:00,9:00,21:00,,,TRUE,TRUE,,,,,,,,,,12-29|12-30|12-31|01-01|01-02|01-03,第4日曜日19：00まで利用可
11007,さいたま市,うらわ美術館,ｳﾗﾜﾋﾞｼﾞｭﾂｶﾝ,浦和区仲町2丁目5-1,35.8606591,139.6524791,火～日（月、年末年始使用不可）,,,10:00,17:00,10:00,17:00,10:00,17:00,10:00,17:00,10:00,20：00,10:00,20：00,,,TRUE,TRUE,,,,,,,,,,12-29|12-30|12-31|01-01|01-02|01-03,
11007,さいたま市,五反田会館,ｺﾞﾀﾝﾀﾞｶｲｶﾝ,見沼区南中丸1370-5,35.920923,139.6552521,休館日をのぞく（休館：毎月第2・4日曜、第1・3・5月曜、祝日、12/28～1/4）,9:00,21:00,9:00,21:00,9:00,21:00,9:00,21:00,9:00,21:00,9:00,21:00,9:00,21:00,,,FALSE,TRUE,,,1|3|5,,,,,,2|4,12-28|12-29|12-30|12-31|01-01|01-02|01-03|01-04,17:15以降利用がない場合は利用不可
11007,さいたま市,鹿室南集会所,ｶﾅﾑﾛﾐﾅﾐｼｭｳｶｲｼﾞｮ,岩槻区鹿室1120-2,35.9899302,139.7021673,休館日をのぞく（休館：毎月第2・4日曜、第1・3・5月曜、祝日、12/28～1/4）,9:00,21:00,9:00,21:00,9:00,21:00,9:00,21:00,9:00,21:00,9:00,21:00,9:00,21:00,,,FALSE,TRUE,,,1|3|5,,,,,,2|4,12-28|12-29|12-30|12-31|01-01|01-02|01-03|01-04,17:15以降利用がない場合は利用不可